{"type":"FeatureCollection","features":[{"id":"694","type":"Feature","properties":{"GISJOIN":"G37008100101","pct_black":17.78},"geometry":{"type":"Polygon","coordinates":[[[-79.74144599995432,36.109861999950006],[-79.74287399955365,36.108965000268014],[-79.74376599975062,36.1066400000217],[-79.74516799963948,36.10668399956286],[-79.745546999459,36.10592000008155],[-79.74720599958032,36.106033999733604],[-79.75056399969785,36.102526000399784],[-79.75118600061965,36.10296599965143],[-79.75288700014761,36.102663999793755],[-79.7536590001617,36.101269000342185],[-79.75532599997132,36.1006820000418],[-79.75663900019376,36.09792999991069],[-79.75576400022429,36.09770300016968],[-79.75660900043066,36.08750800012237],[-79.77042099982953,36.08789699964061],[-79.77075899944714,36.08514100003687],[-79.77646399965106,36.085389000132736],[-79.77432700044739,36.08863700041036],[-79.76462399981915,36.099869000309596],[-79.75739899942779,36.112556000170486],[-79.75320100057421,36.11843199980046],[-79.74977599999441,36.118318000330355],[-79.75011599967463,36.11501299974813],[-79.74662400020568,36.1148409999832],[-79.74694799951558,36.10864599967952],[-79.74561800011253,36.110761000107686],[-79.74395800012533,36.11044899956512],[-79.74214400024744,36.11118599982054],[-79.74144599995432,36.109861999950006]]]}},{"id":"695","type":"Feature","properties":{"GISJOIN":"G37008100102","pct_black":2.34},"geometry":{"type":"Polygon","coordinates":[[[-79.76197299993748,36.10465800013],[-79.76422100036895,36.10523100005954],[-79.76661200037371,36.10396200031863],[-79.76837199982423,36.10468799969292],[-79.76932100020507,36.10325999995097],[-79.77220599958808,36.102452999691806],[-79.77417800004484,36.10048100023181],[-79.7764459995593,36.09945400036439],[-79.7773409997732,36.09816799972973],[-79.78298199948489,36.09771399987378],[-79.78386299968103,36.09554299984984],[-79.78667200012862,36.09643500037195],[-79.78673399984878,36.095719999527205],[-79.78541999978815,36.094812999621965],[-79.78758699966134,36.09368100022326],[-79.78855699944414,36.09400300009618],[-79.78795400019101,36.10345200023793],[-79.7910619997551,36.10948199960063],[-79.78851000044465,36.110465000365785],[-79.78196899982349,36.111255000396326],[-79.77320100016192,36.11360900014727],[-79.75721899992297,36.112819000239156],[-79.76197299993748,36.10465800013]]]}},{"id":"696","type":"Feature","properties":{"GISJOIN":"G37008100103","pct_black":0.0},"geometry":{"type":"Polygon","coordinates":[[[-79.76197299993748,36.10465800013],[-79.76462399981915,36.099869000309596],[-79.77432700044739,36.08863700041036],[-79.77646399965106,36.085389000132736],[-79.7843350005838,36.085812999780345],[-79.78358500000516,36.08775500010713],[-79.7890320005408,36.08805299989621],[-79.78855699944414,36.09400300009618],[-79.78741800010256,36.09369200011148],[-79.78541999978815,36.094812999621965],[-79.78673399984878,36.095719999527205],[-79.78667200012862,36.09643500037195],[-79.78386299968103,36.09554299984984],[-79.78298199948489,36.09771399987378],[-79.7773409997732,36.09816799972973],[-79.7764459995593,36.09945400036439],[-79.77417800004484,36.10048100023181],[-79.77220599958808,36.102452999691806],[-79.76932100020507,36.10325999995097],[-79.76837199982423,36.10468799969292],[-79.76661200037371,36.10396200031863],[-79.76422100036895,36.10523100005954],[-79.76197299993748,36.10465800013]]]}},{"id":"697","type":"Feature","properties":{"GISJOIN":"G3700810010401","pct_black":0.0},"geometry":{"type":"Polygon","coordinates":[[[-79.79515800004548,36.09007800045272],[-79.79788700058812,36.084731999872275],[-79.80002699964348,36.084287000339934],[-79.8020589995639,36.0816360001022],[-79.8111490000105,36.088126000171584],[-79.81458500012496,36.09256299991117],[-79.81685500050031,36.0960249998622],[-79.81525999982435,36.09378799979665],[-79.81562999957059,36.09442899969361],[-79.81490200045245,36.09529499979403],[-79.81158300053622,36.095909999693106],[-79.80883399968555,36.094678999891194],[-79.79798699964941,36.09318300001815],[-79.79676899954706,36.0910679997664],[-79.79515800004548,36.09007800045272]]]}},{"id":"698","type":"Feature","properties":{"GISJOIN":"G3700810010402","pct_black":1.84},"geometry":{"type":"Polygon","coordinates":[[[-79.78855699944414,36.09400300009618],[-79.79219899985304,36.09140699984628],[-79.79515800004548,36.09007800045272],[-79.79676899954706,36.0910679997664],[-79.79798699964941,36.09318300001815],[-79.80883399968555,36.094678999891194],[-79.81134400037267,36.09589399978637],[-79.81490200045245,36.09529499979403],[-79.81562999957059,36.09442899969361],[-79.81525999982435,36.09378799979665],[-79.81939599993821,36.09988500029735],[-79.81831400025699,36.10008000006241],[-79.81920900033685,36.10335800012326],[-79.81916400015149,36.106168000047276],[-79.8151249999461,36.10611899993559],[-79.8150849995139,36.109896999737664],[-79.81132899976373,36.10969700010821],[-79.80263399990204,36.10586999994089],[-79.80017999966995,36.10616899975199],[-79.79693600016044,36.10778500034191],[-79.7910619997551,36.10948199960063],[-79.78795400019101,36.10345200023793],[-79.78855699944414,36.09400300009618]]]}},{"id":"699","type":"Feature","properties":{"GISJOIN":"G37008100105","pct_black":0.61},"geometry":{"type":"Polygon","coordinates":[[[-79.8111490000105,36.088126000171584],[-79.8020589995639,36.0816360001022],[-79.80757599980383,36.079654999568106],[-79.80793499996086,36.07864399971349],[-79.81084599980292,36.07845699980059],[-79.81345800047997,36.07942100034769],[-79.8147380006136,36.07388299974924],[-79.8321000001466,36.07459900023577],[-79.83011199972535,36.0772959998158],[-79.82937900014699,36.08245699978261],[-79.82704100007273,36.085296000021536],[-79.82066699997597,36.08845200023997],[-79.8148759995315,36.0886140002538],[-79.8111490000105,36.088126000171584]]]}},{"id":"700","type":"Feature","properties":{"GISJOIN":"G3700810010601","pct_black":0.0},"geometry":{"type":"Polygon","coordinates":[[[-79.82995900038037,36.061183000452395],[-79.84289100055052,36.05974399977218],[-79.84355500044008,36.06102200010633],[-79.84819600026056,36.064793000105276],[-79.84777200017152,36.07266499974157],[-79.844328000025,36.075073999843234],[-79.8387580000652,36.074874999698885],[-79.83846999967689,36.073719999630754],[-79.83751400045452,36.07333800030161],[-79.83428000005286,36.07376600043187],[-79.83306200013686,36.07463000034625],[-79.83068200000424,36.074542999730056],[-79.83164900046606,36.07413599974795],[-79.83174400013289,36.071253999942314],[-79.83013099986319,36.07117600036462],[-79.82995900038037,36.061183000452395]]]}},{"id":"701","type":"Feature","properties":{"GISJOIN":"G3700810010602","pct_black":11.12},"geometry":{"type":"Polygon","coordinates":[[[-79.81545199960527,36.06302800020145],[-79.82021499949887,36.06204700007278],[-79.82995900038037,36.061183000452395],[-79.83013099986319,36.07117600036462],[-79.83174400013289,36.071253999942314],[-79.83164900046606,36.07413599974795],[-79.83068200000424,36.074542999730056],[-79.8147380006136,36.07388299974924],[-79.81545199960527,36.06302800020145]]]}},{"id":"702","type":"Feature","properties":{"GISJOIN":"G37008100107","pct_black":5.37},"geometry":{"type":"Polygon","coordinates":[[[-79.79871500002808,36.06945299995618],[-79.79573400031475,36.066356999858826],[-79.80126300057451,36.0649529998228],[-79.81545199960527,36.06302800020145],[-79.81500999963069,36.073242999799135],[-79.81345800047997,36.07942100034769],[-79.81084599980292,36.07845699980059],[-79.80793499996086,36.07864399971349],[-79.80757599980383,36.079654999568106],[-79.80229100019444,36.08148900003697],[-79.80015000049873,36.07912700030577],[-79.79871500002808,36.06945299995618]]]}},{"id":"703","type":"Feature","properties":{"GISJOIN":"G3700810010801","pct_black":29.3},"geometry":{"type":"Polygon","coordinates":[[[-79.79087899971529,36.06462799967797],[-79.79507900030767,36.06584100037895],[-79.79640699949711,36.06695999983418],[-79.79633000028053,36.06795100032182],[-79.79686699988555,36.06811900003439],[-79.79630400024732,36.06983400042864],[-79.79572400020903,36.07826099983739],[-79.78979699980998,36.07868299992884],[-79.79087899971529,36.06462799967797]]]}},{"id":"704","type":"Feature","properties":{"GISJOIN":"G3700810010802","pct_black":0.0},"geometry":{"type":"Polygon","coordinates":[[[-79.78878500021389,36.09402199999128],[-79.78979699980998,36.07868299992884],[-79.79572400020903,36.07826099983739],[-79.79630400024732,36.06983400042864],[-79.79686699988555,36.06811900003439],[-79.79633000028053,36.06795100032182],[-79.79640699949711,36.06695999983418],[-79.79871500002808,36.06945299995618],[-79.80015000049873,36.07912700030577],[-79.80229100019444,36.08148900003697],[-79.80002699964348,36.084287000339934],[-79.79788700058812,36.084731999872275],[-79.79525300034229,36.09001800016144],[-79.79219899985304,36.09140699984628],[-79.78878500021389,36.09402199999128]]]}},{"id":"705","type":"Feature","properties":{"GISJOIN":"G3700810010901","pct_black":63.87},"geometry":{"type":"Polygon","coordinates":[[[-79.78570400022151,36.079399999681485],[-79.78420099947508,36.07211100031759],[-79.78454999946007,36.07052000021786],[-79.78994700015791,36.06783300037484],[-79.78792399946079,36.066551000082285],[-79.78686100005436,36.064667999785335],[-79.79087899971529,36.06462799967797],[-79.78979699980998,36.07868299992884],[-79.78712299950797,36.07791499986239],[-79.78659599993156,36.07933700036098],[-79.78570400022151,36.079399999681485]]]}},{"id":"706","type":"Feature","properties":{"GISJOIN":"G3700810010902","pct_black":15.09},"geometry":{"type":"Polygon","coordinates":[[[-79.7843350005838,36.085812999780345],[-79.7697570000433,36.08508399997566],[-79.77004800016758,36.083368000413884],[-79.7738440002746,36.080248999815474],[-79.78324999993936,36.075999000230354],[-79.78499099983229,36.075844000177646],[-79.78570400022151,36.079399999681485],[-79.78659599993156,36.07933700036098],[-79.78712299950797,36.07791499986239],[-79.78979699980998,36.07868299992884],[-79.7890320005408,36.08805299989621],[-79.78358500000516,36.08775500010713],[-79.7843350005838,36.085812999780345]]]}},{"id":"707","type":"Feature","properties":{"GISJOIN":"G37008100110","pct_black":99.51},"geometry":{"type":"Polygon","coordinates":[[[-79.75765899996314,36.07484399994012],[-79.77047399951942,36.071577999694696],[-79.78994700015791,36.06783300037484],[-79.78454999946007,36.07052000021786],[-79.78420099947508,36.07211100031759],[-79.78499099983229,36.075844000177646],[-79.78282700033235,36.076135999968784],[-79.77402599953186,36.080150000145586],[-79.77039600044284,36.082842000303884],[-79.7697570000433,36.08508399997566],[-79.77075899944714,36.08514100003687],[-79.77042099982953,36.08789699964061],[-79.75660900043066,36.08750800012237],[-79.75681900032397,36.08510300009098],[-79.7579809998743,36.084588000203674],[-79.75873099967296,36.076128000072345],[-79.75764499996701,36.07635499975072],[-79.75765899996314,36.07484399994012]]]}},{"id":"708","type":"Feature","properties":{"GISJOIN":"G3700810011101","pct_black":98.43},"geometry":{"type":"Polygon","coordinates":[[[-79.75753699945707,36.06145600016473],[-79.76027899962943,36.062661000219606],[-79.7654620002033,36.063035999825566],[-79.77112699986532,36.06436299955548],[-79.77047399951942,36.071577999694696],[-79.75765899996314,36.07484399994012],[-79.75773400024353,36.070363000380745],[-79.75723499983816,36.06830299994811],[-79.75753699945707,36.06145600016473]]]}},{"id":"709","type":"Feature","properties":{"GISJOIN":"G3700810011102","pct_black":97.83},"geometry":{"type":"Polygon","coordinates":[[[-79.75753699945707,36.06145600016473],[-79.75777300009706,36.06003000028049],[-79.7565360003499,36.059965999613006],[-79.75662000038893,36.05796499967069],[-79.76193199987578,36.05814699955956],[-79.76178799997942,36.04663100041058],[-79.76774299939379,36.04612100034618],[-79.77203800044185,36.0445129999721],[-79.77071700045725,36.04532500024406],[-79.77406999991568,36.044358999982286],[-79.77504000003445,36.04799100015936],[-79.77616099961992,36.048854000348136],[-79.77194899953825,36.05613499960038],[-79.77112699986532,36.06436299955548],[-79.7654620002033,36.063035999825566],[-79.76027899962943,36.062661000219606],[-79.75753699945707,36.06145600016473]]]}},{"id":"710","type":"Feature","properties":{"GISJOIN":"G37008100112","pct_black":99.81},"geometry":{"type":"Polygon","coordinates":[[[-79.77047399951942,36.071577999694696],[-79.77191000023707,36.05639600008805],[-79.78374700014355,36.05699999996203],[-79.78415500016823,36.06570400027034],[-79.78375300052598,36.069281000045386],[-79.77047399951942,36.071577999694696]]]}},{"id":"711","type":"Feature","properties":{"GISJOIN":"G37008100113","pct_black":95.76},"geometry":{"type":"Polygon","coordinates":[[[-79.77191000023707,36.05639600008805],[-79.77616099961992,36.048854000348136],[-79.77504000003445,36.04799100015936],[-79.77406999991568,36.044358999982286],[-79.7754360001109,36.04386699976146],[-79.78218199951877,36.04534799976598],[-79.78622799953841,36.04734999964624],[-79.79152100027585,36.04884900029409],[-79.79087899971529,36.06462799967797],[-79.78686100005436,36.064667999785335],[-79.78792399946079,36.066551000082285],[-79.78994700015791,36.06783300037484],[-79.78375300052598,36.069281000045386],[-79.78415500016823,36.06570400027034],[-79.78374700014355,36.05699999996203],[-79.77191000023707,36.05639600008805]]]}},{"id":"712","type":"Feature","properties":{"GISJOIN":"G3700810011401","pct_black":95.53},"geometry":{"type":"Polygon","coordinates":[[[-79.79087899971529,36.06462799967797],[-79.79150199980823,36.0499149998476],[-79.79814400033517,36.05066500025729],[-79.79804099984062,36.051823000282994],[-79.80079599988598,36.051960000235326],[-79.800613000113,36.053869000291265],[-79.80433800034763,36.054654999996536],[-79.80090999971542,36.05961399980334],[-79.79881800033293,36.06561999977298],[-79.79573400031475,36.066356999858826],[-79.79211400021795,36.06464199977352],[-79.79087899971529,36.06462799967797]]]}},{"id":"713","type":"Feature","properties":{"GISJOIN":"G3700810011402","pct_black":56.31},"geometry":{"type":"Polygon","coordinates":[[[-79.79150199980823,36.0499149998476],[-79.79158000038188,36.04399500015697],[-79.80041799955843,36.04489400028307],[-79.79961499970311,36.04639099968471],[-79.80798300015725,36.046670000061525],[-79.81111499979174,36.04739299987356],[-79.81043399964453,36.04876500025794],[-79.80433800034763,36.054654999996536],[-79.800613000113,36.053869000291265],[-79.80079599988598,36.051960000235326],[-79.79804099984062,36.051823000282994],[-79.79814400033517,36.05066500025729],[-79.79150199980823,36.0499149998476]]]}},{"id":"714","type":"Feature","properties":{"GISJOIN":"G37008100115","pct_black":3.44},"geometry":{"type":"Polygon","coordinates":[[[-79.80433800034763,36.054654999996536],[-79.81059499955387,36.0485789999884],[-79.81190899964365,36.0458379999862],[-79.81542400044486,36.0435150003018],[-79.8154190001818,36.05169299981386],[-79.81584199938493,36.05303400028149],[-79.81545199960527,36.06302800020145],[-79.80309800035728,36.06457600021836],[-79.79881800033293,36.06561999977298],[-79.80090999971542,36.05961399980334],[-79.80433800034763,36.054654999996536]]]}},{"id":"715","type":"Feature","properties":{"GISJOIN":"G3700810011601","pct_black":0.0},"geometry":{"type":"Polygon","coordinates":[[[-79.8154479998624,36.04639699973132],[-79.82203900014187,36.046445000031504],[-79.82231199984456,36.04704099964412],[-79.82528399996026,36.04733300018153],[-79.82934799999894,36.046216999885736],[-79.83212700057813,36.04624599973774],[-79.83342300038662,36.0489570000887],[-79.83505199964196,36.04946399952024],[-79.83123500046082,36.05532599997288],[-79.82794099974973,36.05810799961112],[-79.82649200032243,36.060534000135185],[-79.82436100017952,36.060931000149466],[-79.82391499957578,36.06171999961641],[-79.81545199960527,36.06302800020145],[-79.81584199938493,36.05303400028149],[-79.8154479998624,36.04639699973132]]]}},{"id":"716","type":"Feature","properties":{"GISJOIN":"G3700810011602","pct_black":8.13},"geometry":{"type":"Polygon","coordinates":[[[-79.83141400022282,36.05509099960195],[-79.83631100018128,36.04776300000571],[-79.84072699963534,36.04427500029256],[-79.85885900002961,36.04873000014887],[-79.86703099977306,36.04875100017931],[-79.86383200043502,36.049761000228216],[-79.85889099982819,36.053395000192545],[-79.85653400014323,36.054456000103826],[-79.84308399966802,36.05699900018025],[-79.8422770004641,36.05793700045721],[-79.84289100055052,36.05974399977218],[-79.82391499957578,36.06171999961641],[-79.82436100017952,36.060931000149466],[-79.82692200016143,36.060144000261424],[-79.82794099974973,36.05810799961112],[-79.83141400022282,36.05509099960195]]]}},{"id":"717","type":"Feature","properties":{"GISJOIN":"G37008100117","pct_black":18.69},"geometry":{"type":"Polygon","coordinates":[[[-79.53555400042795,36.1824329999708],[-79.5376940003261,36.124262000044624],[-79.62008300017608,36.13179199992022],[-79.61871969722299,36.15120963390187],[-79.61710999960803,36.164287000154026],[-79.6158310002328,36.20355700019622],[-79.61568400016729,36.24373700040834],[-79.53236500017076,36.24134199996908],[-79.53555400042795,36.1824329999708]]]}},{"id":"718","type":"Feature","properties":{"GISJOIN":"G37008100118","pct_black":33.1},"geometry":{"type":"Polygon","coordinates":[[[-79.61568400016729,36.24373700040834],[-79.6158310002328,36.20355700019622],[-79.61677700045603,36.17328399989162],[-79.61710999960803,36.164287000154026],[-79.61871969722299,36.15120963390187],[-79.61997899954544,36.15186399994279],[-79.61988700006435,36.15434299972319],[-79.62103199948179,36.155185000223376],[-79.62310300021693,36.153514999944754],[-79.6230320000948,36.15179599985595],[-79.62465200050683,36.15176199969616],[-79.6268079999429,36.15045600023737],[-79.62617899994338,36.14952700006262],[-79.62381199996834,36.149978999786946],[-79.62375599991258,36.148918999562724],[-79.62747400019192,36.147483000197525],[-79.62932399954764,36.14780800015073],[-79.63073300045747,36.147364000084906],[-79.63185199967009,36.14596299965935],[-79.63168300053516,36.1447489996846],[-79.63065399979283,36.14423200038446],[-79.62827499966964,36.145736000389476],[-79.62708299982128,36.144773999858366],[-79.62745000035545,36.14350999968651],[-79.6290090004769,36.14207100018101],[-79.63001200049544,36.14241799969773],[-79.63106900002705,36.14169899977649],[-79.63220599986087,36.14323799991293],[-79.63446199942372,36.14366700031405],[-79.63550700037348,36.14145299973218],[-79.6376339999658,36.14139400009879],[-79.63779599990974,36.14311899990356],[-79.6417169998149,36.14473600017155],[-79.64131199956229,36.14293399951793],[-79.64431399976253,36.142127999566135],[-79.64482800027243,36.142566999984346],[-79.6449960001515,36.14478700023606],[-79.64556499996495,36.14480899976797],[-79.64658899973195,36.14356800013044],[-79.64839100036632,36.142821000282204],[-79.64753300004514,36.13887000010423],[-79.65323799990115,36.13721200020972],[-79.6539979999714,36.13502500022755],[-79.65554900047883,36.13435000006076],[-79.65579299974276,36.13314700037735],[-79.65790699970383,36.133262000162965],[-79.65944499941305,36.13130600030318],[-79.66096200012284,36.13095499983055],[-79.66118699975067,36.12839399998819],[-79.66242599975538,36.12810900027226],[-79.6628320000823,36.129864999893584],[-79.66596100038277,36.12734499974472],[-79.67184900052041,36.126115000149355],[-79.67429599965284,36.12458299983711],[-79.67636199979468,36.12578499985957],[-79.6861790000754,36.127670000012856],[-79.69607599983179,36.127440999566524],[-79.70432199950918,36.12823400011384],[-79.70493100039326,36.12881799979967],[-79.70288902297362,36.24612992042163],[-79.61568400016729,36.24373700040834]]]}},{"id":"719","type":"Feature","properties":{"GISJOIN":"G3700810011901","pct_black":22.89},"geometry":{"type":"Polygon","coordinates":[[[-79.70429473853025,36.17595538081208],[-79.70492800057502,36.17635799979557],[-79.70559299962238,36.1788090002641],[-79.70835800014974,36.181501000238896],[-79.70991099975221,36.18188499974252],[-79.7116190003798,36.180571999905325],[-79.71353099966593,36.18038999981016],[-79.71417399959283,36.180736000134296],[-79.71416100049734,36.18230200016204],[-79.71551100000924,36.183571000338496],[-79.71649400008202,36.18379699990593],[-79.71768600013264,36.183207999689515],[-79.71917799974332,36.18357600030479],[-79.71999799965202,36.18482300025328],[-79.718867000233,36.18503800031601],[-79.71872400030348,36.185571000480024],[-79.72089500043764,36.18756500027268],[-79.72036600045492,36.18836200000479],[-79.72051599998149,36.18938399995003],[-79.72492399995798,36.1915879998431],[-79.72600200005874,36.18181399964155],[-79.7274940003135,36.17881400011045],[-79.75161499963971,36.15931900030181],[-79.75412700027793,36.156473999917466],[-79.76049799974408,36.137120000404735],[-79.76200999972625,36.134755000096355],[-79.77332100008631,36.12611199962067],[-79.7756570000888,36.12652700042865],[-79.7760350001142,36.12559499998663],[-79.78807300037593,36.125831999775954],[-79.78903399952203,36.12767600014393],[-79.78965599965656,36.13411999957625],[-79.78768600036877,36.135022000106076],[-79.78764500000668,36.1362880000216],[-79.78735700003898,36.209351000416504],[-79.78774499966131,36.21573899996476],[-79.78693758711312,36.248488937504355],[-79.70288902297362,36.24612992042163],[-79.70429473853025,36.17595538081208]]]}},{"id":"720","type":"Feature","properties":{"GISJOIN":"G3700810011902","pct_black":11.57},"geometry":{"type":"Polygon","coordinates":[[[-79.70429473853025,36.17595538081208],[-79.70505241846983,36.11850788988127],[-79.7089629995593,36.12038900021123],[-79.71094799948688,36.12288899990002],[-79.71305399983625,36.12281200029221],[-79.71565399955553,36.12072799999921],[-79.71616299952545,36.12103000010494],[-79.71556700012233,36.12286600009191],[-79.71685299952212,36.122641000173815],[-79.71835099983346,36.12177200036923],[-79.71925700017711,36.119228000087986],[-79.72246000046565,36.11888599976266],[-79.72215499953273,36.11680299990985],[-79.72558200015796,36.11668699963821],[-79.7270509997019,36.11529100000076],[-79.72746400014654,36.11414199989091],[-79.73227800042662,36.112926000022334],[-79.73299499994344,36.111184000158595],[-79.73544499951066,36.10967199999655],[-79.73370499971774,36.10896400012516],[-79.73385999958766,36.108473999808226],[-79.73603400004102,36.10882000003223],[-79.73613000046177,36.11051199984655],[-79.74104600019706,36.109488000313995],[-79.74225999987834,36.1111970003243],[-79.74395800012533,36.11044899956512],[-79.74561800011253,36.110761000107686],[-79.74694799951558,36.10864599967952],[-79.74662400020568,36.1148409999832],[-79.75011599967463,36.11501299974813],[-79.74977599999441,36.118318000330355],[-79.75751700020277,36.118310999648386],[-79.75740599973231,36.11961099996792],[-79.75983000023105,36.11976699970222],[-79.75928199959168,36.125225000339555],[-79.77282599955217,36.12532300007031],[-79.77332100008631,36.12611199962067],[-79.76339100028052,36.133475999937694],[-79.76088200037528,36.136309000321596],[-79.75460399949678,36.15534300008106],[-79.7533499998432,36.15762899994024],[-79.7274940003135,36.17881400011045],[-79.72600200005874,36.18181399964155],[-79.72492399995798,36.1915879998431],[-79.72051599998149,36.18938399995003],[-79.72036600045492,36.18836200000479],[-79.72089500043764,36.18756500027268],[-79.71872400030348,36.185571000480024],[-79.718867000233,36.18503800031601],[-79.71999799965202,36.18482300025328],[-79.71917799974332,36.18357600030479],[-79.71768600013264,36.183207999689515],[-79.71649400008202,36.18379699990593],[-79.71551100000924,36.183571000338496],[-79.71416100049734,36.18230200016204],[-79.71417399959283,36.180736000134296],[-79.71353099966593,36.18038999981016],[-79.7116190003798,36.180571999905325],[-79.70991099975221,36.18188499974252],[-79.70835800014974,36.181501000238896],[-79.70559299962238,36.1788090002641],[-79.70492800057502,36.17635799979557],[-79.70429473853025,36.17595538081208]]]}},{"id":"721","type":"Feature","properties":{"GISJOIN":"G37008100120","pct_black":9.63},"geometry":{"type":"Polygon","coordinates":[[[-79.78768600036877,36.135022000106076],[-79.79414600037359,36.13218399979241],[-79.80048299958537,36.130755999800115],[-79.80855199975305,36.127013999877846],[-79.81100799943609,36.12507200019481],[-79.81477500022515,36.12384300008818],[-79.81708300036097,36.12052600046746],[-79.82392099992222,36.11934700042609],[-79.83092700009878,36.11675299959061],[-79.83649099952316,36.116247000374294],[-79.84292600019373,36.12064500036248],[-79.85582599982018,36.13148700003556],[-79.86820300033939,36.144879999893575],[-79.87269299989629,36.15543300010303],[-79.8717480001285,36.18396600014047],[-79.87233417821845,36.189592115651045],[-79.8724599996675,36.205761999950994],[-79.87162799972975,36.22240700014385],[-79.87160874870692,36.252017903240535],[-79.85731000052407,36.251018999691986],[-79.78693758711312,36.248488937504355],[-79.78774499966131,36.21573899996476],[-79.78735700003898,36.209351000416504],[-79.78764500000668,36.1362880000216],[-79.78768600036877,36.135022000106076]]]}},{"id":"722","type":"Feature","properties":{"GISJOIN":"G37008100121","pct_black":7.66},"geometry":{"type":"Polygon","coordinates":[[[-79.86897300004003,36.14622499980434],[-79.87055999958687,36.146225000321984],[-79.87131599993731,36.14333500001848],[-79.87067600027794,36.1433329997199],[-79.87068900000813,36.13795600034665],[-79.87263500001146,36.13756700043511],[-79.90106200028276,36.138467999735575],[-79.9056690002405,36.13919499966482],[-79.91723399994285,36.138771000421734],[-79.95131699968964,36.14000399962878],[-79.95186499998651,36.158572000194404],[-79.95338799963,36.17375700001911],[-79.95343900047436,36.21250200003926],[-79.953997000531,36.22753499978733],[-79.95441499993993,36.22849899980294],[-79.95426900054025,36.25484100006381],[-79.87160874870692,36.252017903240535],[-79.87162799972975,36.22240700014385],[-79.8724599996675,36.205761999950994],[-79.87233417821845,36.189592115651045],[-79.8717480001285,36.18396600014047],[-79.87269299989629,36.15543300010303],[-79.86897300004003,36.14622499980434]]]}},{"id":"723","type":"Feature","properties":{"GISJOIN":"G37008100122","pct_black":15.52},"geometry":{"type":"Polygon","coordinates":[[[-79.95131699968964,36.14000399962878],[-80.03870300030937,36.140358000331965],[-80.03919999966638,36.13410399952235],[-80.03836399959245,36.15935999981953],[-80.03744299966063,36.16153499981291],[-80.0370289995549,36.17367100017811],[-80.03780299962166,36.17628600033938],[-80.0352040004506,36.2547180002604],[-80.03554000001559,36.25735100023656],[-80.01288699967184,36.25711900007157],[-79.95426900054025,36.25484100006381],[-79.95441499993993,36.22849899980294],[-79.953997000531,36.22753499978733],[-79.95343900047436,36.21250200003926],[-79.95338799963,36.17375700001911],[-79.95186499998651,36.158572000194404],[-79.95131699968964,36.14000399962878]]]}},{"id":"724","type":"Feature","properties":{"GISJOIN":"G37008100123","pct_black":6.62},"geometry":{"type":"Polygon","coordinates":[[[-79.95316400005905,36.10576800043965],[-79.95482000004529,36.07229600044357],[-79.95559299972888,36.06575100025964],[-79.95713199962307,36.02816799952008],[-79.97469599988113,36.02863000029476],[-79.98120499940329,36.03013600015278],[-79.9826920005523,36.029433999789894],[-79.98668000009062,36.02888300006855],[-80.00774499999812,36.03004199959826],[-80.017213000402,36.02976499983825],[-80.04248199963979,36.03069500021926],[-80.04305300021187,36.01725100008494],[-80.03870300030937,36.140358000331965],[-79.9513200860783,36.1399685692818],[-79.95236637809714,36.1300984043806],[-79.9530400003018,36.10919899991092],[-79.95368000005028,36.10806099969758],[-79.95540099945457,36.10695400011955],[-79.95316400005905,36.10576800043965]]]}},{"id":"725","type":"Feature","properties":{"GISJOIN":"G3700810012401","pct_black":6.77},"geometry":{"type":"Polygon","coordinates":[[[-79.85413199979837,36.12998500036712],[-79.85786700039255,36.12889400020324],[-79.86905300035922,36.11913299966659],[-79.87237199992067,36.11748200007528],[-79.87753500050154,36.11593199995407],[-79.8818930003437,36.11121100033733],[-79.88354900028457,36.10767599964835],[-79.88796799981205,36.10477899998664],[-79.89019100003436,36.10131500006471],[-79.8926580004412,36.09928399989157],[-79.89797100022763,36.09947499979453],[-79.90306999956135,36.09866900007426],[-79.90600499958839,36.09949699985569],[-79.90857299973439,36.101204999544954],[-79.91124500021002,36.10203399965095],[-79.91855799976831,36.1010790003137],[-79.92229399958786,36.09999599969488],[-79.91915700052989,36.09803000011733],[-79.91596599954093,36.094904000153875],[-79.91392400034621,36.089476000283064],[-79.91282500007449,36.0756409999574],[-79.91753999971581,36.07587000022325],[-79.93027699985949,36.080480999897304],[-79.94843699969448,36.09068199974789],[-79.95146200026589,36.09192100043453],[-79.95388700022097,36.09219400014496],[-79.95316400005905,36.10576800043965],[-79.95540099945457,36.10695400011955],[-79.95368000005028,36.10806099969758],[-79.9530400003018,36.10919899991092],[-79.95236637809714,36.1300984043806],[-79.95131699968964,36.14000399962878],[-79.91723399994285,36.138771000421734],[-79.9056690002405,36.13919499966482],[-79.90106200028276,36.138467999735575],[-79.87263500001146,36.13756700043511],[-79.87068900000813,36.13795600034665],[-79.87067600027794,36.1433329997199],[-79.87131599993731,36.14333500001848],[-79.87055999958687,36.146225000321984],[-79.86897300004003,36.14622499980434],[-79.86719699984589,36.14357400004193],[-79.85413199979837,36.12998500036712]]]}},{"id":"726","type":"Feature","properties":{"GISJOIN":"G3700810012402","pct_black":14.83},"geometry":{"type":"Polygon","coordinates":[[[-79.91282500007449,36.0756409999574],[-79.8985160004541,36.07671899994084],[-79.89666099972365,36.07669900016213],[-79.89653700023565,36.07583600030065],[-79.8937920001469,36.07560499987212],[-79.89421300003461,36.07280699980268],[-79.89342100012446,36.069555999571605],[-79.88539000048594,36.05906599979287],[-79.89123400023965,36.05656100000358],[-79.88994200033684,36.05606799997035],[-79.89061100046888,36.053520999755484],[-79.89013199971643,36.052288000400615],[-79.89068799963594,36.042356999504165],[-79.88897300012893,36.03897199973948],[-79.88896699984603,36.035957000239705],[-79.8851229997233,36.03556500015123],[-79.88179299953313,36.033774000346],[-79.89000599957934,36.025372999713596],[-79.95713199962307,36.02816799952008],[-79.95559299972888,36.06575100025964],[-79.95482000004529,36.07229600044357],[-79.95388700022097,36.09219400014496],[-79.95146200026589,36.09192100043453],[-79.94843699969448,36.09068199974789],[-79.93027699985949,36.080480999897304],[-79.91753999971581,36.07587000022325],[-79.91282500007449,36.0756409999574]]]}},{"id":"727","type":"Feature","properties":{"GISJOIN":"G3700810012403","pct_black":1.57},"geometry":{"type":"Polygon","coordinates":[[[-79.87168599985662,36.0921289999414],[-79.8782540002469,36.0894490001989],[-79.88043800012991,36.08922399965508],[-79.8788269995877,36.087013000206156],[-79.87266199944364,36.08262500010976],[-79.87067900000702,36.074068999925416],[-79.86858300006358,36.06973899979143],[-79.87377200000694,36.06843900015161],[-79.8773230002798,36.06860200044372],[-79.8837169999164,36.07144900006918],[-79.8919980001368,36.076369999967255],[-79.8985160004541,36.07671899994084],[-79.91282500007449,36.0756409999574],[-79.91392400034621,36.089476000283064],[-79.91596599954093,36.094904000153875],[-79.91915700052989,36.09803000011733],[-79.92229399958786,36.09999599969488],[-79.91855799976831,36.1010790003137],[-79.91124500021002,36.10203399965095],[-79.90857299973439,36.101204999544954],[-79.90600499958839,36.09949699985569],[-79.90306999956135,36.09866900007426],[-79.89797100022763,36.09947499979453],[-79.8926580004412,36.09928399989157],[-79.89019100003436,36.10131500006471],[-79.88796799981205,36.10477899998664],[-79.88354900028457,36.10767599964835],[-79.8818930003437,36.11121100033733],[-79.87753500050154,36.11593199995407],[-79.87237199992067,36.11748200007528],[-79.87114800039328,36.115327000127614],[-79.86897999999488,36.11334300009951],[-79.86844399952885,36.10967299985034],[-79.8712279996226,36.103100000356065],[-79.87168599985662,36.0921289999414]]]}},{"id":"728","type":"Feature","properties":{"GISJOIN":"G3700810012503","pct_black":3.19},"geometry":{"type":"Polygon","coordinates":[[[-79.80125800020932,36.10596999977053],[-79.80392900009528,36.10616000027134],[-79.81132899976373,36.10969700010821],[-79.8150849995139,36.109896999737664],[-79.8151249999461,36.10611899993559],[-79.81916400015149,36.106168000047276],[-79.81920900033685,36.10335800012326],[-79.81831400025699,36.10008000006241],[-79.81939599993821,36.09988500029735],[-79.82842899972242,36.11005899955162],[-79.83649099952316,36.116247000374294],[-79.83092700009878,36.11675299959061],[-79.82392099992222,36.11934700042609],[-79.81708300036097,36.12052600046746],[-79.81477500022515,36.12384300008818],[-79.81189100040156,36.1247819999585],[-79.80976799955225,36.121820000298996],[-79.80162099952555,36.118199000370076],[-79.80139100052673,36.11181799963445],[-79.80070148395971,36.1105443501272],[-79.80129355100371,36.11036826658681],[-79.80066854237171,36.106778792054094],[-79.80125800020932,36.10596999977053]]]}},{"id":"729","type":"Feature","properties":{"GISJOIN":"G3700810012504","pct_black":0.59},"geometry":{"type":"Polygon","coordinates":[[[-79.84731599989622,36.07797899955231],[-79.84801399954345,36.06914999962499],[-79.85574799941315,36.06895000009292],[-79.8591760004432,36.07008800008052],[-79.86531200015662,36.070411000204565],[-79.86858300006358,36.06973899979143],[-79.87061800048842,36.073882000048386],[-79.87170799978571,36.07823199971623],[-79.86960400003335,36.07830999989181],[-79.86830799954068,36.07913099959999],[-79.86365599974489,36.08012999968772],[-79.85851499965338,36.07989599981571],[-79.856275000424,36.08039200043067],[-79.8542430000539,36.081284999958406],[-79.85325300043176,36.083336999727145],[-79.85268499986022,36.08330399957349],[-79.85215499987675,36.0831220002989],[-79.85181900005213,36.08133299995055],[-79.84731599989622,36.07797899955231]]]}},{"id":"730","type":"Feature","properties":{"GISJOIN":"G3700810012505","pct_black":0.17},"geometry":{"type":"Polygon","coordinates":[[[-79.84094900037343,36.08637099996358],[-79.8295310001301,36.082117000455426],[-79.83011199972535,36.0772959998158],[-79.8321000001466,36.07459900023577],[-79.83751400045452,36.07333800030161],[-79.83846999967689,36.073719999630754],[-79.8387580000652,36.074874999698885],[-79.844328000025,36.075073999843234],[-79.84777200017152,36.07266499974157],[-79.84731599989622,36.07797899955231],[-79.85181900005213,36.08133299995055],[-79.85215499987675,36.0831220002989],[-79.85288299980598,36.083344999651125],[-79.85425699961316,36.0819000002537],[-79.8542430000539,36.081284999958406],[-79.856275000424,36.08039200043067],[-79.85851499965338,36.07989599981571],[-79.86365599974489,36.08012999968772],[-79.86830799954068,36.07913099959999],[-79.86960400003335,36.07830999989181],[-79.87170799978571,36.07823199971623],[-79.87281300037593,36.082864000475965],[-79.8788269995877,36.087013000206156],[-79.88043800012991,36.08922399965508],[-79.8782540002469,36.0894490001989],[-79.87168599985662,36.0921289999414],[-79.86908399990176,36.09236799963648],[-79.86564000025668,36.09138799975894],[-79.85330600016842,36.090378999902484],[-79.84732700033106,36.08791600038276],[-79.84094900037343,36.08637099996358]]]}},{"id":"731","type":"Feature","properties":{"GISJOIN":"G3700810012506","pct_black":0.08},"geometry":{"type":"Polygon","coordinates":[[[-79.84292600019373,36.12064500036248],[-79.84629500022793,36.11729400048207],[-79.85021699994685,36.11512999979875],[-79.85196699956944,36.107598999817974],[-79.85272800029158,36.10664100035895],[-79.84617200030696,36.10467999984796],[-79.84285799997396,36.10132099958214],[-79.84061000038754,36.100162999737954],[-79.84094900037343,36.08637099996358],[-79.84732700033106,36.08791600038276],[-79.85330600016842,36.090378999902484],[-79.86564000025668,36.09138799975894],[-79.86891500052495,36.09235500012432],[-79.87168599985662,36.0921289999414],[-79.8712279996226,36.103100000356065],[-79.86844399952885,36.10967299985034],[-79.86897999999488,36.11334300009951],[-79.87114800039328,36.115327000127614],[-79.87237199992067,36.11748200007528],[-79.86878599954073,36.119319999538604],[-79.85786700039255,36.12889400020324],[-79.85413199979837,36.12998500036712],[-79.84292600019373,36.12064500036248]]]}},{"id":"732","type":"Feature","properties":{"GISJOIN":"G3700810012507","pct_black":0.0},"geometry":{"type":"Polygon","coordinates":[[[-79.84292600019373,36.12064500036248],[-79.82842899972242,36.11005899955162],[-79.8204489997944,36.10133399995163],[-79.8111490000105,36.088126000171584],[-79.8148759995315,36.0886140002538],[-79.82176799960084,36.088146999890206],[-79.82725500038796,36.08514499979995],[-79.8295310001301,36.082117000455426],[-79.84094900037343,36.08637099996358],[-79.84061000038754,36.100162999737954],[-79.84285799997396,36.10132099958214],[-79.84617200030696,36.10467999984796],[-79.85272800029158,36.10664100035895],[-79.85196699956944,36.107598999817974],[-79.85021699994685,36.11512999979875],[-79.84629500022793,36.11729400048207],[-79.84292600019373,36.12064500036248]]]}},{"id":"733","type":"Feature","properties":{"GISJOIN":"G3700810012601","pct_black":6.72},"geometry":{"type":"Polygon","coordinates":[[[-79.87377200000694,36.06843900015161],[-79.86531200015662,36.070411000204565],[-79.8591760004432,36.07008800008052],[-79.85574799941315,36.06895000009292],[-79.84801399954345,36.06914999962499],[-79.84803100051562,36.06439099964926],[-79.84339400039444,36.06086300034047],[-79.8422770004641,36.05793700045721],[-79.84308399966802,36.05699900018025],[-79.85749099964843,36.05410800006295],[-79.86550500032055,36.049059999769135],[-79.86831999985735,36.048668000336676],[-79.87108400046317,36.04914599984516],[-79.89123400023965,36.05656100000358],[-79.88539000048594,36.05906599979287],[-79.89342100012446,36.069555999571605],[-79.89421300003461,36.07280699980268],[-79.8937920001469,36.07560499987212],[-79.89653700023565,36.07583600030065],[-79.89666099972365,36.07669900016213],[-79.8912719997887,36.076137999916476],[-79.8837169999164,36.07144900006918],[-79.8773230002798,36.06860200044372],[-79.87377200000694,36.06843900015161]]]}},{"id":"734","type":"Feature","properties":{"GISJOIN":"G3700810012602","pct_black":0.0},"geometry":{"type":"Polygon","coordinates":[[[-79.87078799989972,36.049051000196286],[-79.85885900002961,36.04873000014887],[-79.84072699963534,36.04427500029256],[-79.84450500027572,36.04122299965425],[-79.86207600016344,36.03683700002724],[-79.86543699968011,36.03459600033511],[-79.86763400043726,36.032344999850544],[-79.8682879994659,36.030663000280214],[-79.87581899992021,36.03329799991864],[-79.88133799985896,36.03362099972604],[-79.8851229997233,36.03556500015123],[-79.88896699984603,36.035957000239705],[-79.88897300012893,36.03897199973948],[-79.89068799963594,36.042356999504165],[-79.89013199971643,36.052288000400615],[-79.89061100046888,36.053520999755484],[-79.88994200033684,36.05606799997035],[-79.87078799989972,36.049051000196286]]]}},{"id":"735","type":"Feature","properties":{"GISJOIN":"G3700810012604","pct_black":0.46},"geometry":{"type":"Polygon","coordinates":[[[-79.80041799955843,36.04489400028307],[-79.80095900054667,36.04137300000411],[-79.80007600006027,36.03730900010496],[-79.80086699985866,36.033967000393275],[-79.80964899997008,36.03195099984363],[-79.81484199989647,36.03317399992781],[-79.82370699962051,36.037853000188164],[-79.83338499975041,36.04121000014356],[-79.83740899984085,36.043776999714176],[-79.8389709995214,36.04352500009758],[-79.84072699963534,36.04427500029256],[-79.83631100018128,36.04776300000571],[-79.83505199964196,36.04946399952024],[-79.83342300038662,36.0489570000887],[-79.83212700057813,36.04624599973774],[-79.82934799999894,36.046216999885736],[-79.82528399996026,36.04733300018153],[-79.82231199984456,36.04704099964412],[-79.82203900014187,36.046445000031504],[-79.8154479998624,36.04639699973132],[-79.81542400044486,36.0435150003018],[-79.81190899964365,36.0458379999862],[-79.81111499979174,36.04739299987356],[-79.80798300015725,36.046670000061525],[-79.79961499970311,36.04639099968471],[-79.80041799955843,36.04489400028307]]]}},{"id":"736","type":"Feature","properties":{"GISJOIN":"G3700810012605","pct_black":3.51},"geometry":{"type":"Polygon","coordinates":[[[-79.83955000047776,36.021015999996834],[-79.84544499941249,36.02052900029972],[-79.85151700026591,36.01704900000552],[-79.85641499970609,36.0151979999568],[-79.86074600051279,36.015836000202036],[-79.86549800011616,36.01548999979938],[-79.86620800024083,36.02886599970717],[-79.8682879994659,36.030663000280214],[-79.86787100009182,36.0319249996157],[-79.86515599962006,36.0348620001196],[-79.86207600016344,36.03683700002724],[-79.84450500027572,36.04122299965425],[-79.8425409998958,36.042678999570754],[-79.84110200019813,36.03486400022643],[-79.83902100015304,36.03049200022177],[-79.83955000047776,36.021015999996834]]]}},{"id":"737","type":"Feature","properties":{"GISJOIN":"G3700810012606","pct_black":9.57},"geometry":{"type":"Polygon","coordinates":[[[-79.80086699985866,36.033967000393275],[-79.80247400013587,36.02654100000842],[-79.80268599946214,36.02208500026653],[-79.80431599967099,36.01742999956827],[-79.81413199956951,36.01744299980309],[-79.81460399962567,36.01695899971558],[-79.8273090002922,36.02137700014212],[-79.83955000047776,36.021015999996834],[-79.83902100015304,36.03049200022177],[-79.84110200019813,36.03486400022643],[-79.8425409998958,36.042678999570754],[-79.84072699963534,36.04427500029256],[-79.8389709995214,36.04352500009758],[-79.83740899984085,36.043776999714176],[-79.83338499975041,36.04121000014356],[-79.82481500029816,36.03832999970642],[-79.81578499969513,36.033567999684315],[-79.81097300046615,36.032093000098165],[-79.80870700028413,36.0320380003591],[-79.80086699985866,36.033967000393275]]]}},{"id":"738","type":"Feature","properties":{"GISJOIN":"G3700810012701","pct_black":0.0},"geometry":{"type":"Polygon","coordinates":[[[-79.77332100008631,36.12611199962067],[-79.77282599955217,36.12532300007031],[-79.75928199959168,36.125225000339555],[-79.75983000023105,36.11976699970222],[-79.75740599973231,36.11961099996792],[-79.75751700020277,36.118310999648386],[-79.75320100057421,36.11843199980046],[-79.75721899992297,36.112819000239156],[-79.77156099971259,36.11369899987214],[-79.77460599944614,36.113417000315714],[-79.78196899982349,36.111255000396326],[-79.7892030000657,36.11028500033039],[-79.80125800020932,36.10596999977053],[-79.80066854237171,36.106778792054094],[-79.80129355100371,36.11036826658681],[-79.80070148395971,36.1105443501272],[-79.80139100052673,36.11181799963445],[-79.80162099952555,36.118199000370076],[-79.80976799955225,36.121820000298996],[-79.81189100040156,36.1247819999585],[-79.80855199975305,36.127013999877846],[-79.80048299958537,36.130755999800115],[-79.79414600037359,36.13218399979241],[-79.78965599965656,36.13411999957625],[-79.78903399952203,36.12767600014393],[-79.78807300037593,36.125831999775954],[-79.7760350001142,36.12559499998663],[-79.7756570000888,36.12652700042865],[-79.77332100008631,36.12611199962067]]]}},{"id":"739","type":"Feature","properties":{"GISJOIN":"G3700810012702","pct_black":52.41},"geometry":{"type":"Polygon","coordinates":[[[-79.73381207328184,36.10850251818109],[-79.7335509577265,36.10802631466291],[-79.73701000061597,36.107430999686585],[-79.73693200010517,36.10661800043899],[-79.73449600043253,36.10387999992241],[-79.73137700001688,36.101798000090376],[-79.72776900020492,36.09657200008869],[-79.72575999977639,36.09706400032615],[-79.72487200031077,36.09049699964625],[-79.72508300033795,36.08678700030407],[-79.72746700043132,36.085818000456854],[-79.73155699986846,36.0858959995819],[-79.7403820001165,36.08406699956809],[-79.74099800011616,36.07207500033475],[-79.74530999984293,36.072393000137296],[-79.75459299957326,36.07593400011754],[-79.75765899996314,36.07484399994012],[-79.75764499996701,36.07635499975072],[-79.75873099967296,36.076128000072345],[-79.75838400001649,36.0802990001623],[-79.7579809998743,36.084588000203674],[-79.75681900032397,36.08510300009098],[-79.75576399967515,36.09750700006223],[-79.75663900019376,36.09792999991069],[-79.75532599997132,36.1006820000418],[-79.7536590001617,36.101269000342185],[-79.75288700014761,36.102663999793755],[-79.75118600061965,36.10296599965143],[-79.75056399969785,36.102526000399784],[-79.74720599958032,36.106033999733604],[-79.745546999459,36.10592000008155],[-79.74516799963948,36.10668399956286],[-79.74376599975062,36.1066400000217],[-79.74287399955365,36.108965000268014],[-79.74170999947522,36.109801000299065],[-79.74038200025237,36.10945500011979],[-79.73613000046177,36.11051199984655],[-79.73603400004102,36.10882000003223],[-79.73381207328184,36.10850251818109]]]}},{"id":"740","type":"Feature","properties":{"GISJOIN":"G3700810012801","pct_black":35.44},"geometry":{"type":"Polygon","coordinates":[[[-79.76168799970017,36.036537999977206],[-79.76225499948758,36.032756999744485],[-79.76110099992202,36.03273400026071],[-79.76140799954537,36.029223999682955],[-79.76565199996102,36.02888400003574],[-79.76797900039288,36.03096100028978],[-79.77152399979948,36.02613100005737],[-79.77636600015035,36.02118200026081],[-79.77796699992426,36.016396000424855],[-79.78740399955186,36.01635499966972],[-79.79224400057049,36.01511799989512],[-79.80439299964091,36.01521099970328],[-79.80417199979713,36.018493999745914],[-79.80268599946214,36.02208500026653],[-79.80242799962743,36.026822000387995],[-79.80012299971263,36.0367380001013],[-79.80095900054667,36.04137300000411],[-79.80041799955843,36.04489400028307],[-79.79158000038188,36.04399500015697],[-79.79152100027585,36.04884900029409],[-79.78597799959162,36.04725599991355],[-79.78273699962395,36.045496999577864],[-79.7754360001109,36.04386699976146],[-79.7654430002407,36.046503999790424],[-79.75778299969744,36.04677299952009],[-79.75825499979206,36.04580099968473],[-79.76184799984591,36.045243999690925],[-79.7621580003384,36.04035799960233],[-79.76346400019949,36.03689299983761],[-79.76168799970017,36.036537999977206]]]}},{"id":"741","type":"Feature","properties":{"GISJOIN":"G3700810012802","pct_black":90.88},"geometry":{"type":"Polygon","coordinates":[[[-79.74099800011616,36.07207500033475],[-79.74137500028621,36.063376000462554],[-79.74269399978573,36.06356500021386],[-79.74266599994546,36.06261600039075],[-79.75195699948155,36.06251500009858],[-79.75199300025966,36.06002999990004],[-79.74722199987393,36.05938300021181],[-79.74814600022088,36.050878000449714],[-79.75220999987495,36.04912299976735],[-79.75366600022322,36.047556999999394],[-79.75647500052128,36.047861000036974],[-79.75778299969744,36.04677299952009],[-79.76178799997942,36.04663100041058],[-79.76193199987578,36.05814699955956],[-79.75662000038893,36.05796499967069],[-79.7565360003499,36.059965999613006],[-79.75777300009706,36.06003000028049],[-79.75723299992862,36.06779300016191],[-79.75765899996314,36.07484399994012],[-79.75459299957326,36.07593400011754],[-79.74530999984293,36.072393000137296],[-79.74099800011616,36.07207500033475]]]}},{"id":"742","type":"Feature","properties":{"GISJOIN":"G3700810012803","pct_black":20.03},"geometry":{"type":"Polygon","coordinates":[[[-79.70834400001455,36.120128000147844],[-79.71371699951898,36.115174999603035],[-79.71501999977498,36.1087299998195],[-79.71801199969485,36.10099599957814],[-79.71384900026734,36.10258800022668],[-79.70563400032478,36.102053000236644],[-79.70356200026005,36.102709999632],[-79.7018840001484,36.098374999592565],[-79.70217600033678,36.095929999769936],[-79.70126199986728,36.087904000310196],[-79.69977700024238,36.08703400043758],[-79.69504100015682,36.087849999740875],[-79.69113499973689,36.089717999526904],[-79.6883960001841,36.08913999985693],[-79.68975699994631,36.08762199984682],[-79.69048599978096,36.08503999983455],[-79.69123000040165,36.08435300039583],[-79.69183900016819,36.08453400023287],[-79.69646699953671,36.08032900002102],[-79.69995699978595,36.07949799976681],[-79.7065480003291,36.07514100048263],[-79.70890400050665,36.07478899971426],[-79.70763100021802,36.0731140004604],[-79.70991900054089,36.07218399971957],[-79.70907899983888,36.07190399955397],[-79.70926199983047,36.07116800002431],[-79.711176000132,36.0679749999422],[-79.7136799997687,36.067924999602106],[-79.71468799991258,36.06591900016995],[-79.71719900036398,36.06535199982124],[-79.71710400043361,36.063829999782875],[-79.71843699966396,36.062905999988565],[-79.72062299959268,36.06355399962207],[-79.72392599954198,36.06239999984789],[-79.72330999982245,36.06179000002085],[-79.72545800025097,36.05981099970547],[-79.71590600033723,36.05932500008521],[-79.71289200014074,36.05979199983616],[-79.70995700025689,36.05221099997466],[-79.7056980002405,36.04821399996138],[-79.70155500022737,36.04608200000814],[-79.69961799983382,36.042689999550916],[-79.69764000012935,36.04074400037548],[-79.69672800009475,36.038301999631315],[-79.69650300058582,36.035092999731155],[-79.6997900000424,36.03470600018742],[-79.70190400013796,36.033565000352034],[-79.70189700009635,36.03252599984712],[-79.70342599974144,36.030405000269084],[-79.70254600039871,36.029546999811544],[-79.70360100051423,36.02659099965169],[-79.70803799976666,36.025765999543935],[-79.70887399988648,36.02511899986474],[-79.71252899974233,36.024763999839436],[-79.71619899943913,36.02329800023128],[-79.72624099976224,36.02281200004321],[-79.72834900039763,36.02322299988483],[-79.73825200049407,36.028066999920846],[-79.76346400019949,36.03689299983761],[-79.7621580003384,36.04035799960233],[-79.76184799984591,36.045243999690925],[-79.75814699958632,36.04584500026976],[-79.75659599988008,36.04783299987823],[-79.75355100063634,36.04760099966388],[-79.75220999987495,36.04912299976735],[-79.74814600022088,36.050878000449714],[-79.74722199987393,36.05938300021181],[-79.75199300025966,36.06002999990004],[-79.75195699948155,36.06251500009858],[-79.74266599994546,36.06261600039075],[-79.74269399978573,36.06356500021386],[-79.74137500028621,36.063376000462554],[-79.7403820001165,36.08406699956809],[-79.73155699986846,36.0858959995819],[-79.72746700043132,36.085818000456854],[-79.72508300033795,36.08678700030407],[-79.72487200031077,36.09049699964625],[-79.72575999977639,36.09706400032615],[-79.72776900020492,36.09657200008869],[-79.73125599997553,36.10165800007442],[-79.73465900021787,36.10402199958803],[-79.73676399975719,36.106314999754936],[-79.73701000061597,36.107430999686585],[-79.7335509577265,36.10802631466291],[-79.73370499971774,36.10896400012516],[-79.73544499951066,36.10967199999655],[-79.73299499994344,36.111184000158595],[-79.73212200032195,36.11304200048016],[-79.72746400014654,36.11414199989091],[-79.7270509997019,36.11529100000076],[-79.72558200015796,36.11668699963821],[-79.7220800002794,36.1168530000079],[-79.72246000046565,36.11888599976266],[-79.71925700017711,36.119228000087986],[-79.71776799959473,36.1222830001257],[-79.71556700012233,36.12286600009191],[-79.71616299952545,36.12103000010494],[-79.71565399955553,36.12072799999921],[-79.71305399983625,36.12281200029221],[-79.71094799948688,36.12288899990002],[-79.70834400001455,36.120128000147844]]]}},{"id":"743","type":"Feature","properties":{"GISJOIN":"G37008100129","pct_black":9.88},"geometry":{"type":"Polygon","coordinates":[[[-79.61871969722299,36.15120963390187],[-79.62020610894041,36.13276974012603],[-79.61968599956052,36.12925999996678],[-79.62115600026156,36.12865899979869],[-79.61792299957082,36.12347000030514],[-79.61894099978075,36.07949799984164],[-79.62053599996092,36.06739899997782],[-79.62028799983257,36.061206000334856],[-79.62112399959972,36.04096399990785],[-79.61516799990838,36.03657400019714],[-79.62158699962015,36.02476199968612],[-79.62136796510684,36.01693112484427],[-79.6329939998451,36.01639600022325],[-79.63900099967881,36.017502999951134],[-79.67018300051839,36.018221000168204],[-79.68645199951675,36.019470000049886],[-79.7070830000183,36.02025800026767],[-79.70770000006975,36.02460000003146],[-79.70884300054887,36.02519999983101],[-79.70348599996778,36.026656999767816],[-79.70254600039871,36.029546999811544],[-79.70342599974144,36.030405000269084],[-79.70189700009635,36.03252599984712],[-79.70190400013796,36.033565000352034],[-79.6997900000424,36.03470600018742],[-79.69650300058582,36.035092999731155],[-79.69668899975743,36.038106999663576],[-79.69753699999583,36.04055299987705],[-79.69961799983382,36.042689999550916],[-79.701467000323,36.04599999971512],[-79.7056980002405,36.04821399996138],[-79.70995700025689,36.05221099997466],[-79.71289200014074,36.05979199983616],[-79.71590600033723,36.05932500008521],[-79.72545800025097,36.05981099970547],[-79.72330999982245,36.06179000002085],[-79.72392599954198,36.06239999984789],[-79.72062299959268,36.06355399962207],[-79.71843699966396,36.062905999988565],[-79.71710400043361,36.063829999782875],[-79.71719900036398,36.06535199982124],[-79.71468799991258,36.06591900016995],[-79.7136799997687,36.067924999602106],[-79.711176000132,36.0679749999422],[-79.70926199983047,36.07116800002431],[-79.70907899983888,36.07190399955397],[-79.70991900054089,36.07218399971957],[-79.70763100021802,36.0731140004604],[-79.70890400050665,36.07478899971426],[-79.7065480003291,36.07514100048263],[-79.69995699978595,36.07949799976681],[-79.69646699953671,36.08032900002102],[-79.69183900016819,36.08453400023287],[-79.69123000040165,36.08435300039583],[-79.69048599978096,36.08503999983455],[-79.68975699994631,36.08762199984682],[-79.6883960001841,36.08913999985693],[-79.69113499973689,36.089717999526904],[-79.69504100015682,36.087849999740875],[-79.69977700024238,36.08703400043758],[-79.70126199986728,36.087904000310196],[-79.70217600033678,36.095929999769936],[-79.7018840001484,36.098374999592565],[-79.70356200026005,36.102709999632],[-79.70563400032478,36.102053000236644],[-79.71384900026734,36.10258800022668],[-79.71801199969485,36.10099599957814],[-79.71501999977498,36.1087299998195],[-79.71351099986173,36.11557999986868],[-79.70834400001455,36.120128000147844],[-79.70505241846983,36.11850788988127],[-79.70493100039326,36.12881799979967],[-79.70358499953763,36.12792200033663],[-79.69607599983179,36.127440999566524],[-79.6861790000754,36.127670000012856],[-79.67636199979468,36.12578499985957],[-79.67429599965284,36.12458299983711],[-79.67184900052041,36.126115000149355],[-79.66596100038277,36.12734499974472],[-79.6628320000823,36.129864999893584],[-79.66242599975538,36.12810900027226],[-79.66118699975067,36.12839399998819],[-79.66096200012284,36.13095499983055],[-79.65944499941305,36.13130600030318],[-79.65790699970383,36.133262000162965],[-79.65579299974276,36.13314700037735],[-79.65554900047883,36.13435000006076],[-79.6539979999714,36.13502500022755],[-79.65323799990115,36.13721200020972],[-79.64753300004514,36.13887000010423],[-79.64839100036632,36.142821000282204],[-79.64658899973195,36.14356800013044],[-79.64556499996495,36.14480899976797],[-79.6449960001515,36.14478700023606],[-79.64482800027243,36.142566999984346],[-79.64431399976253,36.142127999566135],[-79.64131199956229,36.14293399951793],[-79.6417169998149,36.14473600017155],[-79.63779599990974,36.14311899990356],[-79.6376339999658,36.14139400009879],[-79.63550700037348,36.14145299973218],[-79.63446199942372,36.14366700031405],[-79.63220599986087,36.14323799991293],[-79.63106900002705,36.14169899977649],[-79.63001200049544,36.14241799969773],[-79.6290090004769,36.14207100018101],[-79.62745000035545,36.14350999968651],[-79.62708299982128,36.144773999858366],[-79.62827499966964,36.145736000389476],[-79.63065399979283,36.14423200038446],[-79.63168300053516,36.1447489996846],[-79.63185199967009,36.14596299965935],[-79.63073300045747,36.147364000084906],[-79.62932399954764,36.14780800015073],[-79.62747400019192,36.147483000197525],[-79.62375599991258,36.148918999562724],[-79.62381199996834,36.149978999786946],[-79.62617899994338,36.14952700006262],[-79.6268079999429,36.15045600023737],[-79.62465200050683,36.15176199969616],[-79.6230320000948,36.15179599985595],[-79.62310300021693,36.153514999944754],[-79.62103199948179,36.155185000223376],[-79.61988700006435,36.15434299972319],[-79.61997899954544,36.15186399994279],[-79.61871969722299,36.15120963390187]]]}},{"id":"744","type":"Feature","properties":{"GISJOIN":"G37008100130","pct_black":24.73},"geometry":{"type":"Polygon","coordinates":[[[-79.5376940003261,36.124262000044624],[-79.53904499985471,36.08283499966587],[-79.5396250002752,36.0137999998628],[-79.62136796510684,36.01693112484427],[-79.62158699962015,36.02476199968612],[-79.61516799990838,36.03657400019714],[-79.62112399959972,36.04096399990785],[-79.62028799983257,36.061206000334856],[-79.62053599996092,36.06739899997782],[-79.61894099978075,36.07949799984164],[-79.61792299957082,36.12347000030514],[-79.62115600026156,36.12865899979869],[-79.61968599956052,36.12925999996678],[-79.62008300017608,36.13179199992022],[-79.5376940003261,36.124262000044624]]]}},{"id":"745","type":"Feature","properties":{"GISJOIN":"G37008100131","pct_black":2.53},"geometry":{"type":"Polygon","coordinates":[[[-79.5396250002752,36.0137999998628],[-79.54197799981016,35.89962699961045],[-79.62513300032855,35.903185000146635],[-79.62354400009167,35.956785999975104],[-79.62206700048242,35.96135499973957],[-79.62340700055621,35.96411599965156],[-79.62297500031545,35.9867730004067],[-79.62108800035121,36.009629000010094],[-79.62136796510684,36.01693112484427],[-79.5396250002752,36.0137999998628]]]}},{"id":"746","type":"Feature","properties":{"GISJOIN":"G37008100132","pct_black":6.05},"geometry":{"type":"Polygon","coordinates":[[[-79.62513300032855,35.903185000146635],[-79.71321700000655,35.906940999959396],[-79.71001499975331,35.97098700002078],[-79.71040599950322,35.979144000063876],[-79.70931500034487,35.97912099965798],[-79.70862799974643,36.00168599987767],[-79.70737700040911,36.02025799989745],[-79.66857300036361,36.01815599962291],[-79.66325500026271,36.01839099966651],[-79.63900099967881,36.017502999951134],[-79.6329939998451,36.01639600022325],[-79.62136796510684,36.01693112484427],[-79.62108800035121,36.009629000010094],[-79.62297500031545,35.9867730004067],[-79.62340700055621,35.96411599965156],[-79.62206700048242,35.96135499973957],[-79.62354400009167,35.956785999975104],[-79.62513300032855,35.903185000146635]]]}},{"id":"747","type":"Feature","properties":{"GISJOIN":"G3700810013301","pct_black":1.12},"geometry":{"type":"Polygon","coordinates":[[[-79.70887399988648,36.02511899986474],[-79.70770000006975,36.02460000003146],[-79.7070830000183,36.02025800026767],[-79.70862799974643,36.00168599987767],[-79.70931500034487,35.97912099965798],[-79.71040599950322,35.979144000063876],[-79.71015200020288,35.972569999716356],[-79.73550599990821,35.985591000149384],[-79.74470300041529,35.99559699972942],[-79.74941708116074,35.99464921612522],[-79.76189999965577,35.99463299970958],[-79.76846300058442,35.99259499991343],[-79.77743099952518,35.99077200014534],[-79.78813000027175,35.991050000416585],[-79.7929419999321,35.99231900000612],[-79.79256300052646,36.001411000175764],[-79.7930329994284,36.00612700034739],[-79.79275399998447,36.00838499985053],[-79.79165199947899,36.00833499991052],[-79.79186299980913,36.01516300018157],[-79.78740399955186,36.01635499966972],[-79.77796699992426,36.016396000424855],[-79.77636600015035,36.02118200026081],[-79.77152399979948,36.02613100005737],[-79.76797900039288,36.03096100028978],[-79.76565199996102,36.02888400003574],[-79.76140799954537,36.029223999682955],[-79.76110099992202,36.03273400026071],[-79.76225499948758,36.032756999744485],[-79.76168799970017,36.036537999977206],[-79.73825200049407,36.028066999920846],[-79.7272210001257,36.022895000453104],[-79.71619899943913,36.02329800023128],[-79.71252899974233,36.024763999839436],[-79.70887399988648,36.02511899986474]]]}},{"id":"748","type":"Feature","properties":{"GISJOIN":"G3700810013302","pct_black":13.15},"geometry":{"type":"Polygon","coordinates":[[[-79.71015200020288,35.972569999716356],[-79.71321700000655,35.906940999959396],[-79.79123699959365,35.910235000181835],[-79.79153000040955,35.954040999914376],[-79.79212600008864,35.957624999951236],[-79.79210000037644,35.97243400042075],[-79.79293200056986,35.97399799995133],[-79.79227399991657,35.97842799980301],[-79.7929419999321,35.99231900000612],[-79.78813000027175,35.991050000416585],[-79.77743099952518,35.99077200014534],[-79.76846300058442,35.99259499991343],[-79.76189999965577,35.99463299970958],[-79.74941708116074,35.99464921612522],[-79.74470300041529,35.99559699972942],[-79.73550599990821,35.985591000149384],[-79.71015200020288,35.972569999716356]]]}},{"id":"749","type":"Feature","properties":{"GISJOIN":"G3700810013401","pct_black":7.64},"geometry":{"type":"Polygon","coordinates":[[[-79.84544499941249,36.02052900029972],[-79.8273090002922,36.02137700014212],[-79.81460399962567,36.01695899971558],[-79.81413199956951,36.01744299980309],[-79.80456700052511,36.01745699972296],[-79.80439299964091,36.01521099970328],[-79.79186299980913,36.01516300018157],[-79.79165199947899,36.00833499991052],[-79.79275399998447,36.00838499985053],[-79.7930329994284,36.00612700034739],[-79.79256300052646,36.001411000175764],[-79.7929419999321,35.99231900000612],[-79.8041500003137,35.99420000040705],[-79.80470900011497,35.99647699961111],[-79.81375700024235,35.99689200019749],[-79.81657700045483,35.99584500042041],[-79.82075199975273,35.99250000004315],[-79.82205500006634,35.99360800042495],[-79.82248800044903,35.995140999799325],[-79.83094500027471,35.99385799987584],[-79.84337999968743,35.99383399975697],[-79.85069400060367,35.99186399979259],[-79.85626200028543,35.99166600034078],[-79.86067800009,35.99344399998902],[-79.86546200046288,35.993748000138325],[-79.8646929998433,35.995458000209865],[-79.86468600027207,35.997665999914716],[-79.86937300039253,35.994190000172146],[-79.87708999999019,35.98960800010643],[-79.87610400009189,36.00261300040695],[-79.87647799975959,36.00299299959633],[-79.87538900042135,36.019027000176],[-79.87546200029536,36.025230999600716],[-79.86932199951269,36.02882799973545],[-79.8682879994659,36.030663000280214],[-79.86643900010739,36.029440999806006],[-79.86549800011616,36.01548999979938],[-79.86074600051279,36.015836000202036],[-79.85641499970609,36.0151979999568],[-79.85151700026591,36.01704900000552],[-79.84544499941249,36.02052900029972]]]}},{"id":"750","type":"Feature","properties":{"GISJOIN":"G3700810013402","pct_black":4.05},"geometry":{"type":"Polygon","coordinates":[[[-79.7929419999321,35.99231900000612],[-79.79227399991657,35.97842799980301],[-79.79293200056986,35.97399799995133],[-79.79210000037644,35.97243400042075],[-79.79212600008864,35.957624999951236],[-79.79153000040955,35.954040999914376],[-79.79123699959365,35.910235000181835],[-79.87900900027041,35.91387499960586],[-79.8783019995556,35.96818300029885],[-79.87708999999019,35.98960800010643],[-79.86937300039253,35.994190000172146],[-79.86468600027207,35.997665999914716],[-79.8646929998433,35.995458000209865],[-79.86546200046288,35.993748000138325],[-79.86067800009,35.99344399998902],[-79.85626200028543,35.99166600034078],[-79.85069400060367,35.99186399979259],[-79.84337999968743,35.99383399975697],[-79.83094500027471,35.99385799987584],[-79.82248800044903,35.995140999799325],[-79.82205500006634,35.99360800042495],[-79.82075199975273,35.99250000004315],[-79.81657700045483,35.99584500042041],[-79.81375700024235,35.99689200019749],[-79.80470900011497,35.99647699961111],[-79.8041500003137,35.99420000040705],[-79.7929419999321,35.99231900000612]]]}},{"id":"751","type":"Feature","properties":{"GISJOIN":"G3700810013501","pct_black":0.0},"geometry":{"type":"Polygon","coordinates":[[[-79.87900900027041,35.91387499960586],[-79.96230200062726,35.917264999711236],[-79.96036200021553,35.918058000472826],[-79.96123299948205,35.919525999853526],[-79.96147399994237,35.922500000009194],[-79.96229300009357,35.92248199999123],[-79.9620489996967,35.923786999733],[-79.95387199949073,35.92504600031485],[-79.9533060005122,35.927124999656634],[-79.95035100047804,35.93041200011214],[-79.94978799995857,35.931898000132286],[-79.9469420003993,35.93450599976774],[-79.94777099968174,35.93692099958365],[-79.94755699974534,35.93999200037868],[-79.95211000022456,35.94082699970253],[-79.95594899955272,35.939966999716034],[-79.9596440000501,35.94166599956519],[-79.9585879996193,35.942415999583474],[-79.95753500045393,35.944516999743215],[-79.95506299966627,35.94634799978533],[-79.95313200006613,35.94872900001199],[-79.95317699980937,35.949453999593295],[-79.95504800025954,35.951591000398615],[-79.95162299994068,35.953746000416224],[-79.93644600003908,35.96012100030072],[-79.92996400056747,35.966312999768334],[-79.92275500055688,35.96959799985313],[-79.91312299992596,35.975771999683204],[-79.90796900009902,35.97781400016974],[-79.90054300019118,35.98177000043552],[-79.88276599995889,35.98666200001039],[-79.87708999999019,35.98960800010643],[-79.8783019995556,35.96818300029885],[-79.87900900027041,35.91387499960586]]]}},{"id":"752","type":"Feature","properties":{"GISJOIN":"G3700810013502","pct_black":10.67},"geometry":{"type":"Polygon","coordinates":[[[-79.8682879994659,36.030663000280214],[-79.86932199951269,36.02882799973545],[-79.87546200029536,36.025230999600716],[-79.87538900042135,36.019027000176],[-79.87647799975959,36.00299299959633],[-79.87610400009189,36.00261300040695],[-79.87708999999019,35.98960800010643],[-79.88276599995889,35.98666200001039],[-79.9010039996581,35.981562999894706],[-79.90796900009902,35.97781400016974],[-79.91312299992596,35.975771999683204],[-79.92275500055688,35.96959799985313],[-79.92996400056747,35.966312999768334],[-79.93644600003908,35.96012100030072],[-79.95090800034791,35.95408199963983],[-79.95504800025954,35.951591000398615],[-79.95681300032942,35.953438000319224],[-79.95451499961251,35.954431999919656],[-79.95352299977561,35.95616999987207],[-79.94985599952223,35.95801300024938],[-79.94841600025998,35.96162500035495],[-79.95358699964098,35.96427500003894],[-79.95422400001065,35.973903000281155],[-79.95302800034773,35.97752899961685],[-79.94775899963466,35.98093600021826],[-79.94555900048243,35.98613599971999],[-79.94295900013705,35.98583599992578],[-79.94415900037882,35.98753599962024],[-79.94408299970273,35.98919700021855],[-79.946342000443,35.98701700004422],[-79.95807799997242,35.99063400024693],[-79.9569620000077,35.993135000041086],[-79.95744700011312,35.99346100023224],[-79.95552900060932,35.99713399972216],[-79.9552100004192,35.999355000061925],[-79.95624900020586,35.99913299972818],[-79.95619400007335,35.997099000274076],[-79.95676299954387,35.99682099979199],[-79.95713199962307,36.02816799952008],[-79.89000599957934,36.025372999713596],[-79.88179299953313,36.033774000346],[-79.87581899992021,36.03329799991864],[-79.8682879994659,36.030663000280214]]]}},{"id":"753","type":"Feature","properties":{"GISJOIN":"G3700810013601","pct_black":0.0},"geometry":{"type":"Polygon","coordinates":[[[-79.980270999557,35.97909099986926],[-79.98121699976264,35.97770100005515],[-79.9876500004415,35.9746539996132],[-79.9914110002197,35.97176100040951],[-79.99802899959803,35.968567000057206],[-80.00192700039692,35.96829499993639],[-80.00158300054171,35.9774079999833],[-79.99623599990989,35.97919400031586],[-79.98811099989862,35.98015199982957],[-79.984031999448,35.97959299997579],[-79.98018100052931,35.98043599978669],[-79.980270999557,35.97909099986926]]]}},{"id":"754","type":"Feature","properties":{"GISJOIN":"G3700810013602","pct_black":0.78},"geometry":{"type":"Polygon","coordinates":[[[-80.00130200003136,35.98104400004922],[-80.00192700039692,35.96829499993639],[-80.00768099985734,35.968184000015476],[-80.0124909996332,35.965638999554265],[-80.01455800053051,35.96813899967017],[-80.0230180001202,35.982695999919315],[-80.00792300023502,35.9842319998263],[-80.00587800007543,35.98552800034955],[-80.00015400022866,35.99105999991709],[-80.00050199991556,35.98335199991232],[-80.00130200003136,35.98104400004922]]]}},{"id":"755","type":"Feature","properties":{"GISJOIN":"G37008100137","pct_black":0.6},"geometry":{"type":"Polygon","coordinates":[[[-80.01455800053051,35.96813899967017],[-80.01150800038432,35.96447999994794],[-80.01290600046201,35.96373799963255],[-80.01537199981517,35.96360300030604],[-80.01505499973341,35.96083399967496],[-80.01304800025463,35.95855199974588],[-80.0136339995493,35.958182000211444],[-80.0254710001578,35.95834700017595],[-80.0248380001736,35.956227999879566],[-80.03235700018095,35.95520699963152],[-80.03347999939483,35.95921200032392],[-80.03376700043448,35.97469400001471],[-80.03169700042285,35.978980999991755],[-80.03109399982374,35.98187800031921],[-80.0294420001265,35.9826840004476],[-80.0230180001202,35.982695999919315],[-80.01455800053051,35.96813899967017]]]}},{"id":"756","type":"Feature","properties":{"GISJOIN":"G37008100138","pct_black":79.06},"geometry":{"type":"Polygon","coordinates":[[[-79.98091709786107,35.966616356640564],[-79.98311099992033,35.96622899980369],[-80.0015259999004,35.95931500039179],[-80.00228500024208,35.96273700027809],[-80.00619499982474,35.962804999561435],[-80.00850699960064,35.96521500028304],[-80.00961000040265,35.96471899993852],[-80.01005899944163,35.96530900018116],[-80.01150800038432,35.96447999994794],[-80.0124909996332,35.965638999554265],[-80.00722599975533,35.96829800036733],[-79.99802899959803,35.968567000057206],[-79.9914110002197,35.97176100040951],[-79.98586200021005,35.97569299979057],[-79.98121699976264,35.97770100005515],[-79.980270999557,35.97909099986926],[-79.97963500038067,35.97856499998716],[-79.97920700035239,35.974535999937935],[-79.9795070004111,35.9710220004023],[-79.98039100001648,35.96946099980382],[-79.98091709786107,35.966616356640564]]]}},{"id":"757","type":"Feature","properties":{"GISJOIN":"G37008100139","pct_black":75.85},"geometry":{"type":"Polygon","coordinates":[[[-79.97955599974294,35.95313399959975],[-79.99987500003485,35.95421500027133],[-80.00001299991703,35.956010000362355],[-80.0015259999004,35.95931500039179],[-79.98311099992033,35.96622899980369],[-79.9778310003857,35.966753000229744],[-79.97955599974294,35.95313399959975]]]}},{"id":"758","type":"Feature","properties":{"GISJOIN":"G37008100140","pct_black":0.0},"geometry":{"type":"Polygon","coordinates":[[[-80.01061499998904,35.954923999963874],[-80.01545800006919,35.950836999792735],[-80.03384199979081,35.930471000261306],[-80.03463599955302,35.9311630003371],[-80.03525900037997,35.93319800020218],[-80.03333999955878,35.95234600033697],[-80.03235700018095,35.95520699963152],[-80.0248380001736,35.956227999879566],[-80.0254710001578,35.95834700017595],[-80.01571000022932,35.95799100029549],[-80.01304800025463,35.95855199974588],[-80.01132600025407,35.95673700010808],[-80.01061499998904,35.954923999963874]]]}},{"id":"759","type":"Feature","properties":{"GISJOIN":"G37008100141","pct_black":75.74},"geometry":{"type":"Polygon","coordinates":[[[-80.00404300038207,35.94979899964122],[-80.00309599976323,35.945462000156745],[-80.01407600034882,35.944382999705],[-80.01424800019484,35.943444999869484],[-80.02012200044778,35.94353900008876],[-80.02075100002631,35.94286399980166],[-80.02196200024696,35.943636000222085],[-80.0136630000789,35.95266699982503],[-80.01061499998904,35.954923999963874],[-80.00908699947716,35.95321700005987],[-80.00885300016736,35.95184899957767],[-80.00782900054965,35.95179800004944],[-80.0073259998245,35.94994399975563],[-80.00404300038207,35.94979899964122]]]}},{"id":"760","type":"Feature","properties":{"GISJOIN":"G37008100142","pct_black":18.52},"geometry":{"type":"Polygon","coordinates":[[[-79.97884499996755,35.941311999801194],[-79.99165600057144,35.93495499983862],[-80.00240200049582,35.94376899983154],[-80.00404300038207,35.94979899964122],[-79.99993299971486,35.94979500013433],[-79.99987500003485,35.95421500027133],[-79.98048400030385,35.95304100018145],[-79.97830000041023,35.95369399978101],[-79.97880500040246,35.94794100001516],[-79.97995199980639,35.94789799996967],[-79.97884499996755,35.941311999801194]]]}},{"id":"761","type":"Feature","properties":{"GISJOIN":"G37008100143","pct_black":30.61},"geometry":{"type":"Polygon","coordinates":[[[-79.99165600057144,35.93495499983862],[-79.99920699942895,35.93114600020161],[-80.00035800032867,35.935889000367744],[-80.00472300024207,35.934980000163144],[-80.0041649996174,35.93407400007707],[-80.00576499980933,35.93368100038734],[-80.00772700043852,35.933922000476066],[-80.00750399989742,35.93456800041125],[-80.01428600063308,35.931720999675754],[-80.02249100032292,35.930768999735754],[-80.02237900048928,35.9345750001711],[-80.02671199953124,35.934776999921176],[-80.02660999984226,35.93743299965383],[-80.02726299986243,35.937835999741246],[-80.02196200024696,35.943636000222085],[-80.02075100002631,35.94286399980166],[-80.02012200044778,35.94353900008876],[-80.01424800019484,35.943444999869484],[-80.01407600034882,35.944382999705],[-80.00309599976323,35.945462000156745],[-80.00192000009217,35.94330000036936],[-79.99165600057144,35.93495499983862]]]}},{"id":"762","type":"Feature","properties":{"GISJOIN":"G3700810014402","pct_black":0.15},"geometry":{"type":"Polygon","coordinates":[[[-79.98499899970172,36.009874999824426],[-79.99016400059455,36.004418999647996],[-79.99707200038864,35.99410699994453],[-80.00637700049448,35.98509799987467],[-80.00935099956621,35.98388900036787],[-80.01377899983032,35.98393499964035],[-80.02114899954171,35.98275199952851],[-80.0230180001202,35.982695999919315],[-80.02665599962522,35.98869900006348],[-80.03454600031573,35.99830400008049],[-80.03615700041543,36.0015400001303],[-80.0368380001881,36.001868000410454],[-80.04070900039211,36.00794400035837],[-80.0320359997401,36.0096790002555],[-80.03170800053019,36.00819299999394],[-80.03079500023263,36.00755300014818],[-80.02486500012272,36.007863000429886],[-80.02256100002873,36.008693000036786],[-80.02033999969707,36.010596000104556],[-80.01058600029467,36.011824000116164],[-80.00994099996905,36.0126259997078],[-80.00765100011337,36.012228000240306],[-80.00289400020877,36.01393400011341],[-80.00006100040879,36.01383600000343],[-79.99696100007257,36.01603599991556],[-79.99025999990633,36.016736000274896],[-79.98735999988422,36.014336000100364],[-79.98686000027774,36.01203600004652],[-79.98566200049478,36.011238999643396],[-79.98499899970172,36.009874999824426]]]}},{"id":"763","type":"Feature","properties":{"GISJOIN":"G3700810014404","pct_black":5.1},"geometry":{"type":"Polygon","coordinates":[[[-79.95676299954387,35.99682099979199],[-79.95780299975594,35.996304000135545],[-79.9602939997202,35.99641199983399],[-79.96007599971266,35.99703799953531],[-79.95867300037004,35.9974560004637],[-79.95915899986106,35.99943600014211],[-79.96042200042474,36.00066100027127],[-79.96110400038955,36.000667000030916],[-79.96162699999283,35.999189000267464],[-79.96351399994403,35.99824599978988],[-79.96732100017064,35.99810100008603],[-79.96773400029056,35.99917200041087],[-79.97240699997795,36.000031999598214],[-79.97452500017104,36.001914999969166],[-79.97746600043142,36.00206099970303],[-79.97806199953048,36.00420399956018],[-79.98051400015248,36.0053630000041],[-79.9848549998591,36.00965000007285],[-79.98566200049478,36.011238999643396],[-79.98686000027774,36.01203600004652],[-79.98735999988422,36.014336000100364],[-79.99025999990633,36.016736000274896],[-79.99696100007257,36.01603599991556],[-80.00006100040879,36.01383600000343],[-80.00289400020877,36.01393400011341],[-80.00765100011337,36.012228000240306],[-80.00994099996905,36.0126259997078],[-80.01058600029467,36.011824000116164],[-80.02033999969707,36.010596000104556],[-80.02256100002873,36.008693000036786],[-80.02486500012272,36.007863000429886],[-80.03079500023263,36.00755300014818],[-80.03170800053019,36.00819299999394],[-80.0320359997401,36.0096790002555],[-80.04336299989468,36.0074360003494],[-80.04248199963979,36.03069500021926],[-80.017213000402,36.02976499983825],[-80.00774499999812,36.03004199959826],[-79.98668000009062,36.02888300006855],[-79.9826920005523,36.029433999789894],[-79.98120499940329,36.03013600015278],[-79.97469599988113,36.02863000029476],[-79.95713199962307,36.02816799952008],[-79.95676299954387,35.99682099979199]]]}},{"id":"764","type":"Feature","properties":{"GISJOIN":"G3700810014405","pct_black":0.54},"geometry":{"type":"Polygon","coordinates":[[[-79.95780299975594,35.996304000135545],[-79.95619400007335,35.997099000274076],[-79.95624900020586,35.99913299972818],[-79.9552100004192,35.999355000061925],[-79.95552900060932,35.99713399972216],[-79.95744700011312,35.99346100023224],[-79.9569620000077,35.993135000041086],[-79.95807799997242,35.99063400024693],[-79.96420399957108,35.987738000298386],[-79.96930799963714,35.9868409999945],[-79.9747309997663,35.982214999717236],[-79.98384399965074,35.97961300013168],[-79.98811099989862,35.98015199982957],[-79.99560299979743,35.97928999968572],[-80.00158300054171,35.9774079999833],[-80.00130200003136,35.98104400004922],[-80.00050199991556,35.98335199991232],[-80.00015400022866,35.99105999991709],[-79.99646800006677,35.99485899985177],[-79.99016400059455,36.004418999647996],[-79.98499899970172,36.009874999824426],[-79.98051400015248,36.0053630000041],[-79.97806199953048,36.00420399956018],[-79.97746600043142,36.00206099970303],[-79.97452500017104,36.001914999969166],[-79.97240699997795,36.000031999598214],[-79.96773400029056,35.99917200041087],[-79.96732100017064,35.99810100008603],[-79.96351399994403,35.99824599978988],[-79.96162699999283,35.999189000267464],[-79.96110400038955,36.000667000030916],[-79.96042200042474,36.00066100027127],[-79.95915899986106,35.99943600014211],[-79.95867300037004,35.9974560004637],[-79.96007599971266,35.99703799953531],[-79.9602939997202,35.99641199983399],[-79.95780299975594,35.996304000135545]]]}},{"id":"765","type":"Feature","properties":{"GISJOIN":"G3700810014406","pct_black":19.78},"geometry":{"type":"Polygon","coordinates":[[[-79.946342000443,35.98701700004422],[-79.949689999641,35.981849000300016],[-79.96577299948606,35.96804499987743],[-79.96886999961602,35.96704199991239],[-79.98091709786107,35.966616356640564],[-79.98039100001648,35.96946099980382],[-79.9795070004111,35.9710220004023],[-79.97920700035239,35.974535999937935],[-79.98018100052931,35.98043599978669],[-79.9747309997663,35.982214999717236],[-79.9689449994997,35.98702099994033],[-79.96420399957108,35.987738000298386],[-79.95807799997242,35.99063400024693],[-79.946342000443,35.98701700004422]]]}},{"id":"766","type":"Feature","properties":{"GISJOIN":"G3700810014407","pct_black":0.0},"geometry":{"type":"Polygon","coordinates":[[[-80.0230180001202,35.982695999919315],[-80.0292140002085,35.98270300040373],[-80.03077300010317,35.982192000017506],[-80.03376700043448,35.97469400001471],[-80.03347999939483,35.95921200032392],[-80.03231500022608,35.95531900036587],[-80.03333999955878,35.95234600033697],[-80.03387099988274,35.94522300002822],[-80.03682700028199,35.94525100010412],[-80.04000500032738,35.9431329999229],[-80.0406530000547,35.94391599967023],[-80.04117500039536,35.94341200015229],[-80.04216300029721,35.94439300042088],[-80.04617499987509,35.94542099959611],[-80.04406300028377,35.99063600049118],[-80.04370999957253,36.00124299966875],[-80.0440739995433,36.00130299995164],[-80.04336299989468,36.0074360003494],[-80.04070900039211,36.00794400035837],[-80.0368380001881,36.001868000410454],[-80.03615700041543,36.0015400001303],[-80.03454600031573,35.99830400008049],[-80.02665599962522,35.98869900006348],[-80.0230180001202,35.982695999919315]]]}},{"id":"767","type":"Feature","properties":{"GISJOIN":"G3700810014408","pct_black":0.0},"geometry":{"type":"Polygon","coordinates":[[[-80.03387099988274,35.94522300002822],[-80.03526299968277,35.93268700013408],[-80.03384199979081,35.930471000261306],[-80.04159500044814,35.9204529999307],[-80.04670900033821,35.920662999993844],[-80.04695499977146,35.925741000231696],[-80.04617499987509,35.94542099959611],[-80.04216300029721,35.94439300042088],[-80.04117500039536,35.94341200015229],[-80.0406530000547,35.94391599967023],[-80.04000500032738,35.9431329999229],[-80.03682700028199,35.94525100010412],[-80.03387099988274,35.94522300002822]]]}},{"id":"768","type":"Feature","properties":{"GISJOIN":"G3700810014501","pct_black":1.72},"geometry":{"type":"Polygon","coordinates":[[[-79.97513399965267,35.91779599970493],[-79.99944500015646,35.91883099980604],[-80.04159500044814,35.9204529999307],[-80.03384199979081,35.930471000261306],[-80.02726299986243,35.937835999741246],[-80.02660999984226,35.93743299965383],[-80.02671199953124,35.934776999921176],[-80.02237900048928,35.9345750001711],[-80.02249100032292,35.930768999735754],[-80.01428600063308,35.931720999675754],[-80.00750399989742,35.93456800041125],[-80.00772700043852,35.933922000476066],[-80.00576499980933,35.93368100038734],[-80.0041649996174,35.93407400007707],[-80.00472300024207,35.934980000163144],[-80.00035800032867,35.935889000367744],[-79.99920699942895,35.93114600020161],[-79.99165600057144,35.93495499983862],[-79.98930999997488,35.932328999807005],[-79.9877970005811,35.92811299974981],[-79.98083000038729,35.92331499974572],[-79.97513399965267,35.91779599970493]]]}},{"id":"769","type":"Feature","properties":{"GISJOIN":"G3700810014502","pct_black":0.0},"geometry":{"type":"Polygon","coordinates":[[[-79.96230200062726,35.917264999711236],[-79.97513399965267,35.91779599970493],[-79.98083000038729,35.92331499974572],[-79.9877970005811,35.92811299974981],[-79.98930999997488,35.932328999807005],[-79.99165600057144,35.93495499983862],[-79.97646000056726,35.942411999865435],[-79.96828899966235,35.94850699972981],[-79.96580799966544,35.949247000083126],[-79.95920499994004,35.949799999910894],[-79.95504800025954,35.951591000398615],[-79.95317699980937,35.949453999593295],[-79.95313200006613,35.94872900001199],[-79.95506299966627,35.94634799978533],[-79.95753500045393,35.944516999743215],[-79.9585879996193,35.942415999583474],[-79.9596440000501,35.94166599956519],[-79.95594899955272,35.939966999716034],[-79.95211000022456,35.94082699970253],[-79.94755699974534,35.93999200037868],[-79.94777099968174,35.93692099958365],[-79.9469420003993,35.93450599976774],[-79.94978799995857,35.931898000132286],[-79.95035100047804,35.93041200011214],[-79.9533060005122,35.927124999656634],[-79.95387199949073,35.92504600031485],[-79.9620489996967,35.923786999733],[-79.96229300009357,35.92248199999123],[-79.96147399994237,35.922500000009194],[-79.96123299948205,35.919525999853526],[-79.96036200021553,35.918058000472826],[-79.96230200062726,35.917264999711236]]]}},{"id":"770","type":"Feature","properties":{"GISJOIN":"G3700810014503","pct_black":4.82},"geometry":{"type":"Polygon","coordinates":[[[-79.95504800025954,35.951591000398615],[-79.95920499994004,35.949799999910894],[-79.96580799966544,35.949247000083126],[-79.96828899966235,35.94850699972981],[-79.97566699945426,35.94291500034224],[-79.97884499996755,35.941311999801194],[-79.97995199980639,35.94789799996967],[-79.97880500040246,35.94794100001516],[-79.97830000041023,35.95369399978101],[-79.97955599974294,35.95313399959975],[-79.97947799984841,35.95469999965694],[-79.97915700021501,35.95812199966329],[-79.97829899970908,35.9605729995916],[-79.9778310003857,35.966753000229744],[-79.96886999961602,35.96704199991239],[-79.96577299948606,35.96804499987743],[-79.949689999641,35.981849000300016],[-79.946342000443,35.98701700004422],[-79.94408299970273,35.98919700021855],[-79.94415900037882,35.98753599962024],[-79.94295900013705,35.98583599992578],[-79.94555900048243,35.98613599971999],[-79.94775899963466,35.98093600021826],[-79.95302800034773,35.97752899961685],[-79.95410000020705,35.97463600035463],[-79.9542560000841,35.97042900024603],[-79.95358699964098,35.96427500003894],[-79.94841600025998,35.96162500035495],[-79.94985599952223,35.95801300024938],[-79.95352299977561,35.95616999987207],[-79.95470199984041,35.95429399996974],[-79.95686299978134,35.95353599966956],[-79.95504800025954,35.951591000398615]]]}},{"id":"771","type":"Feature","properties":{"GISJOIN":"G37008100146","pct_black":4.81},"geometry":{"type":"Polygon","coordinates":[[[-80.00228500024208,35.96273700027809],[-79.99991999960588,35.95550800012249],[-79.99993299971486,35.94979500013433],[-80.0073259998245,35.94994399975563],[-80.00782900054965,35.95179800004944],[-80.00885300016736,35.95184899957767],[-80.00902100006911,35.95309299999865],[-80.01082699946195,35.95518500017037],[-80.01132600025407,35.95673700010808],[-80.01497500010551,35.960686000223866],[-80.01537199981517,35.96360300030604],[-80.01290600046201,35.96373799963255],[-80.01005899944163,35.96530900018116],[-80.00961000040265,35.96471899993852],[-80.00850699960064,35.96521500028304],[-80.00619499982474,35.962804999561435],[-80.00228500024208,35.96273700027809]]]}}]}