{"type":"FeatureCollection","features":[{"id":"581","type":"Feature","properties":{"GISJOIN":"G37008100001","pct_black":9.68},"geometry":{"type":"Polygon","coordinates":[[[-79.74144599995432,36.109861999950006],[-79.74287399955365,36.108965000268014],[-79.74376599975062,36.1066400000217],[-79.74516799963948,36.10668399956286],[-79.745546999459,36.10592000008155],[-79.74720599958032,36.106033999733604],[-79.75056399969785,36.102526000399784],[-79.75118600061965,36.10296599965143],[-79.75288700014761,36.102663999793755],[-79.7536590001617,36.101269000342185],[-79.75532599997132,36.1006820000418],[-79.75663900019376,36.09792999991069],[-79.75576400022429,36.09770300016968],[-79.75660900043066,36.08750800012237],[-79.77042099982953,36.08789699964061],[-79.77075899944714,36.08514100003687],[-79.77646399965106,36.085389000132736],[-79.77432700044739,36.08863700041036],[-79.76462399981915,36.099869000309596],[-79.75739899942779,36.112556000170486],[-79.75254116416463,36.11934425396131],[-79.75244800031768,36.11820399971101],[-79.74977599999441,36.118318000330355],[-79.75011599967463,36.11501299974813],[-79.74662400020568,36.1148409999832],[-79.74694799951558,36.10864599967952],[-79.74561800011253,36.110761000107686],[-79.74395800012533,36.11044899956512],[-79.74214400024744,36.11118599982054],[-79.74144599995432,36.109861999950006]]]}},{"id":"582","type":"Feature","properties":{"GISJOIN":"G37008100002","pct_black":0.06},"geometry":{"type":"Polygon","coordinates":[[[-79.76197299993748,36.10465800013],[-79.76422100036895,36.10523100005954],[-79.76661200037371,36.10396200031863],[-79.76837199982423,36.10468799969292],[-79.76932100020507,36.10325999995097],[-79.77220599958808,36.102452999691806],[-79.77417800004484,36.10048100023181],[-79.7764459995593,36.09945400036439],[-79.7773409997732,36.09816799972973],[-79.78298199948489,36.09771399987378],[-79.78386299968103,36.09554299984984],[-79.78667200012862,36.09643500037195],[-79.78673399984878,36.095719999527205],[-79.78541999978815,36.094812999621965],[-79.78758699966134,36.09368100022326],[-79.78855699944414,36.09400300009618],[-79.78795400019101,36.10345200023793],[-79.7910619997551,36.10948199960063],[-79.78851000044465,36.110465000365785],[-79.78196899982349,36.111255000396326],[-79.77320100016192,36.11360900014727],[-79.75721899992297,36.112819000239156],[-79.76197299993748,36.10465800013]]]}},{"id":"583","type":"Feature","properties":{"GISJOIN":"G37008100003","pct_black":0.0},"geometry":{"type":"Polygon","coordinates":[[[-79.76197299993748,36.10465800013],[-79.76462399981915,36.099869000309596],[-79.77432700044739,36.08863700041036],[-79.77646399965106,36.085389000132736],[-79.7843350005838,36.085812999780345],[-79.78358500000516,36.08775500010713],[-79.7890320005408,36.08805299989621],[-79.78855699944414,36.09400300009618],[-79.78741800010256,36.09369200011148],[-79.78541999978815,36.094812999621965],[-79.78673399984878,36.095719999527205],[-79.78667200012862,36.09643500037195],[-79.78386299968103,36.09554299984984],[-79.78298199948489,36.09771399987378],[-79.7773409997732,36.09816799972973],[-79.7764459995593,36.09945400036439],[-79.77417800004484,36.10048100023181],[-79.77220599958808,36.102452999691806],[-79.76932100020507,36.10325999995097],[-79.76837199982423,36.10468799969292],[-79.76661200037371,36.10396200031863],[-79.76422100036895,36.10523100005954],[-79.76197299993748,36.10465800013]]]}},{"id":"584","type":"Feature","properties":{"GISJOIN":"G37008100004A","pct_black":5.16},"geometry":{"type":"Polygon","coordinates":[[[-79.79515800004548,36.09007800045272],[-79.79788700058812,36.084731999872275],[-79.80002699964348,36.084287000339934],[-79.8020589995639,36.0816360001022],[-79.8111490000105,36.088126000171584],[-79.81458500012496,36.09256299991117],[-79.81685500050031,36.0960249998622],[-79.81525999982435,36.09378799979665],[-79.81562999957059,36.09442899969361],[-79.81490200045245,36.09529499979403],[-79.81158300053622,36.095909999693106],[-79.80883399968555,36.094678999891194],[-79.79798699964941,36.09318300001815],[-79.79676899954706,36.0910679997664],[-79.79515800004548,36.09007800045272]]]}},{"id":"585","type":"Feature","properties":{"GISJOIN":"G37008100004B","pct_black":1.11},"geometry":{"type":"Polygon","coordinates":[[[-79.78855699944414,36.09400300009618],[-79.79219899985304,36.09140699984628],[-79.79515800004548,36.09007800045272],[-79.79676899954706,36.0910679997664],[-79.79798699964941,36.09318300001815],[-79.80883399968555,36.094678999891194],[-79.81134400037267,36.09589399978637],[-79.81490200045245,36.09529499979403],[-79.81562999957059,36.09442899969361],[-79.81525999982435,36.09378799979665],[-79.81939599993821,36.09988500029735],[-79.81831400025699,36.10008000006241],[-79.81920900033685,36.10335800012326],[-79.81916400015149,36.106168000047276],[-79.8151249999461,36.10611899993559],[-79.8150849995139,36.109896999737664],[-79.81132899976373,36.10969700010821],[-79.80263399990204,36.10586999994089],[-79.80017999966995,36.10616899975199],[-79.79693600016044,36.10778500034191],[-79.7910619997551,36.10948199960063],[-79.78795400019101,36.10345200023793],[-79.78855699944414,36.09400300009618]]]}},{"id":"586","type":"Feature","properties":{"GISJOIN":"G37008100005","pct_black":0.21},"geometry":{"type":"Polygon","coordinates":[[[-79.8111490000105,36.088126000171584],[-79.8020589995639,36.0816360001022],[-79.80757599980383,36.079654999568106],[-79.80793499996086,36.07864399971349],[-79.81084599980292,36.07845699980059],[-79.81345800047997,36.07942100034769],[-79.8147380006136,36.07388299974924],[-79.83306200013686,36.07463000034625],[-79.83061299953458,36.0783099998916],[-79.82994300041932,36.08297400033769],[-79.82836499973983,36.08550099959699],[-79.82459099971794,36.08927699960174],[-79.82283600007581,36.089453000184044],[-79.82153599977828,36.08844099998568],[-79.8148759995315,36.0886140002538],[-79.8111490000105,36.088126000171584]]]}},{"id":"587","type":"Feature","properties":{"GISJOIN":"G37008100006","pct_black":5.26},"geometry":{"type":"Polygon","coordinates":[[[-79.81545199960527,36.06302800020145],[-79.82021499949887,36.06204700007278],[-79.84289100055052,36.05974399977218],[-79.84355500044008,36.06102200010633],[-79.84819600026056,36.064793000105276],[-79.84777200017152,36.07266499974157],[-79.84409199952462,36.07508699957416],[-79.8387580000652,36.074874999698885],[-79.83846999967689,36.073719999630754],[-79.83751400045452,36.07333800030161],[-79.83428000005286,36.07376600043187],[-79.83306200013686,36.07463000034625],[-79.8147380006136,36.07388299974924],[-79.81545199960527,36.06302800020145]]]}},{"id":"588","type":"Feature","properties":{"GISJOIN":"G37008100007","pct_black":1.13},"geometry":{"type":"Polygon","coordinates":[[[-79.79573400031475,36.066356999858826],[-79.80309800035728,36.06457600021836],[-79.81545199960527,36.06302800020145],[-79.81500999963069,36.073242999799135],[-79.81345800047997,36.07942100034769],[-79.81084599980292,36.07845699980059],[-79.80793499996086,36.07864399971349],[-79.80757599980383,36.079654999568106],[-79.80229100019444,36.08148900003697],[-79.80015000049873,36.07912700030577],[-79.79852500035146,36.068983999911076],[-79.79573400031475,36.066356999858826]]]}},{"id":"589","type":"Feature","properties":{"GISJOIN":"G37008100008","pct_black":2.01},"geometry":{"type":"Polygon","coordinates":[[[-79.78878500021389,36.09402199999128],[-79.7906709995132,36.06766000007463],[-79.79573400031475,36.066356999858826],[-79.79852500035146,36.068983999911076],[-79.80015000049873,36.07912700030577],[-79.80229100019444,36.08148900003697],[-79.80002699964348,36.084287000339934],[-79.79788700058812,36.084731999872275],[-79.79525300034229,36.09001800016144],[-79.79219899985304,36.09140699984628],[-79.78878500021389,36.09402199999128]]]}},{"id":"590","type":"Feature","properties":{"GISJOIN":"G37008100009","pct_black":2.85},"geometry":{"type":"Polygon","coordinates":[[[-79.7843350005838,36.085812999780345],[-79.7697570000433,36.08508399997566],[-79.77004800016758,36.083368000413884],[-79.77402599953186,36.080150000145586],[-79.78282700033235,36.076135999968784],[-79.78499099983229,36.075844000177646],[-79.78420099947508,36.07211100031759],[-79.78454999946007,36.07052000021786],[-79.7906709995132,36.06766000007463],[-79.7890320005408,36.08805299989621],[-79.78358500000516,36.08775500010713],[-79.7843350005838,36.085812999780345]]]}},{"id":"591","type":"Feature","properties":{"GISJOIN":"G37008100010","pct_black":99.07},"geometry":{"type":"Polygon","coordinates":[[[-79.75765899996314,36.07484399994012],[-79.77047399951942,36.071577999694696],[-79.78994700015791,36.06783300037484],[-79.78454999946007,36.07052000021786],[-79.78420099947508,36.07211100031759],[-79.78499099983229,36.075844000177646],[-79.78282700033235,36.076135999968784],[-79.77402599953186,36.080150000145586],[-79.77039600044284,36.082842000303884],[-79.7697570000433,36.08508399997566],[-79.77075899944714,36.08514100003687],[-79.77042099982953,36.08789699964061],[-79.75660900043066,36.08750800012237],[-79.75681900032397,36.08510300009098],[-79.7579809998743,36.084588000203674],[-79.75873099967296,36.076128000072345],[-79.75764499996701,36.07635499975072],[-79.75765899996314,36.07484399994012]]]}},{"id":"592","type":"Feature","properties":{"GISJOIN":"G37008100011","pct_black":99.25},"geometry":{"type":"Polygon","coordinates":[[[-79.76178799997942,36.04663100041058],[-79.76774299939379,36.04612100034618],[-79.77203800044185,36.0445129999721],[-79.77071700045725,36.04532500024406],[-79.77406999991568,36.044358999982286],[-79.77504000003445,36.04799100015936],[-79.77616099961992,36.048854000348136],[-79.77194899953825,36.05613499960038],[-79.77047399951942,36.071577999694696],[-79.75765899996314,36.07484399994012],[-79.75723299992862,36.06779300016191],[-79.75777300009706,36.06003000028049],[-79.7565360003499,36.059965999613006],[-79.75662000038893,36.05796499967069],[-79.76193199987578,36.05814699955956],[-79.76178799997942,36.04663100041058]]]}},{"id":"593","type":"Feature","properties":{"GISJOIN":"G37008100012","pct_black":99.61},"geometry":{"type":"Polygon","coordinates":[[[-79.77191000023707,36.05639600008805],[-79.78374700014355,36.05699999996203],[-79.78415500016823,36.06570400027034],[-79.78375300052598,36.069281000045386],[-79.77047399951942,36.071577999694696],[-79.77191000023707,36.05639600008805]]]}},{"id":"594","type":"Feature","properties":{"GISJOIN":"G37008100013","pct_black":37.81},"geometry":{"type":"Polygon","coordinates":[[[-79.77191000023707,36.05639600008805],[-79.77616099961992,36.048854000348136],[-79.77504000003445,36.04799100015936],[-79.77406999991568,36.044358999982286],[-79.7754360001109,36.04386699976146],[-79.78218199951877,36.04534799976598],[-79.78622799953841,36.04734999964624],[-79.79152100027585,36.04884900029409],[-79.7906709995132,36.06766000007463],[-79.78375300052598,36.069281000045386],[-79.78415500016823,36.06570400027034],[-79.78374700014355,36.05699999996203],[-79.77191000023707,36.05639600008805]]]}},{"id":"595","type":"Feature","properties":{"GISJOIN":"G37008100014A","pct_black":89.21},"geometry":{"type":"Polygon","coordinates":[[[-79.79150199980823,36.0499149998476],[-79.79814400033517,36.05066500025729],[-79.79804099984062,36.051823000282994],[-79.80079599988598,36.051960000235326],[-79.800613000113,36.053869000291265],[-79.80433800034763,36.054654999996536],[-79.80090999971542,36.05961399980334],[-79.79881800033293,36.06561999977298],[-79.7906709995132,36.06766000007463],[-79.79150199980823,36.0499149998476]]]}},{"id":"596","type":"Feature","properties":{"GISJOIN":"G37008100014B","pct_black":1.66},"geometry":{"type":"Polygon","coordinates":[[[-79.79150199980823,36.0499149998476],[-79.79158000038188,36.04399500015697],[-79.80041799955843,36.04489400028307],[-79.79961499970311,36.04639099968471],[-79.80798300015725,36.046670000061525],[-79.81111499979174,36.04739299987356],[-79.81043399964453,36.04876500025794],[-79.80433800034763,36.054654999996536],[-79.800613000113,36.053869000291265],[-79.80079599988598,36.051960000235326],[-79.79804099984062,36.051823000282994],[-79.79814400033517,36.05066500025729],[-79.79150199980823,36.0499149998476]]]}},{"id":"597","type":"Feature","properties":{"GISJOIN":"G37008100015","pct_black":11.36},"geometry":{"type":"Polygon","coordinates":[[[-79.80433800034763,36.054654999996536],[-79.81059499955387,36.0485789999884],[-79.81190899964365,36.0458379999862],[-79.81542400044486,36.0435150003018],[-79.8154190001818,36.05169299981386],[-79.81584199938493,36.05303400028149],[-79.81545199960527,36.06302800020145],[-79.80309800035728,36.06457600021836],[-79.79881800033293,36.06561999977298],[-79.80090999971542,36.05961399980334],[-79.80433800034763,36.054654999996536]]]}},{"id":"598","type":"Feature","properties":{"GISJOIN":"G37008100016A","pct_black":0.25},"geometry":{"type":"Polygon","coordinates":[[[-79.8154479998624,36.04639699973132],[-79.82203900014187,36.046445000031504],[-79.82231199984456,36.04704099964412],[-79.82528399996026,36.04733300018153],[-79.82934799999894,36.046216999885736],[-79.83212700057813,36.04624599973774],[-79.83342300038662,36.0489570000887],[-79.83505199964196,36.04946399952024],[-79.83123500046082,36.05532599997288],[-79.82794099974973,36.05810799961112],[-79.82649200032243,36.060534000135185],[-79.82436100017952,36.060931000149466],[-79.82391499957578,36.06171999961641],[-79.81545199960527,36.06302800020145],[-79.81584199938493,36.05303400028149],[-79.8154479998624,36.04639699973132]]]}},{"id":"599","type":"Feature","properties":{"GISJOIN":"G37008100016B","pct_black":9.59},"geometry":{"type":"Polygon","coordinates":[[[-79.83141400022282,36.05509099960195],[-79.83631100018128,36.04776300000571],[-79.84072699963534,36.04427500029256],[-79.85885900002961,36.04873000014887],[-79.86483300016701,36.04882400041677],[-79.85924399955006,36.0531649996659],[-79.85697799975762,36.05430099987127],[-79.84308399966802,36.05699900018025],[-79.8422770004641,36.05793700045721],[-79.84289100055052,36.05974399977218],[-79.82391499957578,36.06171999961641],[-79.82436100017952,36.060931000149466],[-79.82692200016143,36.060144000261424],[-79.82794099974973,36.05810799961112],[-79.83141400022282,36.05509099960195]]]}},{"id":"600","type":"Feature","properties":{"GISJOIN":"G37008100025A","pct_black":0.83},"geometry":{"type":"Polygon","coordinates":[[[-79.8301719996559,36.08254599997456],[-79.83061299953458,36.0783099998916],[-79.83331900039208,36.074202000019504],[-79.83751400045452,36.07333800030161],[-79.83846999967689,36.073719999630754],[-79.8387580000652,36.074874999698885],[-79.84489399979829,36.07493299991065],[-79.84777200017152,36.07266499974157],[-79.84801399954345,36.06914999962499],[-79.85574799941315,36.06895000009292],[-79.8591760004432,36.07008800008052],[-79.86531200015662,36.070411000204565],[-79.86858300006358,36.06973899979143],[-79.87067900000702,36.074068999925416],[-79.87266199944364,36.08262500010976],[-79.8788269995877,36.087013000206156],[-79.88043800012991,36.08922399965508],[-79.8782540002469,36.0894490001989],[-79.87168599985662,36.0921289999414],[-79.8693130004322,36.09236900050801],[-79.86564000025668,36.09138799975894],[-79.85394899990071,36.09047400006978],[-79.8301719996559,36.08254599997456]]]}},{"id":"601","type":"Feature","properties":{"GISJOIN":"G37008100025B","pct_black":0.95},"geometry":{"type":"Polygon","coordinates":[[[-79.84914100003977,36.12586200014962],[-79.84292600019373,36.12064500036248],[-79.82842899972242,36.11005899955162],[-79.8204489997944,36.10133399995163],[-79.8111490000105,36.088126000171584],[-79.8148759995315,36.0886140002538],[-79.82153599977828,36.08844099998568],[-79.82283600007581,36.089453000184044],[-79.82459099971794,36.08927699960174],[-79.82836499973983,36.08550099959699],[-79.8301719996559,36.08254599997456],[-79.83805599969459,36.085518999944654],[-79.84732700033106,36.08791600038276],[-79.85330600016842,36.090378999902484],[-79.86564000025668,36.09138799975894],[-79.86908399990176,36.09236799963648],[-79.8737019997017,36.091327999796505],[-79.87432199967768,36.09361800011382],[-79.87174299985853,36.09349800031004],[-79.87172200044651,36.09574300000265],[-79.86765897927944,36.09530695095171],[-79.86529400020747,36.0976399995905],[-79.8601879997249,36.0998459997782],[-79.85780830357196,36.102700670783854],[-79.86284461284298,36.10292780449462],[-79.86854880439002,36.104818301938074],[-79.86856636201223,36.10613868913908],[-79.8644822471639,36.10624941645986],[-79.86351479850654,36.10783709529715],[-79.86492013655239,36.10764687938266],[-79.86454667120951,36.10898135335075],[-79.86205018636251,36.1089442431159],[-79.86240000023133,36.105568999645115],[-79.85947899964133,36.10548699970659],[-79.85695800061545,36.10419399965718],[-79.85392000041878,36.105732000049045],[-79.85737650985558,36.10615302523189],[-79.85706144287279,36.11088437150757],[-79.8512410003875,36.11108199979135],[-79.85021699994685,36.11512999979875],[-79.8447509997237,36.118477999591796],[-79.84900599950751,36.120432000379644],[-79.85497299992346,36.12142099956228],[-79.85493999976546,36.12296600003791],[-79.85398700026684,36.123246999888856],[-79.8543209998295,36.125851999976604],[-79.8527130004928,36.126195000286955],[-79.8531680004465,36.126858999729514],[-79.85202300044715,36.12708600003481],[-79.8504339997724,36.125348999994706],[-79.84914100003977,36.12586200014962]]]}},{"id":"602","type":"Feature","properties":{"GISJOIN":"G37008100025C","pct_black":4.31},"geometry":{"type":"Polygon","coordinates":[[[-79.81282105100483,36.124553021619754],[-79.81043641717926,36.118573737723935],[-79.80585956662594,36.11616751859376],[-79.8028049996877,36.1135139996831],[-79.8024150002696,36.11160200046907],[-79.80206400011662,36.111019999972164],[-79.80145999992556,36.11126499959177],[-79.80063200053378,36.10717000002469],[-79.80125800020932,36.10596999977053],[-79.80315100040225,36.10594100003035],[-79.81132899976373,36.10969700010821],[-79.8150849995139,36.109896999737664],[-79.8151249999461,36.10611899993559],[-79.81916400015149,36.106168000047276],[-79.81920900033685,36.10335800012326],[-79.81831400025699,36.10008000006241],[-79.81939599993821,36.09988500029735],[-79.82842899972242,36.11005899955162],[-79.84191799986496,36.120944000020536],[-79.84494599949922,36.13034200008821],[-79.8400029995856,36.13051500026205],[-79.8380259998754,36.134377000338056],[-79.83733399979751,36.13422899991721],[-79.83711959465833,36.13057327091674],[-79.83600993350434,36.13093567136604],[-79.83222199978313,36.13020199955437],[-79.83096699990634,36.122348999936946],[-79.83220173045704,36.122463588105894],[-79.83213575858578,36.119724608013094],[-79.83293011211211,36.11722298761745],[-79.83494000025364,36.117205000238165],[-79.83497799981986,36.11638299978024],[-79.82977999988772,36.11701599996503],[-79.82392099992222,36.11934700042609],[-79.81708300036097,36.12052600046746],[-79.81507200006347,36.12357500042751],[-79.81282105100483,36.124553021619754]]]}},{"id":"603","type":"Feature","properties":{"GISJOIN":"G37008100026A","pct_black":6.47},"geometry":{"type":"Polygon","coordinates":[[[-79.84355500044008,36.06102200010633],[-79.8422770004641,36.05793700045721],[-79.84308399966802,36.05699900018025],[-79.85697799975762,36.05430099987127],[-79.85924399955006,36.0531649996659],[-79.86483300016701,36.04882400041677],[-79.87045200050235,36.048950000215925],[-79.89123400023965,36.05656100000358],[-79.88403499975796,36.05947600004643],[-79.87078100002823,36.06019400020724],[-79.87039599983407,36.065280999850444],[-79.87073200013441,36.06918000006457],[-79.865871000239,36.07042300023204],[-79.8591760004432,36.07008800008052],[-79.85574799941315,36.06895000009292],[-79.84801399954345,36.06914999962499],[-79.84803100051562,36.06439099964926],[-79.84355500044008,36.06102200010633]]]}},{"id":"604","type":"Feature","properties":{"GISJOIN":"G37008100026B","pct_black":0.0},"geometry":{"type":"Polygon","coordinates":[[[-79.87045200050235,36.048950000215925],[-79.85885900002961,36.04873000014887],[-79.84072699963534,36.04427500029256],[-79.84450500027572,36.04122299965425],[-79.86237599953735,36.036681999694984],[-79.86515599962006,36.0348620001196],[-79.86763400043726,36.032344999850544],[-79.86855299943986,36.02986100033733],[-79.87531099981987,36.03173399974994],[-79.87591199988628,36.03200599995489],[-79.8759049996164,36.032762999647254],[-79.87846900050394,36.03302799995603],[-79.87851300011584,36.03236500003117],[-79.8791059997676,36.03237699989837],[-79.87914799988678,36.03301899989502],[-79.87965699999964,36.03301600000828],[-79.87968608973112,36.032429156693915],[-79.88044981254613,36.03239129867522],[-79.88515700053068,36.03442299963125],[-79.8845630002567,36.03537200035123],[-79.88896699984603,36.035957000239705],[-79.88897300012893,36.03897199973948],[-79.89068799963594,36.042356999504165],[-79.89013199971643,36.052288000400615],[-79.89061100046888,36.053520999755484],[-79.88994200033684,36.05606799997035],[-79.87045200050235,36.048950000215925]]]}},{"id":"605","type":"Feature","properties":{"GISJOIN":"G37008100026C","pct_black":14.0},"geometry":{"type":"Polygon","coordinates":[[[-79.80086699985866,36.033967000393275],[-79.80247400013587,36.02654100000842],[-79.80230700031045,36.024628000150656],[-79.80908949802932,36.024599768053704],[-79.81229997587903,36.02536414192498],[-79.82354799992459,36.01992000030796],[-79.82773899981949,36.02140699964581],[-79.84517400005971,36.020601999849006],[-79.84976199965153,36.01843799986798],[-79.85151700026591,36.01704900000552],[-79.85641499970609,36.0151979999568],[-79.86074600051279,36.015836000202036],[-79.86549800011616,36.01548999979938],[-79.86609500059889,36.02542299965422],[-79.86785199998683,36.026219000383286],[-79.86718399984098,36.02727699993685],[-79.86762100017742,36.027479999716654],[-79.86710300013524,36.02813700026919],[-79.8674670001251,36.02888899990837],[-79.86683999949645,36.029739000115164],[-79.8682879994659,36.030663000280214],[-79.86763400043726,36.032344999850544],[-79.86543699968011,36.03459600033511],[-79.86207600016344,36.03683700002724],[-79.84450500027572,36.04122299965425],[-79.84072699963534,36.04427500029256],[-79.8389709995214,36.04352500009758],[-79.83740899984085,36.043776999714176],[-79.83338499975041,36.04121000014356],[-79.82481500029816,36.03832999970642],[-79.8133880003343,36.03267800003442],[-79.80929100045003,36.03195900047117],[-79.80086699985866,36.033967000393275]]]}},{"id":"606","type":"Feature","properties":{"GISJOIN":"G37008100026D","pct_black":0.1},"geometry":{"type":"Polygon","coordinates":[[[-79.80041799955843,36.04489400028307],[-79.80095900054667,36.04137300000411],[-79.80007600006027,36.03730900010496],[-79.80086699985866,36.033967000393275],[-79.80964899997008,36.03195099984363],[-79.81484199989647,36.03317399992781],[-79.82370699962051,36.037853000188164],[-79.83338499975041,36.04121000014356],[-79.83740899984085,36.043776999714176],[-79.8389709995214,36.04352500009758],[-79.84072699963534,36.04427500029256],[-79.83631100018128,36.04776300000571],[-79.83505199964196,36.04946399952024],[-79.83342300038662,36.0489570000887],[-79.83212700057813,36.04624599973774],[-79.82934799999894,36.046216999885736],[-79.82528399996026,36.04733300018153],[-79.82231199984456,36.04704099964412],[-79.82203900014187,36.046445000031504],[-79.8154479998624,36.04639699973132],[-79.81542400044486,36.0435150003018],[-79.81190899964365,36.0458379999862],[-79.81111499979174,36.04739299987356],[-79.80798300015725,36.046670000061525],[-79.79961499970311,36.04639099968471],[-79.80041799955843,36.04489400028307]]]}},{"id":"607","type":"Feature","properties":{"GISJOIN":"G37008100027A","pct_black":1.53},"geometry":{"type":"Polygon","coordinates":[[[-79.75254116416463,36.11934425396131],[-79.75721899992297,36.112819000239156],[-79.77156099971259,36.11369899987214],[-79.77460599944614,36.113417000315714],[-79.78196899982349,36.111255000396326],[-79.7892030000657,36.11028500033039],[-79.80125800020932,36.10596999977053],[-79.80063200053378,36.10717000002469],[-79.80145999992556,36.11126499959177],[-79.80206400011662,36.111019999972164],[-79.8024150002696,36.11160200046907],[-79.8028049996877,36.1135139996831],[-79.80585956662594,36.11616751859376],[-79.81043641717926,36.118573737723935],[-79.81282105100483,36.124553021619754],[-79.81100799943609,36.12507200019481],[-79.80855199975305,36.127013999877846],[-79.80048299958537,36.130755999800115],[-79.79414600037359,36.13218399979241],[-79.78965599965656,36.13411999957625],[-79.78903399952203,36.12767600014393],[-79.78807300037593,36.125831999775954],[-79.77592599960109,36.125601000384435],[-79.7756570000888,36.12652700042865],[-79.77354999977405,36.12646000040256],[-79.77282599955217,36.12532300007031],[-79.76277699989124,36.12517099955355],[-79.7627232442233,36.1239663244851],[-79.75946399983523,36.12323700037825],[-79.75977940181119,36.120262718096164],[-79.75513094167886,36.12028135099289],[-79.75510222584228,36.119409558695594],[-79.75254116416463,36.11934425396131]]]}},{"id":"608","type":"Feature","properties":{"GISJOIN":"G37008100027B","pct_black":7.48},"geometry":{"type":"Polygon","coordinates":[[[-79.73381207328184,36.10850251818109],[-79.7335509577265,36.10802631466291],[-79.73946900027224,36.107241999907465],[-79.73993199981821,36.104037000000794],[-79.73945649412953,36.10236120007096],[-79.7381565898173,36.10231210066598],[-79.73750598667912,36.099272703771504],[-79.73257699987775,36.098783000290275],[-79.7327959737031,36.09587359327896],[-79.73076269427146,36.095880345205984],[-79.72889318099068,36.09380754811983],[-79.72932279150453,36.09334106239394],[-79.72929300012954,36.09081999983141],[-79.73060100020948,36.09073399978177],[-79.73068199996882,36.08770899957002],[-79.72767699969003,36.08756600018399],[-79.72769999971206,36.08578200014637],[-79.72646199956188,36.08609800024624],[-79.72626699943022,36.08532000032528],[-79.74040599969848,36.08370399990542],[-79.7405336162545,36.081376487615955],[-79.74268561038372,36.0815639920904],[-79.74310714482085,36.0748473131801],[-79.74504245995263,36.07507201057894],[-79.74507399950984,36.07235099993517],[-79.75459299957326,36.07593400011754],[-79.75765899996314,36.07484399994012],[-79.75764499996701,36.07635499975072],[-79.75873099967296,36.076128000072345],[-79.75838400001649,36.0802990001623],[-79.7579809998743,36.084588000203674],[-79.75681900032397,36.08510300009098],[-79.75576399967515,36.09750700006223],[-79.75663900019376,36.09792999991069],[-79.75532599997132,36.1006820000418],[-79.7536590001617,36.101269000342185],[-79.75288700014761,36.102663999793755],[-79.75118600061965,36.10296599965143],[-79.75056399969785,36.102526000399784],[-79.74720599958032,36.106033999733604],[-79.745546999459,36.10592000008155],[-79.74516799963948,36.10668399956286],[-79.74376599975062,36.1066400000217],[-79.74287399955365,36.108965000268014],[-79.74170999947522,36.109801000299065],[-79.74038200025237,36.10945500011979],[-79.73613000046177,36.11051199984655],[-79.73603400004102,36.10882000003223],[-79.73381207328184,36.10850251818109]]]}},{"id":"609","type":"Feature","properties":{"GISJOIN":"G37008100028A","pct_black":17.68},"geometry":{"type":"Polygon","coordinates":[[[-79.76518500005439,36.037239000440145],[-79.7655790615079,36.037329359802364],[-79.76586162190952,36.03377431738497],[-79.76648127675898,36.03375147261781],[-79.76651085739975,36.02995632717503],[-79.76797900039288,36.03096100028978],[-79.77289799962537,36.02476300008421],[-79.78054700054288,36.02504199974567],[-79.78061574505102,36.02303748918707],[-79.78498181453483,36.0230613270304],[-79.78544772931613,36.0250699916102],[-79.79168105056071,36.02510519907698],[-79.79171300039658,36.0238410002303],[-79.80231699964746,36.02397000013376],[-79.80242799962743,36.026822000387995],[-79.80008799991376,36.037031999780005],[-79.80095900054667,36.04137300000411],[-79.80071199981109,36.044314999879234],[-79.80041799955843,36.04489400028307],[-79.79158000038188,36.04399500015697],[-79.79152100027585,36.04884900029409],[-79.78597799959162,36.04725599991355],[-79.78273699962395,36.045496999577864],[-79.7754360001109,36.04386699976146],[-79.7654430002407,36.046503999790424],[-79.75778299969744,36.04677299952009],[-79.75825499979206,36.04580099968473],[-79.76184799984591,36.045243999690925],[-79.7619300002758,36.04369199968512],[-79.76470899990261,36.04354800027626],[-79.76387300060514,36.04128699977866],[-79.76518500005439,36.037239000440145]]]}},{"id":"610","type":"Feature","properties":{"GISJOIN":"G37008100028B","pct_black":84.39},"geometry":{"type":"Polygon","coordinates":[[[-79.74507399950984,36.07235099993517],[-79.74528350432232,36.07132473131152],[-79.7457178521261,36.07133737848244],[-79.74508277574921,36.062543983851256],[-79.75195699948155,36.06251500009858],[-79.75204599945523,36.06208199991308],[-79.75199300025966,36.06002999990004],[-79.74722199987393,36.05938300021181],[-79.74814600022088,36.050878000449714],[-79.75220999987495,36.04912299976735],[-79.75366600022322,36.047556999999394],[-79.75647500052128,36.047861000036974],[-79.75778299969744,36.04677299952009],[-79.76178799997942,36.04663100041058],[-79.76193199987578,36.05814699955956],[-79.75662000038893,36.05796499967069],[-79.7565360003499,36.059965999613006],[-79.75777300009706,36.06003000028049],[-79.75723299992862,36.06779300016191],[-79.75765899996314,36.07484399994012],[-79.75459299957326,36.07593400011754],[-79.74507399950984,36.07235099993517]]]}},{"id":"611","type":"Feature","properties":{"GISJOIN":"G3700810C0017","pct_black":25.13},"geometry":{"type":"Polygon","coordinates":[[[-79.5376940003261,36.124262000044624],[-79.62008300017608,36.13179199992022],[-79.61871969722299,36.15120963390187],[-79.61710999960803,36.164287000154026],[-79.6158310002328,36.20355700019622],[-79.61568400016729,36.24373700040834],[-79.53236500017076,36.24134199996908],[-79.53599200013635,36.1740680002431],[-79.5376940003261,36.124262000044624]]]}},{"id":"612","type":"Feature","properties":{"GISJOIN":"G3700810C0018","pct_black":33.46},"geometry":{"type":"Polygon","coordinates":[[[-79.61568400016729,36.24373700040834],[-79.6158310002328,36.20355700019622],[-79.61710999960803,36.164287000154026],[-79.61871969722299,36.15120963390187],[-79.62008300017608,36.13179199992022],[-79.65791299995468,36.133256999939874],[-79.67808899966808,36.13350199987951],[-79.68739099968661,36.133004000071466],[-79.7046123476112,36.13447889769945],[-79.70288902297362,36.24612992042163],[-79.61568400016729,36.24373700040834]]]}},{"id":"613","type":"Feature","properties":{"GISJOIN":"G3700810C0019","pct_black":16.05},"geometry":{"type":"Polygon","coordinates":[[[-79.70288902297362,36.24612992042163],[-79.70505241846983,36.11850788988127],[-79.7089629995593,36.12038900021123],[-79.71094799948688,36.12288899990002],[-79.71305399983625,36.12281200029221],[-79.71565399955553,36.12072799999921],[-79.71616299952545,36.12103000010494],[-79.71556700012233,36.12286600009191],[-79.71700999982428,36.12259100024257],[-79.71835099983346,36.12177200036923],[-79.71925700017711,36.119228000087986],[-79.72246000046565,36.11888599976266],[-79.72215499953273,36.11680299990985],[-79.72558200015796,36.11668699963821],[-79.7270509997019,36.11529100000076],[-79.72746400014654,36.11414199989091],[-79.73227800042662,36.112926000022334],[-79.73299499994344,36.111184000158595],[-79.73544499951066,36.10967199999655],[-79.73370499971774,36.10896400012516],[-79.73421900002856,36.10839699964844],[-79.73603400004102,36.10882000003223],[-79.73613000046177,36.11051199984655],[-79.74086999984212,36.109439000302245],[-79.74225999987834,36.1111970003243],[-79.74395800012533,36.11044899956512],[-79.74561800011253,36.110761000107686],[-79.74694799951558,36.10864599967952],[-79.74662400020568,36.1148409999832],[-79.75011599967463,36.11501299974813],[-79.74977599999441,36.118318000330355],[-79.75244800031768,36.11820399971101],[-79.75254116416463,36.11934425396131],[-79.75510222584228,36.119409558695594],[-79.75513094167886,36.12028135099289],[-79.75977940181119,36.120262718096164],[-79.75946399983523,36.12323700037825],[-79.7627232442233,36.1239663244851],[-79.76277699989124,36.12517099955355],[-79.77282599955217,36.12532300007031],[-79.77354999977405,36.12646000040256],[-79.7756570000888,36.12652700042865],[-79.77592599960109,36.125601000384435],[-79.78807300037593,36.125831999775954],[-79.78903399952203,36.12767600014393],[-79.78965599965656,36.13411999957625],[-79.78768600036877,36.135022000106076],[-79.78764500000668,36.1362880000216],[-79.78735700003898,36.209351000416504],[-79.78774499966131,36.21573899996476],[-79.78693758711312,36.248488937504355],[-79.70288902297362,36.24612992042163]]]}},{"id":"614","type":"Feature","properties":{"GISJOIN":"G3700810C0020","pct_black":12.79},"geometry":{"type":"Polygon","coordinates":[[[-79.78768600036877,36.135022000106076],[-79.79414600037359,36.13218399979241],[-79.80048299958537,36.130755999800115],[-79.80855199975305,36.127013999877846],[-79.81100799943609,36.12507200019481],[-79.81477500022515,36.12384300008818],[-79.81708300036097,36.12052600046746],[-79.82392099992222,36.11934700042609],[-79.82977999988772,36.11701599996503],[-79.83497799981986,36.11638299978024],[-79.83494000025364,36.117205000238165],[-79.83293011211211,36.11722298761745],[-79.83213575858578,36.119724608013094],[-79.83220173045704,36.122463588105894],[-79.83096699990634,36.122348999936946],[-79.83222199978313,36.13020199955437],[-79.83600993350434,36.13093567136604],[-79.83711959465833,36.13057327091674],[-79.83733399979751,36.13422899991721],[-79.83828000018421,36.13434399986249],[-79.8400029995856,36.13051500026205],[-79.84494599949922,36.13034200008821],[-79.84228800032265,36.121473000242844],[-79.83649099952316,36.116247000374294],[-79.84292600019373,36.12064500036248],[-79.85413199979837,36.12998500036712],[-79.86184800003994,36.137843999997756],[-79.87071199991001,36.13768900000343],[-79.87067600027794,36.1433329997199],[-79.87131599993731,36.14333500001848],[-79.87055999958687,36.146225000321984],[-79.86897300004003,36.14622499980434],[-79.87269299989629,36.15543300010303],[-79.8727624294143,36.160118766338755],[-79.8717480001285,36.18396600014047],[-79.87233417821845,36.189592115651045],[-79.8724599996675,36.205761999950994],[-79.87162799972975,36.22240700014385],[-79.87160874870692,36.252017903240535],[-79.85731000052407,36.251018999691986],[-79.78693758711312,36.248488937504355],[-79.78774499966131,36.21573899996476],[-79.78735700003898,36.209351000416504],[-79.78764500000668,36.1362880000216],[-79.78768600036877,36.135022000106076]]]}},{"id":"615","type":"Feature","properties":{"GISJOIN":"G3700810C0021","pct_black":12.54},"geometry":{"type":"Polygon","coordinates":[[[-79.87068900000813,36.13795600034665],[-79.87263500001146,36.13756700043511],[-79.90106200028276,36.138467999735575],[-79.9056690002405,36.13919499966482],[-79.91723399994285,36.138771000421734],[-79.95131699968964,36.14000399962878],[-79.95186499998651,36.158572000194404],[-79.95338799963,36.17375700001911],[-79.95343900047436,36.21250200003926],[-79.953997000531,36.22753499978733],[-79.95441499993993,36.22849899980294],[-79.95426900054025,36.25484100006381],[-79.87160874870692,36.252017903240535],[-79.87162799972975,36.22240700014385],[-79.8724599996675,36.205761999950994],[-79.87233417821845,36.189592115651045],[-79.8717480001285,36.18396600014047],[-79.8727624294143,36.160118766338755],[-79.87269299989629,36.15543300010303],[-79.86897300004003,36.14622499980434],[-79.87055999958687,36.146225000321984],[-79.87131599993731,36.14333500001848],[-79.87067600027794,36.1433329997199],[-79.87068900000813,36.13795600034665]]]}},{"id":"616","type":"Feature","properties":{"GISJOIN":"G3700810C0022","pct_black":15.0},"geometry":{"type":"Polygon","coordinates":[[[-79.95131699968964,36.14000399962878],[-80.03870300030937,36.140358000331965],[-80.03919999966638,36.13410399952235],[-80.03836399959245,36.15935999981953],[-80.03744299966063,36.16153499981291],[-80.0370289995549,36.17367100017811],[-80.03780299962166,36.17628600033938],[-80.0352040004506,36.2547180002604],[-80.03554000001559,36.25735100023656],[-80.01288699967184,36.25711900007157],[-79.95426900054025,36.25484100006381],[-79.95441499993993,36.22849899980294],[-79.953997000531,36.22753499978733],[-79.95343900047436,36.21250200003926],[-79.95338799963,36.17375700001911],[-79.95186499998651,36.158572000194404],[-79.95131699968964,36.14000399962878]]]}},{"id":"617","type":"Feature","properties":{"GISJOIN":"G3700810C0023","pct_black":8.53},"geometry":{"type":"Polygon","coordinates":[[[-79.95713199962307,36.02816799952008],[-79.95676299954387,35.99682099979199],[-79.95780299975594,35.996304000135545],[-79.9602939997202,35.99641199983399],[-79.96007599971266,35.99703799953531],[-79.95867300037004,35.9974560004637],[-79.95915899986106,35.99943600014211],[-79.96042200042474,36.00066100027127],[-79.96110400038955,36.000667000030916],[-79.96162699999283,35.999189000267464],[-79.96351399994403,35.99824599978988],[-79.96732100017064,35.99810100008603],[-79.96773400029056,35.99917200041087],[-79.97240699997795,36.000031999598214],[-79.97452500017104,36.001914999969166],[-79.97746600043142,36.00206099970303],[-79.97806199953048,36.00420399956018],[-79.98051400015248,36.0053630000041],[-79.9848549998591,36.00965000007285],[-79.98566200049478,36.011238999643396],[-79.98686000027774,36.01203600004652],[-79.98735999988422,36.014336000100364],[-79.99025999990633,36.016736000274896],[-79.99696100007257,36.01603599991556],[-80.00006100040879,36.01383600000343],[-80.00289400020877,36.01393400011341],[-80.00765100011337,36.012228000240306],[-80.00994099996905,36.0126259997078],[-80.01058600029467,36.011824000116164],[-80.02033999969707,36.010596000104556],[-80.02256100002873,36.008693000036786],[-80.02486500012272,36.007863000429886],[-80.03079500023263,36.00755300014818],[-80.03514299975905,36.00582499957786],[-80.043423999792,36.006030999945324],[-80.03870300030937,36.140358000331965],[-79.9513200860783,36.1399685692818],[-79.95236637809714,36.1300984043806],[-79.9530400003018,36.10919899991092],[-79.95368000005028,36.10806099969758],[-79.95540099945457,36.10695400011955],[-79.95316400005905,36.10576800043965],[-79.95482000004529,36.07229600044357],[-79.95559299972888,36.06575100025964],[-79.95713199962307,36.02816799952008]]]}},{"id":"618","type":"Feature","properties":{"GISJOIN":"G3700810C0024","pct_black":15.72},"geometry":{"type":"Polygon","coordinates":[[[-79.84914100003977,36.12586200014962],[-79.8504339997724,36.125348999994706],[-79.85202300044715,36.12708600003481],[-79.8531680004465,36.126858999729514],[-79.8527130004928,36.126195000286955],[-79.8543209998295,36.125851999976604],[-79.85398700026684,36.123246999888856],[-79.85493999976546,36.12296600003791],[-79.85497299992346,36.12142099956228],[-79.84900599950751,36.120432000379644],[-79.8447509997237,36.118477999591796],[-79.85021699994685,36.11512999979875],[-79.8512410003875,36.11108199979135],[-79.85706144287279,36.11088437150757],[-79.85737650985558,36.10615302523189],[-79.8537993195875,36.10580254215352],[-79.85695800061545,36.10419399965718],[-79.85947899964133,36.10548699970659],[-79.86240000023133,36.105568999645115],[-79.86205018636251,36.1089442431159],[-79.86454667120951,36.10898135335075],[-79.86492013655239,36.10764687938266],[-79.86351479850654,36.10783709529715],[-79.86404931578444,36.1066596542413],[-79.8644822471639,36.10624941645986],[-79.86856636201223,36.10613868913908],[-79.86854880439002,36.104818301938074],[-79.86284461284298,36.10292780449462],[-79.85780830357196,36.102700670783854],[-79.85863899988632,36.10148100025013],[-79.86045699963394,36.09968900000874],[-79.86529400020747,36.0976399995905],[-79.86765897927944,36.09530695095171],[-79.87172200044651,36.09574300000265],[-79.87174299985853,36.09349800031004],[-79.87432199967768,36.09361800011382],[-79.8737019997017,36.091327999796505],[-79.8782540002469,36.0894490001989],[-79.88043800012991,36.08922399965508],[-79.8788269995877,36.087013000206156],[-79.87249499947609,36.082296999830454],[-79.87067900000702,36.074068999925416],[-79.86858300006358,36.06973899979143],[-79.87073200013441,36.06918000006457],[-79.87039599983407,36.065280999850444],[-79.87078100002823,36.06019400020724],[-79.88403499975796,36.05947600004643],[-79.89123400023965,36.05656100000358],[-79.88994200033684,36.05606799997035],[-79.89061100046888,36.053520999755484],[-79.89013199971643,36.052288000400615],[-79.89068799963594,36.042356999504165],[-79.88897300012893,36.03897199973948],[-79.88896699984603,36.035957000239705],[-79.8845630002567,36.03537200035123],[-79.88515700053068,36.03442299963125],[-79.88044981254613,36.03239129867522],[-79.87968608973112,36.032429156693915],[-79.87965699999964,36.03301600000828],[-79.87914799988678,36.03301899989502],[-79.8791059997676,36.03237699989837],[-79.87851300011584,36.03236500003117],[-79.87846900050394,36.03302799995603],[-79.8759049996164,36.032762999647254],[-79.87591199988628,36.03200599995489],[-79.87531099981987,36.03173399974994],[-79.87542800055259,36.02475999998051],[-79.95713199962307,36.02816799952008],[-79.95559299972888,36.06575100025964],[-79.95482000004529,36.07229600044357],[-79.95316400005905,36.10576800043965],[-79.95540099945457,36.10695400011955],[-79.95368000005028,36.10806099969758],[-79.9530400003018,36.10919899991092],[-79.95236637809714,36.1300984043806],[-79.95131699968964,36.14000399962878],[-79.91723399994285,36.138771000421734],[-79.9056690002405,36.13919499966482],[-79.90106200028276,36.138467999735575],[-79.87263500001146,36.13756700043511],[-79.86184800003994,36.137843999997756],[-79.85582599982018,36.13148700003556],[-79.84914100003977,36.12586200014962]]]}},{"id":"619","type":"Feature","properties":{"GISJOIN":"G3700810C0028C","pct_black":25.04},"geometry":{"type":"Polygon","coordinates":[[[-79.70834400001455,36.120128000147844],[-79.71371699951898,36.115174999603035],[-79.71501999977498,36.1087299998195],[-79.71801199969485,36.10099599957814],[-79.71384900026734,36.10258800022668],[-79.70563400032478,36.102053000236644],[-79.70356200026005,36.102709999632],[-79.7018840001484,36.098374999592565],[-79.70217600033678,36.095929999769936],[-79.70126199986728,36.087904000310196],[-79.69977700024238,36.08703400043758],[-79.69504100015682,36.087849999740875],[-79.69113499973689,36.089717999526904],[-79.6883960001841,36.08913999985693],[-79.68975699994631,36.08762199984682],[-79.69048599978096,36.08503999983455],[-79.69123000040165,36.08435300039583],[-79.69183900016819,36.08453400023287],[-79.69646699953671,36.08032900002102],[-79.69995699978595,36.07949799976681],[-79.7065480003291,36.07514100048263],[-79.70890400050665,36.07478899971426],[-79.70763100021802,36.0731140004604],[-79.70991900054089,36.07218399971957],[-79.70907899983888,36.07190399955397],[-79.70926199983047,36.07116800002431],[-79.711176000132,36.0679749999422],[-79.7136799997687,36.067924999602106],[-79.71468799991258,36.06591900016995],[-79.71719900036398,36.06535199982124],[-79.71710400043361,36.063829999782875],[-79.71843699966396,36.062905999988565],[-79.72062299959268,36.06355399962207],[-79.72392599954198,36.06239999984789],[-79.72330999982245,36.06179000002085],[-79.72545800025097,36.05981099970547],[-79.71590600033723,36.05932500008521],[-79.71289200014074,36.05979199983616],[-79.70995700025689,36.05221099997466],[-79.7056980002405,36.04821399996138],[-79.70155500022737,36.04608200000814],[-79.69961799983382,36.042689999550916],[-79.69764000012935,36.04074400037548],[-79.69672800009475,36.038301999631315],[-79.69650300058582,36.035092999731155],[-79.6997900000424,36.03470600018742],[-79.70190400013796,36.033565000352034],[-79.70189700009635,36.03252599984712],[-79.70342599974144,36.030405000269084],[-79.70254600039871,36.029546999811544],[-79.70360100051423,36.02659099965169],[-79.70803799976666,36.025765999543935],[-79.70887399988648,36.02511899986474],[-79.71252899974233,36.024763999839436],[-79.71619899943913,36.02329800023128],[-79.72624099976224,36.02281200004321],[-79.72834900039763,36.02322299988483],[-79.74235599967123,36.02959700003321],[-79.76104600020716,36.036349999744296],[-79.76518500005439,36.037239000440145],[-79.76387300060514,36.04128699977866],[-79.76470899990261,36.04354800027626],[-79.7619300002758,36.04369199968512],[-79.76184799984591,36.045243999690925],[-79.75814699958632,36.04584500026976],[-79.75659599988008,36.04783299987823],[-79.75355100063634,36.04760099966388],[-79.75220999987495,36.04912299976735],[-79.74814600022088,36.050878000449714],[-79.74722199987393,36.05938300021181],[-79.75199300025966,36.06002999990004],[-79.75204599945523,36.06208199991308],[-79.75195699948155,36.06251500009858],[-79.74508277574921,36.062543983851256],[-79.7457178521261,36.07133737848244],[-79.74528350432232,36.07132473131152],[-79.74474803650315,36.07363056133186],[-79.74504245995263,36.07507201057894],[-79.74310714482085,36.0748473131801],[-79.74268561038372,36.0815639920904],[-79.7405336162545,36.081376487615955],[-79.74040599969848,36.08370399990542],[-79.73872999962322,36.084095000225794],[-79.72626699943022,36.08532000032528],[-79.72646199956188,36.08609800024624],[-79.72769999971206,36.08578200014637],[-79.72767699969003,36.08756600018399],[-79.73068199996882,36.08770899957002],[-79.73060100020948,36.09073399978177],[-79.72929300012954,36.09081999983141],[-79.72932279150453,36.09334106239394],[-79.72889318099068,36.09380754811983],[-79.73076269427146,36.095880345205984],[-79.7327959737031,36.09587359327896],[-79.73257699987775,36.098783000290275],[-79.73750598667912,36.099272703771504],[-79.7381565898173,36.10231210066598],[-79.73945649412953,36.10236120007096],[-79.73990499959864,36.103844999986734],[-79.73946900027224,36.107241999907465],[-79.7335509577265,36.10802631466291],[-79.73370499971774,36.10896400012516],[-79.73544499951066,36.10967199999655],[-79.73299499994344,36.111184000158595],[-79.73227800042662,36.112926000022334],[-79.72746400014654,36.11414199989091],[-79.7270509997019,36.11529100000076],[-79.72558200015796,36.11668699963821],[-79.72215499953273,36.11680299990985],[-79.72246000046565,36.11888599976266],[-79.71925700017711,36.119228000087986],[-79.71847299977325,36.12158499993203],[-79.71747699983929,36.12240400039585],[-79.71556700012233,36.12286600009191],[-79.71616299952545,36.12103000010494],[-79.71565399955553,36.12072799999921],[-79.71305399983625,36.12281200029221],[-79.71094799948688,36.12288899990002],[-79.70834400001455,36.120128000147844]]]}},{"id":"620","type":"Feature","properties":{"GISJOIN":"G3700810C0029","pct_black":13.43},"geometry":{"type":"Polygon","coordinates":[[[-79.62136796510684,36.01693112484427],[-79.6329939998451,36.01639600022325],[-79.63900099967881,36.017502999951134],[-79.67018300051839,36.018221000168204],[-79.68645199951675,36.019470000049886],[-79.7070830000183,36.02025800026767],[-79.70770000006975,36.02460000003146],[-79.70884300054887,36.02519999983101],[-79.70348599996778,36.026656999767816],[-79.70254600039871,36.029546999811544],[-79.70342599974144,36.030405000269084],[-79.70189700009635,36.03252599984712],[-79.70190400013796,36.033565000352034],[-79.6997900000424,36.03470600018742],[-79.69650300058582,36.035092999731155],[-79.69668899975743,36.038106999663576],[-79.69753699999583,36.04055299987705],[-79.69961799983382,36.042689999550916],[-79.701467000323,36.04599999971512],[-79.7056980002405,36.04821399996138],[-79.70995700025689,36.05221099997466],[-79.71289200014074,36.05979199983616],[-79.71590600033723,36.05932500008521],[-79.72545800025097,36.05981099970547],[-79.72330999982245,36.06179000002085],[-79.72392599954198,36.06239999984789],[-79.72062299959268,36.06355399962207],[-79.71843699966396,36.062905999988565],[-79.71710400043361,36.063829999782875],[-79.71719900036398,36.06535199982124],[-79.71468799991258,36.06591900016995],[-79.7136799997687,36.067924999602106],[-79.711176000132,36.0679749999422],[-79.70926199983047,36.07116800002431],[-79.70907899983888,36.07190399955397],[-79.70991900054089,36.07218399971957],[-79.70763100021802,36.0731140004604],[-79.70890400050665,36.07478899971426],[-79.7065480003291,36.07514100048263],[-79.69995699978595,36.07949799976681],[-79.69646699953671,36.08032900002102],[-79.69183900016819,36.08453400023287],[-79.69123000040165,36.08435300039583],[-79.69048599978096,36.08503999983455],[-79.68975699994631,36.08762199984682],[-79.6883960001841,36.08913999985693],[-79.69113499973689,36.089717999526904],[-79.69504100015682,36.087849999740875],[-79.69977700024238,36.08703400043758],[-79.70126199986728,36.087904000310196],[-79.70217600033678,36.095929999769936],[-79.7018840001484,36.098374999592565],[-79.70356200026005,36.102709999632],[-79.70563400032478,36.102053000236644],[-79.71384900026734,36.10258800022668],[-79.71801199969485,36.10099599957814],[-79.71501999977498,36.1087299998195],[-79.71351099986173,36.11557999986868],[-79.70834400001455,36.120128000147844],[-79.70505241846983,36.11850788988127],[-79.7046123476112,36.13447889769945],[-79.68739099968661,36.133004000071466],[-79.67808899966808,36.13350199987951],[-79.65791299995468,36.133256999939874],[-79.62008300017608,36.13179199992022],[-79.61968599956052,36.12925999996678],[-79.62115600026156,36.12865899979869],[-79.61792299957082,36.12347000030514],[-79.61894099978075,36.07949799984164],[-79.62053599996092,36.06739899997782],[-79.62028799983257,36.061206000334856],[-79.62112399959972,36.04096399990785],[-79.61516799990838,36.03657400019714],[-79.62158699962015,36.02476199968612],[-79.62136796510684,36.01693112484427]]]}},{"id":"621","type":"Feature","properties":{"GISJOIN":"G3700810C0030","pct_black":22.3},"geometry":{"type":"Polygon","coordinates":[[[-79.5396250002752,36.0137999998628],[-79.62136796510684,36.01693112484427],[-79.62158699962015,36.02476199968612],[-79.61516799990838,36.03657400019714],[-79.62112399959972,36.04096399990785],[-79.62028799983257,36.061206000334856],[-79.62053599996092,36.06739899997782],[-79.61894099978075,36.07949799984164],[-79.61792299957082,36.12347000030514],[-79.62115600026156,36.12865899979869],[-79.61968599956052,36.12925999996678],[-79.62008300017608,36.13179199992022],[-79.5376940003261,36.124262000044624],[-79.53904499985471,36.08283499966587],[-79.5396250002752,36.0137999998628]]]}},{"id":"622","type":"Feature","properties":{"GISJOIN":"G3700810C0031","pct_black":5.89},"geometry":{"type":"Polygon","coordinates":[[[-79.62513300032855,35.903185000146635],[-79.62354400009167,35.956785999975104],[-79.62206700048242,35.96135499973957],[-79.62340700055621,35.96411599965156],[-79.62297500031545,35.9867730004067],[-79.62108800035121,36.009629000010094],[-79.62136796510684,36.01693112484427],[-79.5396250002752,36.0137999998628],[-79.54146300041008,35.90760399978367],[-79.54197799981016,35.89962699961045],[-79.62513300032855,35.903185000146635]]]}},{"id":"623","type":"Feature","properties":{"GISJOIN":"G3700810C0032","pct_black":7.11},"geometry":{"type":"Polygon","coordinates":[[[-79.62513300032855,35.903185000146635],[-79.71321700000655,35.906940999959396],[-79.71001499975331,35.97098700002078],[-79.71040599950322,35.979144000063876],[-79.70931500034487,35.97912099965798],[-79.70862799974643,36.00168599987767],[-79.70737700040911,36.02025799989745],[-79.66857300036361,36.01815599962291],[-79.66325500026271,36.01839099966651],[-79.63900099967881,36.017502999951134],[-79.6329939998451,36.01639600022325],[-79.62136796510684,36.01693112484427],[-79.62108800035121,36.009629000010094],[-79.62297500031545,35.9867730004067],[-79.62340700055621,35.96411599965156],[-79.62206700048242,35.96135499973957],[-79.62354400009167,35.956785999975104],[-79.62513300032855,35.903185000146635]]]}},{"id":"624","type":"Feature","properties":{"GISJOIN":"G3700810C0033A","pct_black":3.05},"geometry":{"type":"Polygon","coordinates":[[[-79.7655790615079,36.037329359802364],[-79.76104600020716,36.036349999744296],[-79.73825200049407,36.028066999920846],[-79.7272210001257,36.022895000453104],[-79.71619899943913,36.02329800023128],[-79.71229599991086,36.02481900021673],[-79.70974400013355,36.025189999721064],[-79.70782600019825,36.02481699980058],[-79.7070830000183,36.02025800026767],[-79.70862799974643,36.00168599987767],[-79.70931500034487,35.97912099965798],[-79.71040599950322,35.979144000063876],[-79.71015200020288,35.972569999716356],[-79.73550599990821,35.985591000149384],[-79.74470300041529,35.99559699972942],[-79.74941708116074,35.99464921612522],[-79.76189999965577,35.99463299970958],[-79.76846300058442,35.99259499991343],[-79.77743099952518,35.99077200014534],[-79.78813000027175,35.991050000416585],[-79.7929419999321,35.99231900000612],[-79.79256300052646,36.001411000175764],[-79.7930329994284,36.00612700034739],[-79.79275399998447,36.00838499985053],[-79.79165199947899,36.00833499991052],[-79.79168105056071,36.02510519907698],[-79.78544772931613,36.0250699916102],[-79.78498181453483,36.0230613270304],[-79.78061574505102,36.02303748918707],[-79.78054700054288,36.02504199974567],[-79.77289799962537,36.02476300008421],[-79.76797900039288,36.03096100028978],[-79.76651085739975,36.02995632717503],[-79.76648127675898,36.03375147261781],[-79.76586162190952,36.03377431738497],[-79.7655790615079,36.037329359802364]]]}},{"id":"625","type":"Feature","properties":{"GISJOIN":"G3700810C0033B","pct_black":15.99},"geometry":{"type":"Polygon","coordinates":[[[-79.71015200020288,35.972569999716356],[-79.71321700000655,35.906940999959396],[-79.79123699959365,35.910235000181835],[-79.79153000040955,35.954040999914376],[-79.79212600008864,35.957624999951236],[-79.79210000037644,35.97243400042075],[-79.79293200056986,35.97399799995133],[-79.79227399991657,35.97842799980301],[-79.7929419999321,35.99231900000612],[-79.78813000027175,35.991050000416585],[-79.77743099952518,35.99077200014534],[-79.76846300058442,35.99259499991343],[-79.76189999965577,35.99463299970958],[-79.74941708116074,35.99464921612522],[-79.74470300041529,35.99559699972942],[-79.73550599990821,35.985591000149384],[-79.71015200020288,35.972569999716356]]]}},{"id":"626","type":"Feature","properties":{"GISJOIN":"G3700810C0034A","pct_black":12.76},"geometry":{"type":"Polygon","coordinates":[[[-79.7929419999321,35.99231900000612],[-79.8041500003137,35.99420000040705],[-79.80470900011497,35.99647699961111],[-79.81375700024235,35.99689200019749],[-79.81657700045483,35.99584500042041],[-79.82075199975273,35.99250000004315],[-79.82205500006634,35.99360800042495],[-79.82248800044903,35.995140999799325],[-79.83094500027471,35.99385799987584],[-79.84337999968743,35.99383399975697],[-79.85069400060367,35.99186399979259],[-79.85626200028543,35.99166600034078],[-79.86067800009,35.99344399998902],[-79.86546200046288,35.993748000138325],[-79.8646929998433,35.995458000209865],[-79.86468600027207,35.997665999914716],[-79.86937300039253,35.994190000172146],[-79.87708999999019,35.98960800010643],[-79.87538900042135,36.019027000176],[-79.87528799992205,36.03184700002193],[-79.86855299943986,36.02986100033733],[-79.8682879994659,36.030663000280214],[-79.86683999949645,36.029739000115164],[-79.8674670001251,36.02888899990837],[-79.86710300013524,36.02813700026919],[-79.86762100017742,36.027479999716654],[-79.86718399984098,36.02727699993685],[-79.86785199998683,36.026219000383286],[-79.86609500059889,36.02542299965422],[-79.86549800011616,36.01548999979938],[-79.86074600051279,36.015836000202036],[-79.85641499970609,36.0151979999568],[-79.85151700026591,36.01704900000552],[-79.84976199965153,36.01843799986798],[-79.8447990002611,36.02065599962022],[-79.82773899981949,36.02140699964581],[-79.82354799992459,36.01992000030796],[-79.81229997587903,36.02536414192498],[-79.80908949802932,36.024599768053704],[-79.80230700031045,36.024628000150656],[-79.80231699964746,36.02397000013376],[-79.79171300039658,36.0238410002303],[-79.79165199947899,36.00833499991052],[-79.79275399998447,36.00838499985053],[-79.7930329994284,36.00612700034739],[-79.79256300052646,36.001411000175764],[-79.7929419999321,35.99231900000612]]]}},{"id":"627","type":"Feature","properties":{"GISJOIN":"G3700810C0034B","pct_black":5.94},"geometry":{"type":"Polygon","coordinates":[[[-79.7929419999321,35.99231900000612],[-79.79227399991657,35.97842799980301],[-79.79293200056986,35.97399799995133],[-79.79210000037644,35.97243400042075],[-79.79212600008864,35.957624999951236],[-79.79153000040955,35.954040999914376],[-79.79123699959365,35.910235000181835],[-79.87900900027041,35.91387499960586],[-79.8783019995556,35.96818300029885],[-79.87708999999019,35.98960800010643],[-79.86937300039253,35.994190000172146],[-79.86468600027207,35.997665999914716],[-79.8646929998433,35.995458000209865],[-79.86546200046288,35.993748000138325],[-79.86067800009,35.99344399998902],[-79.85626200028543,35.99166600034078],[-79.85069400060367,35.99186399979259],[-79.84337999968743,35.99383399975697],[-79.83094500027471,35.99385799987584],[-79.82248800044903,35.995140999799325],[-79.82205500006634,35.99360800042495],[-79.82075199975273,35.99250000004315],[-79.81657700045483,35.99584500042041],[-79.81375700024235,35.99689200019749],[-79.80470900011497,35.99647699961111],[-79.8041500003137,35.99420000040705],[-79.7929419999321,35.99231900000612]]]}},{"id":"628","type":"Feature","properties":{"GISJOIN":"G3700810C0035A","pct_black":1.38},"geometry":{"type":"Polygon","coordinates":[[[-79.87900900027041,35.91387499960586],[-79.96230200062726,35.917264999711236],[-79.96036200021553,35.918058000472826],[-79.96123299948205,35.919525999853526],[-79.96147399994237,35.922500000009194],[-79.96229300009357,35.92248199999123],[-79.9620489996967,35.923786999733],[-79.95748700018565,35.924389999995135],[-79.95573299975464,35.92704999994679],[-79.95526100057734,35.93054399987301],[-79.95424399995733,35.931301000407736],[-79.95415900003435,35.93393600002914],[-79.95645999990887,35.93413599996533],[-79.95675999959265,35.93163599963374],[-79.96122999999227,35.93273200041046],[-79.96073499983375,35.94009400037112],[-79.95759200022441,35.94218599979864],[-79.95615899975745,35.94463599974003],[-79.95315899995961,35.94713600039311],[-79.95236899996607,35.94964399986014],[-79.95426199972145,35.952092999927686],[-79.95162299994068,35.953746000416224],[-79.93644600003908,35.96012100030072],[-79.92996400056747,35.966312999768334],[-79.92275500055688,35.96959799985313],[-79.91312299992596,35.975771999683204],[-79.90796900009902,35.97781400016974],[-79.90054300019118,35.98177000043552],[-79.88276599995889,35.98666200001039],[-79.87708999999019,35.98960800010643],[-79.8783019995556,35.96818300029885],[-79.87900900027041,35.91387499960586]]]}},{"id":"629","type":"Feature","properties":{"GISJOIN":"G3700810C0035B","pct_black":12.74},"geometry":{"type":"Polygon","coordinates":[[[-79.87708999999019,35.98960800010643],[-79.88276599995889,35.98666200001039],[-79.90054300019118,35.98177000043552],[-79.90796900009902,35.97781400016974],[-79.91312299992596,35.975771999683204],[-79.92275500055688,35.96959799985313],[-79.92996400056747,35.966312999768334],[-79.93644600003908,35.96012100030072],[-79.95090800034791,35.95408199963983],[-79.95426199972145,35.952092999927686],[-79.95529400031371,35.953700999761054],[-79.95135900021633,35.95653599981772],[-79.95605899983643,35.95683599965814],[-79.95645799995047,35.96191599970171],[-79.95694999958428,35.96192900007363],[-79.95725499963154,35.9641449998664],[-79.95354457409522,35.963463973001666],[-79.9542560000841,35.97042900024603],[-79.95403900013218,35.974827999759626],[-79.95302800034773,35.97752899961685],[-79.94775899963466,35.98093600021826],[-79.94555900048243,35.98613599971999],[-79.94295900013705,35.98583599992578],[-79.94415900037882,35.98753599962024],[-79.94408299970273,35.98919700021855],[-79.946342000443,35.98701700004422],[-79.95807799997242,35.99063400024693],[-79.9569620000077,35.993135000041086],[-79.95744700011312,35.99346100023224],[-79.95552900060932,35.99713399972216],[-79.9552100004192,35.999355000061925],[-79.95624900020586,35.99913299972818],[-79.95619400007335,35.997099000274076],[-79.95676299954387,35.99682099979199],[-79.95713199962307,36.02816799952008],[-79.87542800055259,36.02475999998051],[-79.87647799975959,36.00299299959633],[-79.87610400009189,36.00261300040695],[-79.87708999999019,35.98960800010643]]]}},{"id":"630","type":"Feature","properties":{"GISJOIN":"G3700810HP0036A","pct_black":0.34},"geometry":{"type":"Polygon","coordinates":[[[-79.980270999557,35.97909099986926],[-79.98121699976264,35.97770100005515],[-79.9876500004415,35.9746539996132],[-79.9914110002197,35.97176100040951],[-79.99802899959803,35.968567000057206],[-80.00192700039692,35.96829499993639],[-80.00158300054171,35.9774079999833],[-79.99623599990989,35.97919400031586],[-79.98811099989862,35.98015199982957],[-79.984031999448,35.97959299997579],[-79.98018100052931,35.98043599978669],[-79.980270999557,35.97909099986926]]]}},{"id":"631","type":"Feature","properties":{"GISJOIN":"G3700810HP0036B","pct_black":0.23},"geometry":{"type":"Polygon","coordinates":[[[-80.00130200003136,35.98104400004922],[-80.00192700039692,35.96829499993639],[-80.00768099985734,35.968184000015476],[-80.0124909996332,35.965638999554265],[-80.01455800053051,35.96813899967017],[-80.0230180001202,35.982695999919315],[-80.00792300023502,35.9842319998263],[-80.00587800007543,35.98552800034955],[-80.00015400022866,35.99105999991709],[-80.00050199991556,35.98335199991232],[-80.00130200003136,35.98104400004922]]]}},{"id":"632","type":"Feature","properties":{"GISJOIN":"G3700810HP0037","pct_black":0.79},"geometry":{"type":"Polygon","coordinates":[[[-80.01455800053051,35.96813899967017],[-80.0082549999077,35.960736000274096],[-80.01261700013893,35.95809399990478],[-80.01304800025463,35.95855199974588],[-80.01571000022932,35.95799100029549],[-80.02541700003454,35.95817800032579],[-80.0248380001736,35.956227999879566],[-80.03235700018095,35.95520699963152],[-80.03347999939483,35.95921200032392],[-80.03376700043448,35.97469400001471],[-80.03169700042285,35.978980999991755],[-80.03109399982374,35.98187800031921],[-80.0294420001265,35.9826840004476],[-80.0230180001202,35.982695999919315],[-80.01455800053051,35.96813899967017]]]}},{"id":"633","type":"Feature","properties":{"GISJOIN":"G3700810HP0038","pct_black":54.83},"geometry":{"type":"Polygon","coordinates":[[[-79.98091709786107,35.966616356640564],[-79.98311099992033,35.96622899980369],[-80.00572899983767,35.95770099956157],[-80.0124909996332,35.965638999554265],[-80.00722599975533,35.96829800036733],[-79.99802899959803,35.968567000057206],[-79.9914110002197,35.97176100040951],[-79.98586200021005,35.97569299979057],[-79.98121699976264,35.97770100005515],[-79.980270999557,35.97909099986926],[-79.97963500038067,35.97856499998716],[-79.97920700035239,35.974535999937935],[-79.9795070004111,35.9710220004023],[-79.98039100001648,35.96946099980382],[-79.98091709786107,35.966616356640564]]]}},{"id":"634","type":"Feature","properties":{"GISJOIN":"G3700810HP0039","pct_black":56.99},"geometry":{"type":"Polygon","coordinates":[[[-79.97955599974294,35.95313399959975],[-79.99987500003485,35.95421500027133],[-80.00014199977763,35.943410000129965],[-80.00102500041973,35.942593000357114],[-80.00289900037667,35.94462900012928],[-80.00572899983767,35.95770099956157],[-79.98311099992033,35.96622899980369],[-79.9778310003857,35.966753000229744],[-79.97955599974294,35.95313399959975]]]}},{"id":"635","type":"Feature","properties":{"GISJOIN":"G3700810HP0040","pct_black":0.28},"geometry":{"type":"Polygon","coordinates":[[[-80.00572899983767,35.95770099956157],[-80.0136630000789,35.95266699982503],[-80.03384199979081,35.930471000261306],[-80.03463599955302,35.9311630003371],[-80.03525900037997,35.93319800020218],[-80.03333999955878,35.95234600033697],[-80.03235700018095,35.95520699963152],[-80.0248380001736,35.956227999879566],[-80.02541700003454,35.95817800032579],[-80.01571000022932,35.95799100029549],[-80.01304800025463,35.95855199974588],[-80.01261700013893,35.95809399990478],[-80.0082549999077,35.960736000274096],[-80.00572899983767,35.95770099956157]]]}},{"id":"636","type":"Feature","properties":{"GISJOIN":"G3700810HP0041","pct_black":49.11},"geometry":{"type":"Polygon","coordinates":[[[-80.00309599976323,35.945462000156745],[-80.01407600034882,35.944382999705],[-80.01424800019484,35.943444999869484],[-80.02012200044778,35.94353900008876],[-80.02075100002631,35.94286399980166],[-80.02196200024696,35.943636000222085],[-80.0136630000789,35.95266699982503],[-80.00572899983767,35.95770099956157],[-80.00309599976323,35.945462000156745]]]}},{"id":"637","type":"Feature","properties":{"GISJOIN":"G3700810HP0042","pct_black":6.53},"geometry":{"type":"Polygon","coordinates":[[[-79.97884499996755,35.941311999801194],[-79.99165600057144,35.93495499983862],[-80.00102500041973,35.942593000357114],[-80.00014199977763,35.943410000129965],[-79.99987500003485,35.95421500027133],[-79.98048400030385,35.95304100018145],[-79.97830000041023,35.95369399978101],[-79.97880500040246,35.94794100001516],[-79.97995199980639,35.94789799996967],[-79.97884499996755,35.941311999801194]]]}},{"id":"638","type":"Feature","properties":{"GISJOIN":"G3700810HP0043","pct_black":21.79},"geometry":{"type":"Polygon","coordinates":[[[-80.00259800030683,35.94402699977701],[-79.99165600057144,35.93495499983862],[-79.99920699942895,35.93114600020161],[-80.00035800032867,35.935889000367744],[-80.00472300024207,35.934980000163144],[-80.0041649996174,35.93407400007707],[-80.00576499980933,35.93368100038734],[-80.00772700043852,35.933922000476066],[-80.00750399989742,35.93456800041125],[-80.01428600063308,35.931720999675754],[-80.02249100032292,35.930768999735754],[-80.02237900048928,35.9345750001711],[-80.02671199953124,35.934776999921176],[-80.02667199997425,35.93527000022613],[-80.02845000022174,35.936490000201424],[-80.02196200024696,35.943636000222085],[-80.02075100002631,35.94286399980166],[-80.02012200044778,35.94353900008876],[-80.01424800019484,35.943444999869484],[-80.01407600034882,35.944382999705],[-80.00309599976323,35.945462000156745],[-80.00259800030683,35.94402699977701]]]}},{"id":"639","type":"Feature","properties":{"GISJOIN":"G3700810HP0044A","pct_black":10.29},"geometry":{"type":"Polygon","coordinates":[[[-79.95780299975594,35.996304000135545],[-79.95619400007335,35.997099000274076],[-79.95624900020586,35.99913299972818],[-79.9552100004192,35.999355000061925],[-79.95552900060932,35.99713399972216],[-79.95744700011312,35.99346100023224],[-79.9569620000077,35.993135000041086],[-79.95807799997242,35.99063400024693],[-79.946342000443,35.98701700004422],[-79.949689999641,35.981849000300016],[-79.96607700033172,35.9678959996725],[-79.96886999961602,35.96704199991239],[-79.98091709786107,35.966616356640564],[-79.98039100001648,35.96946099980382],[-79.9795070004111,35.9710220004023],[-79.97920700035239,35.974535999937935],[-79.98018100052931,35.98043599978669],[-79.984031999448,35.97959299997579],[-79.98811099989862,35.98015199982957],[-79.99591500037974,35.97925100023578],[-80.00158300054171,35.9774079999833],[-80.00130200003136,35.98104400004922],[-80.00050199991556,35.98335199991232],[-80.00015400022866,35.99105999991709],[-79.99646800006677,35.99485899985177],[-79.99016400059455,36.004418999647996],[-79.98499899970172,36.009874999824426],[-79.98051400015248,36.0053630000041],[-79.97806199953048,36.00420399956018],[-79.97746600043142,36.00206099970303],[-79.97452500017104,36.001914999969166],[-79.97240699997795,36.000031999598214],[-79.96773400029056,35.99917200041087],[-79.96732100017064,35.99810100008603],[-79.96351399994403,35.99824599978988],[-79.96162699999283,35.999189000267464],[-79.96110400038955,36.000667000030916],[-79.96042200042474,36.00066100027127],[-79.95915899986106,35.99943600014211],[-79.95867300037004,35.9974560004637],[-79.96007599971266,35.99703799953531],[-79.9602939997202,35.99641199983399],[-79.95780299975594,35.996304000135545]]]}},{"id":"640","type":"Feature","properties":{"GISJOIN":"G3700810HP0044B","pct_black":0.12},"geometry":{"type":"Polygon","coordinates":[[[-79.98499899970172,36.009874999824426],[-79.99016400059455,36.004418999647996],[-79.99707200038864,35.99410699994453],[-80.00637700049448,35.98509799987467],[-80.00935099956621,35.98388900036787],[-80.01377899983032,35.98393499964035],[-80.02114899954171,35.98275199952851],[-80.0230180001202,35.982695999919315],[-80.02665599962522,35.98869900006348],[-80.03417300047808,35.99779300016118],[-80.03615700041543,36.0015400001303],[-80.0368380001881,36.001868000410454],[-80.03924299997556,36.005708999687506],[-80.03514299975905,36.00582499957786],[-80.03079500023263,36.00755300014818],[-80.02486500012272,36.007863000429886],[-80.02256100002873,36.008693000036786],[-80.02033999969707,36.010596000104556],[-80.01058600029467,36.011824000116164],[-80.00994099996905,36.0126259997078],[-80.00765100011337,36.012228000240306],[-80.00289400020877,36.01393400011341],[-80.00006100040879,36.01383600000343],[-79.99696100007257,36.01603599991556],[-79.99025999990633,36.016736000274896],[-79.98735999988422,36.014336000100364],[-79.98686000027774,36.01203600004652],[-79.98566200049478,36.011238999643396],[-79.98499899970172,36.009874999824426]]]}},{"id":"641","type":"Feature","properties":{"GISJOIN":"G3700810HP0044C","pct_black":0.29},"geometry":{"type":"Polygon","coordinates":[[[-80.0230180001202,35.982695999919315],[-80.0292140002085,35.98270300040373],[-80.03077300010317,35.982192000017506],[-80.03376700043448,35.97469400001471],[-80.03347999939483,35.95921200032392],[-80.03231500022608,35.95531900036587],[-80.03333999955878,35.95234600033697],[-80.03525900037997,35.93319800020218],[-80.03508500037738,35.93187099963411],[-80.03384199979081,35.930471000261306],[-80.04159500044814,35.9204529999307],[-80.04670900033821,35.920662999993844],[-80.04666299995938,35.93523600005429],[-80.04406300028377,35.99063600049118],[-80.04370999957253,36.00124299966875],[-80.0440739995433,36.00130299995164],[-80.043423999792,36.006030999945324],[-80.03924299997556,36.005708999687506],[-80.0368380001881,36.001868000410454],[-80.03615700041543,36.0015400001303],[-80.03417300047808,35.99779300016118],[-80.02665599962522,35.98869900006348],[-80.0230180001202,35.982695999919315]]]}},{"id":"642","type":"Feature","properties":{"GISJOIN":"G3700810HP0045A","pct_black":0.51},"geometry":{"type":"Polygon","coordinates":[[[-79.97513399965267,35.91779599970493],[-79.99944500015646,35.91883099980604],[-80.04159500044814,35.9204529999307],[-80.03384199979081,35.930471000261306],[-80.02845000022174,35.936490000201424],[-80.02667199997425,35.93527000022613],[-80.02671199953124,35.934776999921176],[-80.02237900048928,35.9345750001711],[-80.02249100032292,35.930768999735754],[-80.01428600063308,35.931720999675754],[-80.00750399989742,35.93456800041125],[-80.00772700043852,35.933922000476066],[-80.00576499980933,35.93368100038734],[-80.0041649996174,35.93407400007707],[-80.00472300024207,35.934980000163144],[-80.00035800032867,35.935889000367744],[-79.99920699942895,35.93114600020161],[-79.99165600057144,35.93495499983862],[-79.98930999997488,35.932328999807005],[-79.9877970005811,35.92811299974981],[-79.98083000038729,35.92331499974572],[-79.97513399965267,35.91779599970493]]]}},{"id":"643","type":"Feature","properties":{"GISJOIN":"G3700810HP0045B","pct_black":0.0},"geometry":{"type":"Polygon","coordinates":[[[-79.96230200062726,35.917264999711236],[-79.97513399965267,35.91779599970493],[-79.98083000038729,35.92331499974572],[-79.9877970005811,35.92811299974981],[-79.98930999997488,35.932328999807005],[-79.99165600057144,35.93495499983862],[-79.97646000056726,35.942411999865435],[-79.96873999972483,35.948301000328684],[-79.96580799966544,35.949247000083126],[-79.95877599986349,35.94990799994151],[-79.95426199972145,35.952092999927686],[-79.95236899996607,35.94964399986014],[-79.95315899995961,35.94713600039311],[-79.95615899975745,35.94463599974003],[-79.95759200022441,35.94218599979864],[-79.96073499983375,35.94009400037112],[-79.96122999999227,35.93273200041046],[-79.95675999959265,35.93163599963374],[-79.95645999990887,35.93413599996533],[-79.95415900003435,35.93393600002914],[-79.95429700011455,35.93083999957177],[-79.95526100057734,35.93054399987301],[-79.95573299975464,35.92704999994679],[-79.95748700018565,35.924389999995135],[-79.9620489996967,35.923786999733],[-79.96229300009357,35.92248199999123],[-79.96147399994237,35.922500000009194],[-79.96123299948205,35.919525999853526],[-79.96036200021553,35.918058000472826],[-79.96230200062726,35.917264999711236]]]}},{"id":"644","type":"Feature","properties":{"GISJOIN":"G3700810HP0045C","pct_black":0.12},"geometry":{"type":"Polygon","coordinates":[[[-79.95426199972145,35.952092999927686],[-79.95877599986349,35.94990799994151],[-79.96580799966544,35.949247000083126],[-79.96828899966235,35.94850699972981],[-79.97566699945426,35.94291500034224],[-79.97884499996755,35.941311999801194],[-79.97995199980639,35.94789799996967],[-79.97880500040246,35.94794100001516],[-79.97830000041023,35.95369399978101],[-79.97955599974294,35.95313399959975],[-79.97947799984841,35.95469999965694],[-79.97915700021501,35.95812199966329],[-79.97829899970908,35.9605729995916],[-79.9778310003857,35.966753000229744],[-79.96886999961602,35.96704199991239],[-79.96577299948606,35.96804499987743],[-79.949689999641,35.981849000300016],[-79.946342000443,35.98701700004422],[-79.94408299970273,35.98919700021855],[-79.94415900037882,35.98753599962024],[-79.94295900013705,35.98583599992578],[-79.94555900048243,35.98613599971999],[-79.94775899963466,35.98093600021826],[-79.95302800034773,35.97752899961685],[-79.95403900013218,35.974827999759626],[-79.9542560000841,35.97042900024603],[-79.95354457409522,35.963463973001666],[-79.95725499963154,35.9641449998664],[-79.95694999958428,35.96192900007363],[-79.95645799995047,35.96191599970171],[-79.95605899983643,35.95683599965814],[-79.95135900021633,35.95653599981772],[-79.95529400031371,35.953700999761054],[-79.95426199972145,35.952092999927686]]]}}]}