{"type":"FeatureCollection","features":[{"id":"430","type":"Feature","properties":{"GISJOIN":"G37008100001","pct_black":16.54},"geometry":{"type":"Polygon","coordinates":[[[-79.75848300022473,36.087249000080966],[-79.77042099982953,36.08789699964061],[-79.77075899944714,36.08514100003687],[-79.77646399965106,36.085389000132736],[-79.77432700044739,36.08863700041036],[-79.76462399981915,36.099869000309596],[-79.75601699976322,36.11452599976505],[-79.75573941175337,36.112582759075025],[-79.75708199981148,36.09717900024382],[-79.75848300022473,36.087249000080966]]]}},{"id":"431","type":"Feature","properties":{"GISJOIN":"G37008100002","pct_black":0.14},"geometry":{"type":"Polygon","coordinates":[[[-79.76197299993748,36.10465800013],[-79.76422100036895,36.10523100005954],[-79.76661200037371,36.10396200031863],[-79.76837199982423,36.10468799969292],[-79.76932100020507,36.10325999995097],[-79.77220599958808,36.102452999691806],[-79.77417800004484,36.10048100023181],[-79.7764459995593,36.09945400036439],[-79.7773409997732,36.09816799972973],[-79.78298199948489,36.09771399987378],[-79.78386299968103,36.09554299984984],[-79.78663099968618,36.09645599976273],[-79.78673399984878,36.095719999527205],[-79.78543299997594,36.094895999734234],[-79.78556299946514,36.094471999907725],[-79.78747200034343,36.09368100047936],[-79.78855699944414,36.09400300009618],[-79.787933000129,36.102727999947206],[-79.78634284881942,36.10264204014846],[-79.78149124953421,36.112545449402816],[-79.77336251305115,36.112446163937236],[-79.77317020020838,36.11471237600624],[-79.76057766295237,36.113992456586274],[-79.75601699976322,36.11452599976505],[-79.76197299993748,36.10465800013]]]}},{"id":"432","type":"Feature","properties":{"GISJOIN":"G37008100003","pct_black":0.04},"geometry":{"type":"Polygon","coordinates":[[[-79.76197299993748,36.10465800013],[-79.76462399981915,36.099869000309596],[-79.77432700044739,36.08863700041036],[-79.77646399965106,36.085389000132736],[-79.7843350005838,36.085812999780345],[-79.78358500000516,36.08775500010713],[-79.7890320005408,36.08805299989621],[-79.78855699944414,36.09400300009618],[-79.78741800010256,36.09369200011148],[-79.78541999978815,36.094812999621965],[-79.78673399984878,36.095719999527205],[-79.78667200012862,36.09643500037195],[-79.78386299968103,36.09554299984984],[-79.78298199948489,36.09771399987378],[-79.7773409997732,36.09816799972973],[-79.7764459995593,36.09945400036439],[-79.77417800004484,36.10048100023181],[-79.77220599958808,36.102452999691806],[-79.76932100020507,36.10325999995097],[-79.76837199982423,36.10468799969292],[-79.76661200037371,36.10396200031863],[-79.76422100036895,36.10523100005954],[-79.76197299993748,36.10465800013]]]}},{"id":"433","type":"Feature","properties":{"GISJOIN":"G37008100004","pct_black":4.92},"geometry":{"type":"Polygon","coordinates":[[[-79.787933000129,36.102727999947206],[-79.78855699944414,36.09400300009618],[-79.79219899985304,36.09140699984628],[-79.79525300034229,36.09001800016144],[-79.79788700058812,36.084731999872275],[-79.80002699964348,36.084287000339934],[-79.8020589995639,36.0816360001022],[-79.8111490000105,36.088126000171584],[-79.8148759995315,36.0886140002538],[-79.82153599977828,36.08844099998568],[-79.82248399961526,36.08933200006941],[-79.82507100044718,36.08967300048595],[-79.82659900061178,36.090536999744835],[-79.824220999694,36.096722000224254],[-79.82318149616985,36.10463498496505],[-79.81501990654658,36.10394990679475],[-79.81425420873344,36.106668590948985],[-79.8084566286953,36.106691498344226],[-79.80851452136523,36.10604860577815],[-79.80540107783128,36.10593015921398],[-79.805629403145,36.10351975766595],[-79.80094600021334,36.10267300037485],[-79.79921100050139,36.10324200030746],[-79.787933000129,36.102727999947206]]]}},{"id":"434","type":"Feature","properties":{"GISJOIN":"G37008100005","pct_black":1.12},"geometry":{"type":"Polygon","coordinates":[[[-79.8020589995639,36.0816360001022],[-79.80757599980383,36.079654999568106],[-79.80793499996086,36.07864399971349],[-79.81084599980292,36.07845699980059],[-79.81345800047997,36.07942100034769],[-79.8147380006136,36.07388299974924],[-79.83306200013686,36.07463000034625],[-79.83061299953458,36.0783099998916],[-79.83008199967412,36.08273099992168],[-79.82763097529863,36.08625037356281],[-79.82526152325741,36.08704064109448],[-79.82504357765279,36.08966595625648],[-79.8227140003071,36.089414999922916],[-79.82153599977828,36.08844099998568],[-79.8148759995315,36.0886140002538],[-79.8111490000105,36.088126000171584],[-79.8020589995639,36.0816360001022]]]}},{"id":"435","type":"Feature","properties":{"GISJOIN":"G37008100006","pct_black":3.62},"geometry":{"type":"Polygon","coordinates":[[[-79.81545199960527,36.06302800020145],[-79.82021499949887,36.06204700007278],[-79.84051599959754,36.06027300026818],[-79.84943489196783,36.05816197390744],[-79.84893445586002,36.06916466109528],[-79.84801399954345,36.06914999962499],[-79.84777200017152,36.07266499974157],[-79.844328000025,36.075073999843234],[-79.8387580000652,36.074874999698885],[-79.83846999967689,36.073719999630754],[-79.83751400045452,36.07333800030161],[-79.83428000005286,36.07376600043187],[-79.83306200013686,36.07463000034625],[-79.8147380006136,36.07388299974924],[-79.81545199960527,36.06302800020145]]]}},{"id":"436","type":"Feature","properties":{"GISJOIN":"G37008100007","pct_black":1.65},"geometry":{"type":"Polygon","coordinates":[[[-79.79573400031475,36.066356999858826],[-79.80309800035728,36.06457600021836],[-79.81545199960527,36.06302800020145],[-79.81500999963069,36.073242999799135],[-79.81345800047997,36.07942100034769],[-79.81084599980292,36.07845699980059],[-79.80793499996086,36.07864399971349],[-79.80757599980383,36.079654999568106],[-79.80229100019444,36.08148900003697],[-79.80015000049873,36.07912700030577],[-79.79852500035146,36.068983999911076],[-79.79573400031475,36.066356999858826]]]}},{"id":"437","type":"Feature","properties":{"GISJOIN":"G37008100008","pct_black":1.55},"geometry":{"type":"Polygon","coordinates":[[[-79.78878500021389,36.09402199999128],[-79.7906709995132,36.06766000007463],[-79.79573400031475,36.066356999858826],[-79.79852500035146,36.068983999911076],[-79.80015000049873,36.07912700030577],[-79.80229100019444,36.08148900003697],[-79.80002699964348,36.084287000339934],[-79.79788700058812,36.084731999872275],[-79.79525300034229,36.09001800016144],[-79.79219899985304,36.09140699984628],[-79.78878500021389,36.09402199999128]]]}},{"id":"438","type":"Feature","properties":{"GISJOIN":"G37008100009","pct_black":2.39},"geometry":{"type":"Polygon","coordinates":[[[-79.77646399965106,36.085389000132736],[-79.77893399972454,36.08156800021623],[-79.78533099982067,36.077613000257415],[-79.78420099947508,36.07211100031759],[-79.78454999946007,36.07052000021786],[-79.7906709995132,36.06766000007463],[-79.7890320005408,36.08805299989621],[-79.78358500000516,36.08775500010713],[-79.7843350005838,36.085812999780345],[-79.77646399965106,36.085389000132736]]]}},{"id":"439","type":"Feature","properties":{"GISJOIN":"G37008100010","pct_black":76.13},"geometry":{"type":"Polygon","coordinates":[[[-79.7590240001224,36.07450699957918],[-79.77047399951942,36.071577999694696],[-79.78994700015791,36.06783300037484],[-79.78542000028744,36.06976600028971],[-79.7843060001895,36.07099900028495],[-79.78533099982067,36.077613000257415],[-79.77893399972454,36.08156800021623],[-79.77646399965106,36.085389000132736],[-79.77075899944714,36.08514100003687],[-79.77042099982953,36.08789699964061],[-79.75848300022473,36.087249000080966],[-79.75787700021795,36.08475500039697],[-79.75681900032397,36.08510300009098],[-79.75731800003528,36.08023700013465],[-79.75838400001649,36.0802990001623],[-79.7590240001224,36.07450699957918]]]}},{"id":"440","type":"Feature","properties":{"GISJOIN":"G37008100011","pct_black":94.82},"geometry":{"type":"Polygon","coordinates":[[[-79.774554735185,36.046076221426354],[-79.77504000003445,36.04799100015936],[-79.77616099961992,36.048854000348136],[-79.77194899953825,36.05613499960038],[-79.77047399951942,36.071577999694696],[-79.75901916158183,36.07450819439559],[-79.76098422619705,36.06801483587822],[-79.76160999960248,36.06274999966141],[-79.76219800051572,36.05250900013219],[-79.76184799984591,36.045243999690925],[-79.774554735185,36.046076221426354]]]}},{"id":"441","type":"Feature","properties":{"GISJOIN":"G37008100012","pct_black":87.01},"geometry":{"type":"Polygon","coordinates":[[[-79.77191000023707,36.05639600008805],[-79.78374700014355,36.05699999996203],[-79.78353206398569,36.069320715350635],[-79.77047399951942,36.071577999694696],[-79.77191000023707,36.05639600008805]]]}},{"id":"442","type":"Feature","properties":{"GISJOIN":"G37008100013","pct_black":5.0},"geometry":{"type":"Polygon","coordinates":[[[-79.77191000023707,36.05639600008805],[-79.77616099961992,36.048854000348136],[-79.77504000003445,36.04799100015936],[-79.774554735185,36.046076221426354],[-79.79154700018528,36.04688800040788],[-79.7906709995132,36.06766000007463],[-79.78353206398569,36.069320715350635],[-79.78374700014355,36.05699999996203],[-79.77191000023707,36.05639600008805]]]}},{"id":"443","type":"Feature","properties":{"GISJOIN":"G37008100014","pct_black":57.92},"geometry":{"type":"Polygon","coordinates":[[[-79.7906709995132,36.06766000007463],[-79.7915570001918,36.04591500017038],[-79.81095406196748,36.0478800796653],[-79.80443800030794,36.054526999965184],[-79.80122000023162,36.05908300043507],[-79.79881800033293,36.06561999977298],[-79.7906709995132,36.06766000007463]]]}},{"id":"444","type":"Feature","properties":{"GISJOIN":"G37008100015","pct_black":12.38},"geometry":{"type":"Polygon","coordinates":[[[-79.81095141523883,36.04788741109507],[-79.81543349730255,36.04809280152337],[-79.81584199938493,36.05303400028149],[-79.81545199960527,36.06302800020145],[-79.80309800035728,36.06457600021836],[-79.79881800033293,36.06561999977298],[-79.80122000023162,36.05908300043507],[-79.80443800030794,36.054526999965184],[-79.81095141523883,36.04788741109507]]]}},{"id":"445","type":"Feature","properties":{"GISJOIN":"G37008100016","pct_black":11.48},"geometry":{"type":"Polygon","coordinates":[[[-79.81543349730255,36.04809280152337],[-79.8495799627501,36.050321683311395],[-79.84943945947114,36.058160724175096],[-79.84051599959754,36.06027300026818],[-79.82021499949887,36.06204700007278],[-79.81545199960527,36.06302800020145],[-79.81584199938493,36.05303400028149],[-79.81543349730255,36.04809280152337]]]}},{"id":"446","type":"Feature","properties":{"GISJOIN":"G3700810C0017","pct_black":24.84},"geometry":{"type":"Polygon","coordinates":[[[-79.5376940003261,36.124262000044624],[-79.62008300017608,36.13179199992022],[-79.61871969722299,36.15120963390187],[-79.61710999960803,36.164287000154026],[-79.6158310002328,36.20355700019622],[-79.61568400016729,36.24373700040834],[-79.53236500017076,36.24134199996908],[-79.53599200013635,36.1740680002431],[-79.5376940003261,36.124262000044624]]]}},{"id":"447","type":"Feature","properties":{"GISJOIN":"G3700810C0018","pct_black":35.06},"geometry":{"type":"Polygon","coordinates":[[[-79.61568400016729,36.24373700040834],[-79.6158310002328,36.20355700019622],[-79.61677700045603,36.17328399989162],[-79.61710999960803,36.164287000154026],[-79.61871969722299,36.15120963390187],[-79.61997899954544,36.15186399994279],[-79.61988700006435,36.15434299972319],[-79.62103199948179,36.155185000223376],[-79.62310300021693,36.153514999944754],[-79.6230320000948,36.15179599985595],[-79.62465200050683,36.15176199969616],[-79.6268079999429,36.15045600023737],[-79.62617899994338,36.14952700006262],[-79.62381199996834,36.149978999786946],[-79.62375599991258,36.148918999562724],[-79.62747400019192,36.147483000197525],[-79.62932399954764,36.14780800015073],[-79.63073300045747,36.147364000084906],[-79.63185199967009,36.14596299965935],[-79.63168300053516,36.1447489996846],[-79.63065399979283,36.14423200038446],[-79.62827499966964,36.145736000389476],[-79.62708299982128,36.144773999858366],[-79.62745000035545,36.14350999968651],[-79.6290090004769,36.14207100018101],[-79.63001200049544,36.14241799969773],[-79.63106900002705,36.14169899977649],[-79.63220599986087,36.14323799991293],[-79.63446199942372,36.14366700031405],[-79.63550700037348,36.14145299973218],[-79.6376339999658,36.14139400009879],[-79.63779599990974,36.14311899990356],[-79.6417169998149,36.14473600017155],[-79.64131199956229,36.14293399951793],[-79.64431399976253,36.142127999566135],[-79.64482800027243,36.142566999984346],[-79.6449960001515,36.14478700023606],[-79.64556499996495,36.14480899976797],[-79.64658899973195,36.14356800013044],[-79.64839100036632,36.142821000282204],[-79.6474790002011,36.1389299998724],[-79.65323799990115,36.13721200020972],[-79.6539979999714,36.13502500022755],[-79.65554900047883,36.13435000006076],[-79.6560780004046,36.13306400043265],[-79.67808899966808,36.13350199987951],[-79.68739099968661,36.133004000071466],[-79.7046123476112,36.13447889769945],[-79.70288902297362,36.24612992042163],[-79.61568400016729,36.24373700040834]]]}},{"id":"448","type":"Feature","properties":{"GISJOIN":"G3700810C0019","pct_black":25.13},"geometry":{"type":"Polygon","coordinates":[[[-79.7046123476112,36.13447889769945],[-79.71261900056342,36.134282999907924],[-79.78768044859379,36.13666376174974],[-79.78735700003898,36.209351000416504],[-79.78774499966131,36.21573899996476],[-79.78693758711312,36.248488937504355],[-79.70288902297362,36.24612992042163],[-79.7046123476112,36.13447889769945]]]}},{"id":"449","type":"Feature","properties":{"GISJOIN":"G3700810C0020","pct_black":25.84},"geometry":{"type":"Polygon","coordinates":[[[-79.78768111052024,36.13667077937265],[-79.87071199991001,36.13768900000343],[-79.87067600027794,36.1433329997199],[-79.87131599993731,36.14333500001848],[-79.8710910002644,36.14377099972225],[-79.86943199987391,36.1437759996493],[-79.86978400016012,36.146206999737544],[-79.87102199953331,36.14744499963432],[-79.87041800021824,36.1474450001147],[-79.87017899976216,36.15850599978888],[-79.87029600020827,36.17483699966018],[-79.87104099974698,36.17936699985066],[-79.87041399963046,36.18409000032951],[-79.87093099985307,36.18544200039647],[-79.86941300012283,36.21075700028156],[-79.86764500025136,36.21680099997312],[-79.86856000003104,36.22110199962321],[-79.86784400044824,36.22078200047699],[-79.86932099973679,36.23672899959561],[-79.8685279995552,36.240453999758095],[-79.86880200025907,36.25185500012466],[-79.85731000052407,36.251018999691986],[-79.78693758711312,36.248488937504355],[-79.78774499966131,36.21573899996476],[-79.78735700003898,36.209351000416504],[-79.78768111052024,36.13667077937265]]]}},{"id":"450","type":"Feature","properties":{"GISJOIN":"G3700810C0021","pct_black":12.68},"geometry":{"type":"Polygon","coordinates":[[[-79.87068900000813,36.13795600034665],[-79.87263500001146,36.13756700043511],[-79.90106200028276,36.138467999735575],[-79.9056690002405,36.13919499966482],[-79.91723399994285,36.138771000421734],[-79.95131699968964,36.14000399962878],[-79.95186499998651,36.158572000194404],[-79.95338799963,36.17375700001911],[-79.95343900047436,36.21250200003926],[-79.953997000531,36.22753499978733],[-79.95441499993993,36.22849899980294],[-79.95426900054025,36.25484100006381],[-79.86880200025907,36.25185500012466],[-79.8685279995552,36.240453999758095],[-79.86932099973679,36.23672899959561],[-79.86784400044824,36.22078200047699],[-79.86856000003104,36.22110199962321],[-79.86764500025136,36.21680099997312],[-79.86941300012283,36.21075700028156],[-79.87093099985307,36.18544200039647],[-79.87041399963046,36.18409000032951],[-79.87104099974698,36.17936699985066],[-79.87029600020827,36.17483699966018],[-79.87017899976216,36.15850599978888],[-79.87041800021824,36.1474450001147],[-79.87102199953331,36.14744499963432],[-79.86978400016012,36.146206999737544],[-79.86943199987391,36.1437759996493],[-79.8710910002644,36.14377099972225],[-79.87131599993731,36.14333500001848],[-79.87067600027794,36.1433329997199],[-79.87068900000813,36.13795600034665]]]}},{"id":"451","type":"Feature","properties":{"GISJOIN":"G3700810C0022","pct_black":19.82},"geometry":{"type":"Polygon","coordinates":[[[-79.95131699968964,36.14000399962878],[-80.03870300030937,36.140358000331965],[-80.03919999966638,36.13410399952235],[-80.03836399959245,36.15935999981953],[-80.03744299966063,36.16153499981291],[-80.0370289995549,36.17367100017811],[-80.03780299962166,36.17628600033938],[-80.0352040004506,36.2547180002604],[-80.03554000001559,36.25735100023656],[-80.01288699967184,36.25711900007157],[-79.95426900054025,36.25484100006381],[-79.95441499993993,36.22849899980294],[-79.953997000531,36.22753499978733],[-79.95343900047436,36.21250200003926],[-79.95338799963,36.17375700001911],[-79.95186499998651,36.158572000194404],[-79.95131699968964,36.14000399962878]]]}},{"id":"452","type":"Feature","properties":{"GISJOIN":"G3700810C0023","pct_black":4.93},"geometry":{"type":"Polygon","coordinates":[[[-79.95713199962307,36.02816799952008],[-79.97469599988113,36.02863000029476],[-79.98120499940329,36.03013600015278],[-79.9826920005523,36.029433999789894],[-79.98668000009062,36.02888300006855],[-80.00774499999812,36.03004199959826],[-80.017213000402,36.02976499983825],[-80.04248199963979,36.03069500021926],[-80.04305300021187,36.01725100008494],[-80.03870300030937,36.140358000331965],[-79.9513200860783,36.1399685692818],[-79.95236637809714,36.1300984043806],[-79.9530400003018,36.10919899991092],[-79.95368000005028,36.10806099969758],[-79.95540099945457,36.10695400011955],[-79.95316400005905,36.10576800043965],[-79.95482000004529,36.07229600044357],[-79.95559299972888,36.06575100025964],[-79.95713199962307,36.02816799952008]]]}},{"id":"453","type":"Feature","properties":{"GISJOIN":"G3700810C0024","pct_black":18.54},"geometry":{"type":"Polygon","coordinates":[[[-79.87071199991001,36.13768900000343],[-79.87142700050273,36.13037099972686],[-79.87542800055259,36.02475999998051],[-79.95713199962307,36.02816799952008],[-79.95559299972888,36.06575100025964],[-79.95482000004529,36.07229600044357],[-79.95316400005905,36.10576800043965],[-79.95540099945457,36.10695400011955],[-79.95368000005028,36.10806099969758],[-79.9530400003018,36.10919899991092],[-79.95236637809714,36.1300984043806],[-79.95131699968964,36.14000399962878],[-79.91723399994285,36.138771000421734],[-79.9056690002405,36.13919499966482],[-79.90106200028276,36.138467999735575],[-79.87071199991001,36.13768900000343]]]}},{"id":"454","type":"Feature","properties":{"GISJOIN":"G3700810C0025","pct_black":7.17},"geometry":{"type":"Polygon","coordinates":[[[-79.78768044859379,36.13666376174974],[-79.78747700017921,36.11093000006215],[-79.787933000129,36.102727999947206],[-79.79921100050139,36.10324200030746],[-79.80094600021334,36.10267300037485],[-79.805629403145,36.10351975766595],[-79.80540107783128,36.10593015921398],[-79.80851452136523,36.10604860577815],[-79.8084566286953,36.106691498344226],[-79.81425420873344,36.106668590948985],[-79.81501990654658,36.10394990679475],[-79.82318149616985,36.10463498496505],[-79.824220999694,36.096722000224254],[-79.82659900061178,36.090536999744835],[-79.82504357765279,36.08966595625648],[-79.82526152325741,36.08704064109448],[-79.82763097529863,36.08625037356281],[-79.82900000002456,36.084566999892225],[-79.8301719996559,36.08254599997456],[-79.83074499972496,36.07798600003163],[-79.83331900039208,36.074202000019504],[-79.83751400045452,36.07333800030161],[-79.83846999967689,36.073719999630754],[-79.8387580000652,36.074874999698885],[-79.84489399979829,36.07493299991065],[-79.84777200017152,36.07266499974157],[-79.84801399954345,36.06914999962499],[-79.85574799941315,36.06895000009292],[-79.8591760004432,36.07008800008052],[-79.86531200015662,36.070411000204565],[-79.86858300006358,36.06973899979143],[-79.87061800048842,36.073882000048386],[-79.87240200045696,36.08198599992199],[-79.87329333125096,36.083220442559956],[-79.87142700050273,36.13037099972686],[-79.870718911992,36.137686634778404],[-79.78768044859379,36.13666376174974]]]}},{"id":"455","type":"Feature","properties":{"GISJOIN":"G3700810C0026","pct_black":9.6},"geometry":{"type":"Polygon","coordinates":[[[-79.84893445586002,36.06916466109528],[-79.8495799627501,36.050321683311395],[-79.81095141523883,36.04788741109507],[-79.7915570001918,36.04591500017038],[-79.79179601572707,36.021350090242386],[-79.87542800055259,36.02475999998051],[-79.87329333125096,36.083220442559956],[-79.87240200045696,36.08198599992199],[-79.87061800048842,36.073882000048386],[-79.86858300006358,36.06973899979143],[-79.86531200015662,36.070411000204565],[-79.8591760004432,36.07008800008052],[-79.85574799941315,36.06895000009292],[-79.84893445586002,36.06916466109528]]]}},{"id":"456","type":"Feature","properties":{"GISJOIN":"G3700810C0027","pct_black":14.19},"geometry":{"type":"Polygon","coordinates":[[[-79.70554318892844,36.08614145567146],[-79.72590400050794,36.08536000016125],[-79.74040599969848,36.08370399990542],[-79.74099800011616,36.07207500033475],[-79.74530999984293,36.072393000137296],[-79.75459299957326,36.07593400011754],[-79.7590240001224,36.07450699957918],[-79.75838400001649,36.0802990001623],[-79.75731800003528,36.08023700013465],[-79.75681900032397,36.08510300009098],[-79.75787700021795,36.08475500039697],[-79.75848300022473,36.087249000080966],[-79.75708199981148,36.09717900024382],[-79.75573941175337,36.112582759075025],[-79.75601699976322,36.11452599976505],[-79.76057766295237,36.113992456586274],[-79.77317020020838,36.11471237600624],[-79.77336251305115,36.112446163937236],[-79.78149124953421,36.112545449402816],[-79.78634284881942,36.10264204014846],[-79.787933000129,36.102727999947206],[-79.78747700017921,36.11093000006215],[-79.78768044859379,36.13666376174974],[-79.71261900056342,36.134282999907924],[-79.7046123476112,36.13447889769945],[-79.70559300022973,36.103793999942965],[-79.70554318892844,36.08614145567146]]]}},{"id":"457","type":"Feature","properties":{"GISJOIN":"G3700810C0028","pct_black":23.16},"geometry":{"type":"Polygon","coordinates":[[[-79.7070830000183,36.02025800026767],[-79.79179470901688,36.021361986701905],[-79.79154700018528,36.04688800040788],[-79.76184799984591,36.045243999690925],[-79.76219800051572,36.05250900013219],[-79.76160999960248,36.06274999966141],[-79.76098422619705,36.06801483587822],[-79.75901916158183,36.07450819439559],[-79.75459299957326,36.07593400011754],[-79.74530999984293,36.072393000137296],[-79.74099800011616,36.07207500033475],[-79.74040599969848,36.08370399990542],[-79.72590400050794,36.08536000016125],[-79.70554318892844,36.08614145567146],[-79.7061489650373,36.034613851354365],[-79.70749780178689,36.02312435182273],[-79.7070830000183,36.02025800026767]]]}},{"id":"458","type":"Feature","properties":{"GISJOIN":"G3700810C0029","pct_black":12.56},"geometry":{"type":"Polygon","coordinates":[[[-79.61871969722299,36.15120963390187],[-79.62020610894041,36.13276974012603],[-79.61968599956052,36.12925999996678],[-79.62115600026156,36.12865899979869],[-79.61792299957082,36.12347000030514],[-79.61894099978075,36.07949799984164],[-79.62053599996092,36.06739899997782],[-79.62028799983257,36.061206000334856],[-79.62112399959972,36.04096399990785],[-79.61516799990838,36.03657400019714],[-79.62158699962015,36.02476199968612],[-79.62136796510684,36.01693112484427],[-79.6329939998451,36.01639600022325],[-79.63900099967881,36.017502999951134],[-79.67018300051839,36.018221000168204],[-79.68645199951675,36.019470000049886],[-79.7070830000183,36.02025800026767],[-79.70749780178689,36.02312435182273],[-79.7061489650373,36.034613851354365],[-79.70559300022973,36.103793999942965],[-79.7046123476112,36.13447889769945],[-79.68739099968661,36.133004000071466],[-79.67808899966808,36.13350199987951],[-79.6560780004046,36.13306400043265],[-79.65554900047883,36.13435000006076],[-79.6539979999714,36.13502500022755],[-79.65323799990115,36.13721200020972],[-79.6474790002011,36.1389299998724],[-79.64839100036632,36.142821000282204],[-79.64658899973195,36.14356800013044],[-79.64556499996495,36.14480899976797],[-79.6449960001515,36.14478700023606],[-79.64482800027243,36.142566999984346],[-79.64431399976253,36.142127999566135],[-79.64131199956229,36.14293399951793],[-79.6417169998149,36.14473600017155],[-79.63779599990974,36.14311899990356],[-79.6376339999658,36.14139400009879],[-79.63550700037348,36.14145299973218],[-79.63446199942372,36.14366700031405],[-79.63220599986087,36.14323799991293],[-79.63106900002705,36.14169899977649],[-79.63001200049544,36.14241799969773],[-79.6290090004769,36.14207100018101],[-79.62745000035545,36.14350999968651],[-79.62708299982128,36.144773999858366],[-79.62827499966964,36.145736000389476],[-79.63065399979283,36.14423200038446],[-79.63168300053516,36.1447489996846],[-79.63185199967009,36.14596299965935],[-79.63073300045747,36.147364000084906],[-79.62932399954764,36.14780800015073],[-79.62747400019192,36.147483000197525],[-79.62375599991258,36.148918999562724],[-79.62381199996834,36.149978999786946],[-79.62617899994338,36.14952700006262],[-79.6268079999429,36.15045600023737],[-79.62465200050683,36.15176199969616],[-79.6230320000948,36.15179599985595],[-79.62310300021693,36.153514999944754],[-79.62103199948179,36.155185000223376],[-79.61988700006435,36.15434299972319],[-79.61997899954544,36.15186399994279],[-79.61871969722299,36.15120963390187]]]}},{"id":"459","type":"Feature","properties":{"GISJOIN":"G3700810C0030","pct_black":22.2},"geometry":{"type":"Polygon","coordinates":[[[-79.5396250002752,36.0137999998628],[-79.62136796510684,36.01693112484427],[-79.62158699962015,36.02476199968612],[-79.61516799990838,36.03657400019714],[-79.62112399959972,36.04096399990785],[-79.62028799983257,36.061206000334856],[-79.62053599996092,36.06739899997782],[-79.61894099978075,36.07949799984164],[-79.61792299957082,36.12347000030514],[-79.62115600026156,36.12865899979869],[-79.61968599956052,36.12925999996678],[-79.62008300017608,36.13179199992022],[-79.5376940003261,36.124262000044624],[-79.53904499985471,36.08283499966587],[-79.5396250002752,36.0137999998628]]]}},{"id":"460","type":"Feature","properties":{"GISJOIN":"G3700810C0031","pct_black":7.47},"geometry":{"type":"Polygon","coordinates":[[[-79.62513300032855,35.903185000146635],[-79.62354400009167,35.956785999975104],[-79.62206700048242,35.96135499973957],[-79.62340700055621,35.96411599965156],[-79.62297500031545,35.9867730004067],[-79.62108800035121,36.009629000010094],[-79.62136796510684,36.01693112484427],[-79.5396250002752,36.0137999998628],[-79.54146300041008,35.90760399978367],[-79.54197799981016,35.89962699961045],[-79.62513300032855,35.903185000146635]]]}},{"id":"461","type":"Feature","properties":{"GISJOIN":"G3700810C0032","pct_black":7.7},"geometry":{"type":"Polygon","coordinates":[[[-79.62513300032855,35.903185000146635],[-79.71321700000655,35.906940999959396],[-79.71001499975331,35.97098700002078],[-79.71040599950322,35.979144000063876],[-79.70931500034487,35.97912099965798],[-79.70862799974643,36.00168599987767],[-79.70737700040911,36.02025799989745],[-79.66857300036361,36.01815599962291],[-79.66325500026271,36.01839099966651],[-79.63900099967881,36.017502999951134],[-79.6329939998451,36.01639600022325],[-79.62136796510684,36.01693112484427],[-79.62108800035121,36.009629000010094],[-79.62297500031545,35.9867730004067],[-79.62340700055621,35.96411599965156],[-79.62206700048242,35.96135499973957],[-79.62354400009167,35.956785999975104],[-79.62513300032855,35.903185000146635]]]}},{"id":"462","type":"Feature","properties":{"GISJOIN":"G3700810C0033","pct_black":11.91},"geometry":{"type":"Polygon","coordinates":[[[-79.71321700000655,35.906940999959396],[-79.79123699959365,35.910235000181835],[-79.79153000040955,35.954040999914376],[-79.79212600008864,35.957624999951236],[-79.79210000037644,35.97243400042075],[-79.79293200056986,35.97399799995133],[-79.79227399991657,35.97842799980301],[-79.7930329994284,36.00612700034739],[-79.79275399998447,36.00838499985053],[-79.79165199947899,36.00833499991052],[-79.79179470901688,36.021361986701905],[-79.70737700040911,36.02025799989745],[-79.70862799974643,36.00168599987767],[-79.70931500034487,35.97912099965798],[-79.71040599950322,35.979144000063876],[-79.71001499975331,35.97098700002078],[-79.71321700000655,35.906940999959396]]]}},{"id":"463","type":"Feature","properties":{"GISJOIN":"G3700810C0034","pct_black":12.75},"geometry":{"type":"Polygon","coordinates":[[[-79.79123699959365,35.910235000181835],[-79.87900900027041,35.91387499960586],[-79.8783019995556,35.96818300029885],[-79.87654199942924,36.00140600009838],[-79.87610400009189,36.00261300040695],[-79.87647799975959,36.00299299959633],[-79.87542800055259,36.02475999998051],[-79.79179601572707,36.021350090242386],[-79.79165199947899,36.00833499991052],[-79.79275399998447,36.00838499985053],[-79.7930329994284,36.00612700034739],[-79.79227399991657,35.97842799980301],[-79.79293200056986,35.97399799995133],[-79.79210000037644,35.97243400042075],[-79.79212600008864,35.957624999951236],[-79.79153000040955,35.954040999914376],[-79.79123699959365,35.910235000181835]]]}},{"id":"464","type":"Feature","properties":{"GISJOIN":"G3700810C0035","pct_black":7.07},"geometry":{"type":"Polygon","coordinates":[[[-79.87900900027041,35.91387499960586],[-79.96050848490911,35.91719300371023],[-79.95991799941862,35.924060000340546],[-79.96035059662266,35.932620919575726],[-79.9596440000501,35.94166599956519],[-79.95903074072402,35.976899325580916],[-79.95938100004344,35.989943999946234],[-79.95859700046331,36.008806999685035],[-79.95893900036724,36.01008000002646],[-79.95778200010484,36.02207599987135],[-79.9572949994921,36.02210000023967],[-79.95713199962307,36.02816799952008],[-79.87542800055259,36.02475999998051],[-79.87647799975959,36.00299299959633],[-79.87610400009189,36.00261300040695],[-79.87654199942924,36.00140600009838],[-79.8783019995556,35.96818300029885],[-79.87900900027041,35.91387499960586]]]}},{"id":"465","type":"Feature","properties":{"GISJOIN":"G3700810C0044","pct_black":2.6},"geometry":{"type":"Polygon","coordinates":[[[-79.9591072610672,35.97364952307113],[-79.96482200020417,35.96868100014146],[-79.96712999963482,35.96745899968916],[-79.9778310003857,35.966753000229744],[-79.97785699904162,35.98131951293768],[-80.01998079650926,35.98107719109109],[-80.0312439999143,35.98165400035374],[-80.03169700042285,35.978980999991755],[-80.03376700043448,35.97469400001471],[-80.03347999939483,35.95921200032392],[-80.03231500022608,35.95531900036587],[-80.03333999955878,35.95234600033697],[-80.03518300057424,35.93385999987862],[-80.03104309384301,35.93368553489398],[-80.04159500044814,35.9204529999307],[-80.04670900033821,35.920662999993844],[-80.04666299995938,35.93523600005429],[-80.04248199963979,36.03069500021926],[-80.017213000402,36.02976499983825],[-80.00774499999812,36.03004199959826],[-79.98668000009062,36.02888300006855],[-79.9826920005523,36.029433999789894],[-79.98120499940329,36.03013600015278],[-79.97469599988113,36.02863000029476],[-79.95713199962307,36.02816799952008],[-79.9572949994921,36.02210000023967],[-79.95778200010484,36.02207599987135],[-79.95893900036724,36.01008000002646],[-79.9591072610672,35.97364952307113]]]}},{"id":"466","type":"Feature","properties":{"GISJOIN":"G3700810C0045","pct_black":0.69},"geometry":{"type":"Polygon","coordinates":[[[-79.96050848490911,35.91719300371023],[-79.99944500015646,35.91883099980604],[-80.04159500044814,35.9204529999307],[-80.03104309384301,35.93368553489398],[-80.02243200027998,35.93292199978022],[-80.02249100032292,35.930768999735754],[-80.01428600063308,35.931720999675754],[-80.00968400040952,35.93366700037411],[-79.97822199959016,35.93407899977107],[-79.97825199972269,35.937238000288026],[-79.97997100046284,35.947961000367634],[-79.9791960003884,35.95792099977111],[-79.97829899970908,35.9605729995916],[-79.9778310003857,35.966753000229744],[-79.96712999963482,35.96745899968916],[-79.96482200020417,35.96868100014146],[-79.9591072610672,35.97364952307113],[-79.95968458446684,35.940355886814004],[-79.96032700032777,35.934555000178165],[-79.95991799941862,35.924060000340546],[-79.96050848490911,35.91719300371023]]]}},{"id":"467","type":"Feature","properties":{"GISJOIN":"G3700810HP0036","pct_black":0.27},"geometry":{"type":"Polygon","coordinates":[[[-79.97785700023113,35.981316000215074],[-79.98018100052931,35.98043599978669],[-79.97998699965689,35.979587000220405],[-79.98121699976264,35.97770100005515],[-79.98586200021005,35.97569299979057],[-79.9914110002197,35.97176100040951],[-79.99802899959803,35.968567000057206],[-80.00722599975533,35.96829800036733],[-80.0124909996332,35.965638999554265],[-80.01455800053051,35.96813899967017],[-80.02205199945936,35.9810909999286],[-79.97785700023113,35.981316000215074]]]}},{"id":"468","type":"Feature","properties":{"GISJOIN":"G3700810HP0037","pct_black":1.72},"geometry":{"type":"Polygon","coordinates":[[[-80.01455800053051,35.96813899967017],[-80.0082549999077,35.960736000274096],[-80.01261700013893,35.95809399990478],[-80.01304800025463,35.95855199974588],[-80.01571000022932,35.95799100029549],[-80.02541700003454,35.95817800032579],[-80.0248380001736,35.956227999879566],[-80.03235700018095,35.95520699963152],[-80.03347999939483,35.95921200032392],[-80.03376700043448,35.97469400001471],[-80.03169700042285,35.978980999991755],[-80.0312439999143,35.98165400035374],[-80.02205199945936,35.9810909999286],[-80.01455800053051,35.96813899967017]]]}},{"id":"469","type":"Feature","properties":{"GISJOIN":"G3700810HP0038","pct_black":48.68},"geometry":{"type":"Polygon","coordinates":[[[-79.9778310003857,35.966753000229744],[-79.98311099992033,35.96622899980369],[-80.00572899983767,35.95770099956157],[-80.0124909996332,35.965638999554265],[-80.00722599975533,35.96829800036733],[-79.99802899959803,35.968567000057206],[-79.9914110002197,35.97176100040951],[-79.98586200021005,35.97569299979057],[-79.98121699976264,35.97770100005515],[-79.97998699965689,35.979587000220405],[-79.98018100052931,35.98043599978669],[-79.97785700023113,35.981316000215074],[-79.9778310003857,35.966753000229744]]]}},{"id":"470","type":"Feature","properties":{"GISJOIN":"G3700810HP0039","pct_black":47.17},"geometry":{"type":"Polygon","coordinates":[[[-79.97955599974294,35.95313399959975],[-79.99987500003485,35.95421500027133],[-80.00014199977763,35.943410000129965],[-80.00102500041973,35.942593000357114],[-80.00289900037667,35.94462900012928],[-80.00572899983767,35.95770099956157],[-79.98311099992033,35.96622899980369],[-79.9778310003857,35.966753000229744],[-79.97955599974294,35.95313399959975]]]}},{"id":"471","type":"Feature","properties":{"GISJOIN":"G3700810HP0040","pct_black":0.95},"geometry":{"type":"Polygon","coordinates":[[[-80.00572899983767,35.95770099956157],[-80.0136630000789,35.95266699982503],[-80.03104309384301,35.93368553489398],[-80.03518300057424,35.93385999987862],[-80.03333999955878,35.95234600033697],[-80.03235700018095,35.95520699963152],[-80.0248380001736,35.956227999879566],[-80.02541700003454,35.95817800032579],[-80.01571000022932,35.95799100029549],[-80.01304800025463,35.95855199974588],[-80.01261700013893,35.95809399990478],[-80.0082549999077,35.960736000274096],[-80.00572899983767,35.95770099956157]]]}},{"id":"472","type":"Feature","properties":{"GISJOIN":"G3700810HP0041","pct_black":43.5},"geometry":{"type":"Polygon","coordinates":[[[-80.00309599976323,35.945462000156745],[-80.01407600034882,35.944382999705],[-80.01424800019484,35.943444999869484],[-80.02012200044778,35.94353900008876],[-80.02075100002631,35.94286399980166],[-80.02196200024696,35.943636000222085],[-80.0136630000789,35.95266699982503],[-80.00572899983767,35.95770099956157],[-80.00309599976323,35.945462000156745]]]}},{"id":"473","type":"Feature","properties":{"GISJOIN":"G3700810HP0042","pct_black":2.98},"geometry":{"type":"Polygon","coordinates":[[[-79.9907480001412,35.934024000283436],[-80.00102500041973,35.942593000357114],[-80.00014199977763,35.943410000129965],[-79.99987500003485,35.95421500027133],[-79.97955599974294,35.95313399959975],[-79.97997100046284,35.947961000367634],[-79.97825199972269,35.937238000288026],[-79.97822199959016,35.93407899977107],[-79.9907480001412,35.934024000283436]]]}},{"id":"474","type":"Feature","properties":{"GISJOIN":"G3700810HP0043","pct_black":11.64},"geometry":{"type":"Polygon","coordinates":[[[-80.00259800030683,35.94402699977701],[-79.9907480001412,35.934024000283436],[-80.00968400040952,35.93366700037411],[-80.01428600063308,35.931720999675754],[-80.02249100032292,35.930768999735754],[-80.02243200027998,35.93292199978022],[-80.03104309384301,35.93368553489398],[-80.02196200024696,35.943636000222085],[-80.02075100002631,35.94286399980166],[-80.02012200044778,35.94353900008876],[-80.01424800019484,35.943444999869484],[-80.01407600034882,35.944382999705],[-80.00309599976323,35.945462000156745],[-80.00259800030683,35.94402699977701]]]}}]}