{"type":"FeatureCollection","features":[{"id":"229","type":"Feature","properties":{"GISJOIN":"G25001300001","pct_black":0.62},"geometry":{"type":"Polygon","coordinates":[[[-72.48462799986329,42.15666399985198],[-72.48295200053508,42.148909999667104],[-72.51375600032323,42.143467000509105],[-72.52433900054672,42.140404999896525],[-72.52303000023727,42.143401000004445],[-72.51358700015466,42.153732000088944],[-72.51724734388408,42.16104466618875],[-72.51053699941394,42.16057500025834],[-72.50623200024167,42.162086000502846],[-72.48957800027493,42.161528000193556],[-72.4895889999762,42.159135999583704],[-72.48749799940515,42.15994200004627],[-72.48660099948933,42.15974499982176],[-72.48851199987479,42.15825200000013],[-72.48801499939815,42.157455000121146],[-72.48462799986329,42.15666399985198]]]}},{"id":"230","type":"Feature","properties":{"GISJOIN":"G25001300002","pct_black":0.88},"geometry":{"type":"Polygon","coordinates":[[[-72.52433900054672,42.140404999896525],[-72.56162300053025,42.12878499986068],[-72.56692799995378,42.126365999686065],[-72.56658200043158,42.1328449998655],[-72.57470000038619,42.14329100051318],[-72.5415310004638,42.15749299977047],[-72.54103100038604,42.15749300008889],[-72.54093599956907,42.155719999751305],[-72.53844099986486,42.155147000161904],[-72.5358459999219,42.15727300000701],[-72.52806800032182,42.158893000409684],[-72.52238500042299,42.161384999721314],[-72.51724734388408,42.16104466618875],[-72.51358700015466,42.153732000088944],[-72.52303000023727,42.143401000004445],[-72.52433900054672,42.140404999896525]]]}},{"id":"231","type":"Feature","properties":{"GISJOIN":"G25001300003","pct_black":0.74},"geometry":{"type":"Polygon","coordinates":[[[-72.56689600053853,42.12718899993162],[-72.56799800018184,42.12682400035142],[-72.5687340002545,42.1258309998677],[-72.56961600038005,42.126068999855406],[-72.57269300032556,42.124660999740904],[-72.57525199973331,42.12509400025529],[-72.57779100038648,42.12657600006211],[-72.57840099961798,42.12597300009888],[-72.59330600028709,42.13546000037445],[-72.57470000038619,42.14329100051318],[-72.56658200043158,42.1328449998655],[-72.56689600053853,42.12718899993162]]]}},{"id":"232","type":"Feature","properties":{"GISJOIN":"G25001300004","pct_black":0.0},"geometry":{"type":"Polygon","coordinates":[[[-72.56689600053853,42.12718899993162],[-72.56692799995378,42.126365999686065],[-72.57173699950476,42.123467999785284],[-72.58178600042243,42.11545400021753],[-72.5840930000124,42.119002999954276],[-72.60038300028694,42.129711000241656],[-72.60021900003358,42.13249300031101],[-72.59330600028709,42.13546000037445],[-72.57840099961798,42.12597300009888],[-72.57779100038648,42.12657600006211],[-72.57525199973331,42.12509400025529],[-72.57269300032556,42.124660999740904],[-72.56961600038005,42.126068999855406],[-72.5687340002545,42.1258309998677],[-72.56799800018184,42.12682400035142],[-72.56689600053853,42.12718899993162]]]}},{"id":"233","type":"Feature","properties":{"GISJOIN":"G25001300005","pct_black":0.23},"geometry":{"type":"Polygon","coordinates":[[[-72.58859700051548,42.12199499972189],[-72.5950610003195,42.11889699984718],[-72.59963499978814,42.115265999834236],[-72.60440900017367,42.11922199990132],[-72.60540500065648,42.12138499987329],[-72.60752099969498,42.12296100017122],[-72.60825699989309,42.12882700028305],[-72.60021900003358,42.13249300031101],[-72.60038300028694,42.129711000241656],[-72.58859700051548,42.12199499972189]]]}},{"id":"234","type":"Feature","properties":{"GISJOIN":"G25001300006","pct_black":0.21},"geometry":{"type":"Polygon","coordinates":[[[-72.60125199969615,42.116494000216385],[-72.60536299980505,42.113548999730575],[-72.60587299972906,42.11425799955143],[-72.60905299986264,42.112717999968915],[-72.61091499996225,42.11642699982389],[-72.61316099978097,42.126743999715586],[-72.60825699989309,42.12882700028305],[-72.60752099969498,42.12296100017122],[-72.60540500065648,42.12138499987329],[-72.60446499997438,42.11927999982118],[-72.60125199969615,42.116494000216385]]]}},{"id":"235","type":"Feature","properties":{"GISJOIN":"G25001300007","pct_black":3.92},"geometry":{"type":"Polygon","coordinates":[[[-72.61091499996225,42.11642699982389],[-72.60821199970417,42.11166800022318],[-72.61011000014341,42.1112169999089],[-72.61411299964901,42.108770000339824],[-72.62153399967691,42.11839300000821],[-72.62133399988019,42.123392999580126],[-72.61316099978097,42.126743999715586],[-72.61091499996225,42.11642699982389]]]}},{"id":"236","type":"Feature","properties":{"GISJOIN":"G25001300008","pct_black":11.19},"geometry":{"type":"Polygon","coordinates":[[[-72.60125199969615,42.116494000216385],[-72.59652300011156,42.112650999969965],[-72.5984319998123,42.11127700002067],[-72.59779899948406,42.11074300031599],[-72.60020799966645,42.10885999989421],[-72.60077700042748,42.107569999777844],[-72.60314800045427,42.107776000220674],[-72.60130199941692,42.106179999988605],[-72.60201599994146,42.10450999956712],[-72.60393300010864,42.103394000428665],[-72.61411299964901,42.108770000339824],[-72.61011000014341,42.1112169999089],[-72.60821199970417,42.11166800022318],[-72.60905299986264,42.112717999968915],[-72.60823600033869,42.11348200052305],[-72.60587299972906,42.11425799955143],[-72.60536299980505,42.113548999730575],[-72.60125199969615,42.116494000216385]]]}},{"id":"237","type":"Feature","properties":{"GISJOIN":"G25001300009","pct_black":0.95},"geometry":{"type":"Polygon","coordinates":[[[-72.58178600042243,42.11545400021753],[-72.5914919998165,42.10767700037524],[-72.59631699955017,42.112659999904956],[-72.59963499978814,42.115265999834236],[-72.5950610003195,42.11889699984718],[-72.58859700051548,42.12199499972189],[-72.5840930000124,42.119002999954276],[-72.58178600042243,42.11545400021753]]]}},{"id":"238","type":"Feature","properties":{"GISJOIN":"G25001300010","pct_black":52.43},"geometry":{"type":"Polygon","coordinates":[[[-72.5914919998165,42.10767700037524],[-72.59943200017003,42.10142499973443],[-72.60393300010864,42.103394000428665],[-72.60201599994146,42.10450999956712],[-72.60130199941692,42.106179999988605],[-72.60314800045427,42.107776000220674],[-72.60077700042748,42.107569999777844],[-72.60020799966645,42.10885999989421],[-72.59779899948406,42.11074300031599],[-72.5984319998123,42.11127700002067],[-72.59653099990646,42.11285900008884],[-72.5914919998165,42.10767700037524]]]}},{"id":"239","type":"Feature","properties":{"GISJOIN":"G25001300011A","pct_black":6.9},"geometry":{"type":"Polygon","coordinates":[[[-72.58784400025232,42.10430999967692],[-72.58400300008655,42.10196500012927],[-72.58535400036537,42.10193000032538],[-72.58868600070657,42.098405999716654],[-72.58946099985532,42.098912000177386],[-72.59228299977853,42.096501999598274],[-72.59943200017003,42.10142499973443],[-72.5914919998165,42.10767700037524],[-72.58784400025232,42.10430999967692]]]}},{"id":"240","type":"Feature","properties":{"GISJOIN":"G25001300011B","pct_black":7.26},"geometry":{"type":"Polygon","coordinates":[[[-72.57849400043442,42.09950100006547],[-72.58192799949556,42.096550999731896],[-72.58454800035248,42.09533799986607],[-72.58669799951717,42.097104999880735],[-72.59003300001976,42.09434399981784],[-72.59228299977853,42.096501999598274],[-72.58946099985532,42.098912000177386],[-72.58868600070657,42.098405999716654],[-72.58535400036537,42.10193000032538],[-72.58419799970217,42.101832000201455],[-72.58402700019067,42.102251999933934],[-72.58215799995068,42.10191399954466],[-72.57849400043442,42.09950100006547]]]}},{"id":"241","type":"Feature","properties":{"GISJOIN":"G25001300012","pct_black":1.24},"geometry":{"type":"Polygon","coordinates":[[[-72.57703500044003,42.10807399974359],[-72.58513199946266,42.10261499995846],[-72.58784400025232,42.10430999967692],[-72.5914919998165,42.10767700037524],[-72.58178600042243,42.11545400021753],[-72.57853899972214,42.11263099950954],[-72.57881600045488,42.11046099994413],[-72.57703500044003,42.10807399974359]]]}},{"id":"242","type":"Feature","properties":{"GISJOIN":"G25001300013","pct_black":30.54},"geometry":{"type":"Polygon","coordinates":[[[-72.56278499947827,42.11198099976043],[-72.57423800066927,42.10939299986731],[-72.57703500044003,42.10807399974359],[-72.57881600045488,42.11046099994413],[-72.57853899972214,42.11263099950954],[-72.58178600042243,42.11545400021753],[-72.57173699950476,42.123467999785284],[-72.56692799995378,42.126365999686065],[-72.57016999967009,42.12148600019539],[-72.56607599986104,42.12092300014593],[-72.56468199978822,42.11871500030551],[-72.56278499947827,42.11198099976043]]]}},{"id":"243","type":"Feature","properties":{"GISJOIN":"G25001300014","pct_black":28.05},"geometry":{"type":"Polygon","coordinates":[[[-72.53916999986826,42.13218599992925],[-72.53719999969118,42.126091999704876],[-72.5434740003403,42.122359999938396],[-72.549210999336,42.116665000324204],[-72.55204600057534,42.11537400011274],[-72.56278499947827,42.11198099976043],[-72.56468199978822,42.11871500030551],[-72.56607599986104,42.12092300014593],[-72.57016999967009,42.12148600019539],[-72.56692799995378,42.126365999686065],[-72.56162300053025,42.12878499986068],[-72.54618800033383,42.133635000190544],[-72.54607000031129,42.13235400051229],[-72.5412920002206,42.1327370003505],[-72.53916999986826,42.13218599992925]]]}},{"id":"244","type":"Feature","properties":{"GISJOIN":"G25001300015A","pct_black":0.79},"geometry":{"type":"Polygon","coordinates":[[[-72.51973899957348,42.12180699967624],[-72.52041599973018,42.120189000038415],[-72.52393400005077,42.118189999950815],[-72.52803100041375,42.11832700011579],[-72.53028599976227,42.11746199950209],[-72.5327280000527,42.11564100004369],[-72.53815800004331,42.11472300029255],[-72.53952099999867,42.113643999636466],[-72.54562499973234,42.112751999881226],[-72.5478059999702,42.11295899978849],[-72.55055499951361,42.11598199996489],[-72.5489480006393,42.11690499986808],[-72.54398000057125,42.121983000046704],[-72.53719999969118,42.126091999704876],[-72.53916999986826,42.13218599992925],[-72.53117099966077,42.129620000196134],[-72.52825799971853,42.12976299962094],[-72.52652800021814,42.131197999877266],[-72.52594899960104,42.130893999552065],[-72.52528199972664,42.127627000316195],[-72.52037199986434,42.12815200035228],[-72.51926300030298,42.12386499974143],[-72.52077699971188,42.121768999738805],[-72.51973899957348,42.12180699967624]]]}},{"id":"245","type":"Feature","properties":{"GISJOIN":"G25001300015B","pct_black":2.33},"geometry":{"type":"Polygon","coordinates":[[[-72.51383200045399,42.12957600035819],[-72.51649899993835,42.12658800016154],[-72.51662099958804,42.1249209999906],[-72.51791399979312,42.12231899970981],[-72.52077699971188,42.121768999738805],[-72.51926300030298,42.12386499974143],[-72.52037199986434,42.12815200035228],[-72.52528199972664,42.127627000316195],[-72.52594899960104,42.130893999552065],[-72.52652800021814,42.131197999877266],[-72.52825799971853,42.12976299962094],[-72.53117099966077,42.129620000196134],[-72.54071399960104,42.13267299991124],[-72.54607000031129,42.13235400051229],[-72.54618800033383,42.133635000190544],[-72.52003999950045,42.14174299998527],[-72.51961099949483,42.13873200021596],[-72.5199900005548,42.137914999965574],[-72.51917099937384,42.13680200027848],[-72.51588999982988,42.13743200016029],[-72.51512099938695,42.13056900018829],[-72.51383200045399,42.12957600035819]]]}},{"id":"246","type":"Feature","properties":{"GISJOIN":"G25001300015C","pct_black":1.2},"geometry":{"type":"Polygon","coordinates":[[[-72.48061600053025,42.137921000262956],[-72.49313600015816,42.14054700002755],[-72.49384300027386,42.1416400004748],[-72.49583699994707,42.141306000353765],[-72.49581799959782,42.13560200001952],[-72.49876799963616,42.134501999971384],[-72.49989299957831,42.13346800005057],[-72.50538200013784,42.132111000219275],[-72.50892199971226,42.13192600030974],[-72.51023700050547,42.13049200009681],[-72.51383200045399,42.12957600035819],[-72.51512099938695,42.13056900018829],[-72.51588999982988,42.13743200016029],[-72.51917099937384,42.13680200027848],[-72.5199900005548,42.137914999965574],[-72.51961099949483,42.13873200021596],[-72.52003999950045,42.14174299998527],[-72.51375600032323,42.143467000509105],[-72.48295200053508,42.148909999667104],[-72.48061600053025,42.137921000262956]]]}},{"id":"247","type":"Feature","properties":{"GISJOIN":"G25001300016A","pct_black":0.41},"geometry":{"type":"Polygon","coordinates":[[[-72.50448199981388,42.11747699997023],[-72.49462600043002,42.113797000068146],[-72.49663300040235,42.113263000004046],[-72.49866200030526,42.11345700013624],[-72.49919899968188,42.11199900022935],[-72.50148099982025,42.11214100028551],[-72.50188099982232,42.110588000156596],[-72.5031089997976,42.11005600036937],[-72.50344300022668,42.108897000459976],[-72.50464299935447,42.10798200011739],[-72.50620099979511,42.10349999951176],[-72.5081520004457,42.101970999776434],[-72.51094200037372,42.10098699986281],[-72.51365300065414,42.10129799966688],[-72.51676699953057,42.10058600014855],[-72.51845799950345,42.1008069998165],[-72.5192660002122,42.10275200020678],[-72.52143100024324,42.103528000207255],[-72.5219009998651,42.10472700034575],[-72.52663899958439,42.10355500008122],[-72.52949900036678,42.10369400027655],[-72.53258700065263,42.105629999916545],[-72.53393099933501,42.10769400017185],[-72.54253100028629,42.10789399989933],[-72.54095200004065,42.1121189998813],[-72.53815800004331,42.11472300029255],[-72.5327280000527,42.11564100004369],[-72.53028599976227,42.11746199950209],[-72.5275469998816,42.11842000043273],[-72.5244320004672,42.1180919996671],[-72.52413000043833,42.11604199990554],[-72.51727299958708,42.117647000352406],[-72.50448199981388,42.11747699997023]]]}},{"id":"248","type":"Feature","properties":{"GISJOIN":"G25001300016B","pct_black":0.0},"geometry":{"type":"Polygon","coordinates":[[[-72.49855700000852,42.11532100002538],[-72.50448199981388,42.11747699997023],[-72.51727299958708,42.117647000352406],[-72.52413000043833,42.11604199990554],[-72.5244320004672,42.1180919996671],[-72.52041599973018,42.120189000038415],[-72.51958799978502,42.12204400023171],[-72.51791399979312,42.12231899970981],[-72.51662099958804,42.1249209999906],[-72.51649899993835,42.12658800016154],[-72.51410299994325,42.129471999627995],[-72.51023700050547,42.13049200009681],[-72.50892199971226,42.13192600030974],[-72.50538200013784,42.132111000219275],[-72.49989299957831,42.13346800005057],[-72.49876799963616,42.134501999971384],[-72.49581799959782,42.13560200001952],[-72.49571200021349,42.12926399971893],[-72.49873099956623,42.11889499969963],[-72.49855700000852,42.11532100002538]]]}},{"id":"249","type":"Feature","properties":{"GISJOIN":"G25001300016C","pct_black":0.58},"geometry":{"type":"Polygon","coordinates":[[[-72.48061600053025,42.137921000262956],[-72.47649099957242,42.11654999992494],[-72.4938879996751,42.11390700008078],[-72.49855700000852,42.11532100002538],[-72.49873099956623,42.11889499969963],[-72.49571200021349,42.12926399971893],[-72.49583699994707,42.141306000353765],[-72.49384300027386,42.1416400004748],[-72.49313600015816,42.14054700002755],[-72.48061600053025,42.137921000262956]]]}},{"id":"250","type":"Feature","properties":{"GISJOIN":"G25001300016D","pct_black":0.0},"geometry":{"type":"Polygon","coordinates":[[[-72.47114900045368,42.08962500026978],[-72.47970699950504,42.08827099979328],[-72.49095300016587,42.08732100036963],[-72.49076999983254,42.08911400014019],[-72.4950060000184,42.102677999554565],[-72.49670499993816,42.10485799959322],[-72.49917999958065,42.11038000003428],[-72.49866200030526,42.11345700013624],[-72.49616299997813,42.11331999958248],[-72.47649099957242,42.11654999992494],[-72.47114900045368,42.08962500026978]]]}},{"id":"251","type":"Feature","properties":{"GISJOIN":"G25001300016E","pct_black":0.19},"geometry":{"type":"Polygon","coordinates":[[[-72.49095300016587,42.08732100036963],[-72.51616500030711,42.08388099973117],[-72.51476400025427,42.08520999984605],[-72.5146130005164,42.087215000056574],[-72.51702899987066,42.09118099952748],[-72.51652000063339,42.09213099975774],[-72.51774699977247,42.09202499989298],[-72.51836100004871,42.09312899973793],[-72.51728099945002,42.09602800018351],[-72.51861700014665,42.097396999803955],[-72.51892200046578,42.100012000112386],[-72.51845799950345,42.1008069998165],[-72.51676699953057,42.10058600014855],[-72.51365300065414,42.10129799966688],[-72.51094200037372,42.10098699986281],[-72.5081520004457,42.101970999776434],[-72.50614400017785,42.10357899980009],[-72.50464299935447,42.10798200011739],[-72.50344300022668,42.108897000459976],[-72.5031089997976,42.11005600036937],[-72.50188099982232,42.110588000156596],[-72.50148099982025,42.11214100028551],[-72.49919899968188,42.11199900022935],[-72.49917999958065,42.11038000003428],[-72.49744899931636,42.106305000216],[-72.4950060000184,42.102677999554565],[-72.49076999983254,42.08911400014019],[-72.49095300016587,42.08732100036963]]]}},{"id":"252","type":"Feature","properties":{"GISJOIN":"G25001300017","pct_black":7.39},"geometry":{"type":"Polygon","coordinates":[[[-72.53952099999867,42.113643999636466],[-72.54095200004065,42.1121189998813],[-72.54382300031033,42.105812000429154],[-72.54735199980898,42.10539099976882],[-72.55643099996662,42.09869500034447],[-72.55732300025365,42.09828499960221],[-72.55817000042188,42.09910899974765],[-72.56278499947827,42.11198099976043],[-72.55055499951361,42.11598199996489],[-72.5478059999702,42.11295899978849],[-72.54562499973234,42.112751999881226],[-72.53952099999867,42.113643999636466]]]}},{"id":"253","type":"Feature","properties":{"GISJOIN":"G25001300018","pct_black":53.64},"geometry":{"type":"Polygon","coordinates":[[[-72.55732300025365,42.09828499960221],[-72.56369700000461,42.097315999972935],[-72.56491600026581,42.099733000125624],[-72.57703500044003,42.10807399974359],[-72.57423800066927,42.10939299986731],[-72.56278499947827,42.11198099976043],[-72.55864900041833,42.09997799998434],[-72.55732300025365,42.09828499960221]]]}},{"id":"254","type":"Feature","properties":{"GISJOIN":"G25001300019","pct_black":10.68},"geometry":{"type":"Polygon","coordinates":[[[-72.56369700000461,42.097315999972935],[-72.56541100008529,42.09480299966843],[-72.56766400011364,42.09437199972201],[-72.5689220002975,42.09334400039944],[-72.56843099999814,42.09269899998118],[-72.5719180002873,42.09128300031229],[-72.5721580005696,42.090234000166326],[-72.574019000487,42.08925200033031],[-72.57465699974104,42.08779399991008],[-72.57584600013273,42.08799500020106],[-72.57638100029993,42.08881800045705],[-72.57544100046465,42.089624000471616],[-72.5770679999629,42.090519000104415],[-72.57504100004633,42.09218600034413],[-72.57413400021298,42.09547300028104],[-72.57661700039571,42.098151000389535],[-72.58215799995068,42.10191399954466],[-72.58513199946266,42.10261499995846],[-72.57703500044003,42.10807399974359],[-72.56491600026581,42.099733000125624],[-72.56369700000461,42.097315999972935]]]}},{"id":"255","type":"Feature","properties":{"GISJOIN":"G25001300020","pct_black":3.22},"geometry":{"type":"Polygon","coordinates":[[[-72.57606500009433,42.088331999877205],[-72.57946600067322,42.087118999728546],[-72.57952900032099,42.087698999802676],[-72.58135000027302,42.087526999768826],[-72.57957600000144,42.0829220002363],[-72.57998499978585,42.08202599965941],[-72.5828379997919,42.08152700033081],[-72.58313300029586,42.08299399998895],[-72.58863299981483,42.09289399978163],[-72.59003300001976,42.09434399981784],[-72.58669799951717,42.097104999880735],[-72.58454800035248,42.09533799986607],[-72.58192799949556,42.096550999731896],[-72.57849400043442,42.09950100006547],[-72.57413400021298,42.09547300028104],[-72.57504100004633,42.09218600034413],[-72.5770679999629,42.090519000104415],[-72.57544100046465,42.089624000471616],[-72.57638100029993,42.08881800045705],[-72.57606500009433,42.088331999877205]]]}},{"id":"256","type":"Feature","properties":{"GISJOIN":"G25001300021","pct_black":0.2},"geometry":{"type":"Polygon","coordinates":[[[-72.55560799986331,42.066502000344045],[-72.57388299998244,42.06971999993766],[-72.58923299987688,42.07199399983148],[-72.5834370000183,42.07830199964666],[-72.5828379997919,42.08152700033081],[-72.57998499978585,42.08202599965941],[-72.57957399993393,42.0831309999623],[-72.58135000027302,42.087526999768826],[-72.57952900032099,42.087698999802676],[-72.57946600067322,42.087118999728546],[-72.57606500009433,42.088331999877205],[-72.57465699974104,42.08779399991008],[-72.5740619995859,42.08917199969782],[-72.5577630004487,42.08626699970763],[-72.5550769994197,42.083574999978545],[-72.55372399985815,42.07656800016957],[-72.55086299996114,42.07296199986879],[-72.55142900055529,42.07185000009018],[-72.5549029997786,42.06971099968073],[-72.55560799986331,42.066502000344045]]]}},{"id":"257","type":"Feature","properties":{"GISJOIN":"G25001300022","pct_black":0.05},"geometry":{"type":"Polygon","coordinates":[[[-72.5577630004487,42.08626699970763],[-72.55985299968614,42.08651899984669],[-72.5740619995859,42.08917199969782],[-72.5721580005696,42.090234000166326],[-72.5719180002873,42.09128300031229],[-72.56843099999814,42.09269899998118],[-72.5689220002975,42.09334400039944],[-72.56766400011364,42.09437199972201],[-72.56532300017763,42.09487099991114],[-72.56369700000461,42.097315999972935],[-72.56311999998039,42.09663599983682],[-72.56255300028229,42.09228899975897],[-72.56360099979442,42.08973199969725],[-72.56066499980744,42.08870099950519],[-72.5577630004487,42.08626699970763]]]}},{"id":"258","type":"Feature","properties":{"GISJOIN":"G25001300023","pct_black":0.12},"geometry":{"type":"Polygon","coordinates":[[[-72.55732300025365,42.09828499960221],[-72.54428599934741,42.08881100018272],[-72.5577630004487,42.08626699970763],[-72.56066499980744,42.08870099950519],[-72.56360099979442,42.08973199969725],[-72.56255300028229,42.09228899975897],[-72.56311999998039,42.09663599983682],[-72.56369700000461,42.097315999972935],[-72.55732300025365,42.09828499960221]]]}},{"id":"259","type":"Feature","properties":{"GISJOIN":"G25001300024","pct_black":0.23},"geometry":{"type":"Polygon","coordinates":[[[-72.52152299965442,42.10359700018756],[-72.52256800017418,42.10299699982326],[-72.52330800044197,42.10104700045954],[-72.52489400011717,42.09971900016178],[-72.528295999926,42.0991910001089],[-72.53763600015894,42.09611600004438],[-72.53702499960484,42.09157099967849],[-72.5452210005139,42.092178999716786],[-72.55075199996988,42.0932069995694],[-72.55732300025365,42.09828499960221],[-72.54735199980898,42.10539099976882],[-72.54382300031033,42.105812000429154],[-72.54253100028629,42.10789399989933],[-72.53393099933501,42.10769400017185],[-72.53258700065263,42.105629999916545],[-72.52949900036678,42.10369400027655],[-72.52663899958439,42.10355500008122],[-72.5221359997473,42.10476399987308],[-72.52152299965442,42.10359700018756]]]}},{"id":"260","type":"Feature","properties":{"GISJOIN":"G25001300025","pct_black":0.11},"geometry":{"type":"Polygon","coordinates":[[[-72.51845799950345,42.1008069998165],[-72.51897800045556,42.098360000222364],[-72.51727900018358,42.09597700014508],[-72.51836100004871,42.09312899973793],[-72.51774699977247,42.09202499989298],[-72.51652000063339,42.09213099975774],[-72.51702899987066,42.09118099952748],[-72.5146130005164,42.087215000056574],[-72.51476400025427,42.08520999984605],[-72.51616500030711,42.08388099973117],[-72.53421899944281,42.08173699982996],[-72.55040900023361,42.0931489998248],[-72.5452210005139,42.092178999716786],[-72.53702499960484,42.09157099967849],[-72.53763600015894,42.09611600004438],[-72.528295999926,42.0991910001089],[-72.52489400011717,42.09971900016178],[-72.52330800044197,42.10104700045954],[-72.52256800017418,42.10299699982326],[-72.52155300034805,42.103590000493554],[-72.51943599957801,42.102941999948186],[-72.51845799950345,42.1008069998165]]]}},{"id":"261","type":"Feature","properties":{"GISJOIN":"G25001300026","pct_black":0.03},"geometry":{"type":"Polygon","coordinates":[[[-72.53421899944281,42.08173699982996],[-72.53939600033655,42.08113499998002],[-72.53683100027295,42.063595000450135],[-72.55560799986331,42.066502000344045],[-72.5549029997786,42.06971099968073],[-72.55142900055529,42.07185000009018],[-72.5508710001346,42.073113999903576],[-72.55372399985815,42.07656800016957],[-72.5549709995014,42.08341499970161],[-72.5577630004487,42.08626699970763],[-72.54428599934741,42.08881100018272],[-72.53421899944281,42.08173699982996]]]}},{"id":"262","type":"Feature","properties":{"GISJOIN":"G2500130AG0040","pct_black":0.15},"geometry":{"type":"Polygon","coordinates":[[[-72.5828379997919,42.08152700033081],[-72.5834370000183,42.07830199964666],[-72.58923299987688,42.07199399983148],[-72.6058329999359,42.04899499958036],[-72.6075330004509,42.043295000256684],[-72.60793299982437,42.03079499988379],[-72.64261500034374,42.032358999738015],[-72.69429199969875,42.03668900007391],[-72.7141369996365,42.03689500035628],[-72.71432700025088,42.03768700025989],[-72.71285399980911,42.0395250000876],[-72.7123349997924,42.04430100008663],[-72.7097249999749,42.05122999980803],[-72.70763599992212,42.061591999695075],[-72.70573599970442,42.073292999979294],[-72.70613599978779,42.07349299987924],[-72.70553600052101,42.08059400024572],[-72.69865600068411,42.097544999821366],[-72.694336000377,42.105589000084045],[-72.6837579995559,42.10734599954227],[-72.68295899956145,42.10704199998162],[-72.68163500023728,42.10120100038617],[-72.67638499969033,42.100490000340564],[-72.67519300018677,42.09787500040817],[-72.67271599953023,42.094762000099266],[-72.6680160000548,42.091230000031906],[-72.6665270000649,42.08740900042356],[-72.66383299960708,42.08509499971409],[-72.66203500039468,42.08429399976509],[-72.66063499964322,42.085894000063185],[-72.66089200060296,42.089591999684245],[-72.66043500019408,42.09219399996363],[-72.65833500015184,42.09549399961622],[-72.65693300067522,42.09662999980816],[-72.64595199977602,42.09938699977871],[-72.63823500018303,42.098892999660166],[-72.63313199986712,42.10039000029759],[-72.63112799942797,42.09989000004848],[-72.62962399944352,42.097488999995676],[-72.63081900008399,42.094587000434586],[-72.62981300033744,42.09208599989162],[-72.62680800049353,42.08988400036091],[-72.62028999964592,42.08768499979999],[-72.61349400027234,42.08754699985049],[-72.61006800030091,42.08856100039072],[-72.60081299987645,42.08614499996157],[-72.60033299980289,42.088794000341174],[-72.59853299962003,42.08989400020583],[-72.59963300047987,42.090194000372406],[-72.5986330003062,42.09289400034544],[-72.59553299983513,42.09349400026627],[-72.59050499988243,42.09221999985327],[-72.58863299981483,42.09289399978163],[-72.58313300029586,42.08299399998895],[-72.5828379997919,42.08152700033081]]]}},{"id":"263","type":"Feature","properties":{"GISJOIN":"G2500130CH0027","pct_black":0.18},"geometry":{"type":"Polygon","coordinates":[[[-72.56758800005854,42.187549999865425],[-72.58113100038997,42.18641000041958],[-72.58696600007934,42.188393999782285],[-72.59368500031825,42.189785000172236],[-72.59432300039836,42.19108700038972],[-72.59698600032208,42.19280299968192],[-72.60003600066086,42.19236699966297],[-72.60007100008488,42.193512000384565],[-72.60133099949549,42.19509499987981],[-72.5975330002908,42.197192000431635],[-72.59053299988821,42.202291999920845],[-72.59053300017439,42.20709200008983],[-72.5934329999024,42.21169099983552],[-72.5413599999148,42.217010999966774],[-72.55765599993755,42.20613899958394],[-72.5585639996269,42.206187999780454],[-72.56152600055029,42.19914399998176],[-72.56771153510341,42.19290232132295],[-72.56842269540037,42.19123014355036],[-72.56758800005854,42.187549999865425]]]}},{"id":"264","type":"Feature","properties":{"GISJOIN":"G2500130CH0028","pct_black":0.15},"geometry":{"type":"Polygon","coordinates":[[[-72.56817500019572,42.18227100023263],[-72.57796999969688,42.18087699981984],[-72.58466700000389,42.1770210004334],[-72.59311200043193,42.168119999729186],[-72.59776699990137,42.17140200000633],[-72.60106800031268,42.176873999852425],[-72.60573400004205,42.18156200044342],[-72.6075089997315,42.18242899974102],[-72.61089399987631,42.1828590003984],[-72.60931599929113,42.1856020003172],[-72.6071689997935,42.187462000144606],[-72.6033699994815,42.18959200003334],[-72.60003600066086,42.19236699966297],[-72.59698600032208,42.19280299968192],[-72.59432300039836,42.19108700038972],[-72.59368500031825,42.189785000172236],[-72.58696600007934,42.188393999782285],[-72.58150099961159,42.186472999901035],[-72.57889199951421,42.18627799993182],[-72.56758800005854,42.187549999865425],[-72.56678499978888,42.1838300004124],[-72.56817500019572,42.18227100023263]]]}},{"id":"265","type":"Feature","properties":{"GISJOIN":"G2500130CH0029","pct_black":0.04},"geometry":{"type":"Polygon","coordinates":[[[-72.60003600066086,42.19236699966297],[-72.60931599929113,42.1856020003172],[-72.61340700005722,42.17904799981273],[-72.61463300057447,42.175674000081884],[-72.61359899995801,42.160376999653145],[-72.61052099973735,42.153329999988195],[-72.60769000047385,42.15102099987991],[-72.60781999953532,42.15010000016069],[-72.61044600021656,42.15013299997281],[-72.61436299990365,42.14889100007194],[-72.61903399998273,42.14999299960938],[-72.62123400054843,42.14879299988122],[-72.62253399942331,42.14679300023171],[-72.62602399970504,42.149968000156186],[-72.62773200010972,42.15398700044256],[-72.62763400044594,42.16199199990792],[-72.6285339996044,42.16829200023912],[-72.62683399973493,42.178992000290506],[-72.62243400007087,42.18539199974129],[-72.60969599988888,42.189847999584025],[-72.60575300043702,42.191724999867894],[-72.60133099949549,42.19509499987981],[-72.60007100008488,42.193512000384565],[-72.60003600066086,42.19236699966297]]]}},{"id":"266","type":"Feature","properties":{"GISJOIN":"G2500130CH0030","pct_black":0.2},"geometry":{"type":"Polygon","coordinates":[[[-72.59311200043193,42.168119999729186],[-72.58599700036572,42.161880000128534],[-72.5818139996709,42.160666999987086],[-72.58185299992793,42.159786999589194],[-72.58814000005597,42.16008999987019],[-72.58873299988082,42.15519299975284],[-72.58693300048243,42.15039299990522],[-72.59133300007569,42.149393000382965],[-72.59573299929147,42.14989300025065],[-72.60013299992339,42.14959300004877],[-72.60403300014613,42.15039300001956],[-72.60781999953532,42.15010000016069],[-72.60769000047385,42.15102099987991],[-72.61052099973735,42.153329999988195],[-72.61373700063726,42.16119099987385],[-72.61463300057447,42.175674000081884],[-72.61364999947197,42.17859099997668],[-72.61089399987631,42.1828590003984],[-72.6075089997315,42.18242899974102],[-72.60573400004205,42.18156200044342],[-72.60106800031268,42.176873999852425],[-72.59776699990137,42.17140200000633],[-72.59311200043193,42.168119999729186]]]}},{"id":"267","type":"Feature","properties":{"GISJOIN":"G2500130CH0031","pct_black":0.03},"geometry":{"type":"Polygon","coordinates":[[[-72.59154200049747,42.135996000055805],[-72.62133399988019,42.123392999580126],[-72.61584100011328,42.133791000370906],[-72.61563399946628,42.13859300003919],[-72.61863399980527,42.14379299990557],[-72.62253399942331,42.14679300023171],[-72.62123400054843,42.14879299988122],[-72.61903399998273,42.14999299960938],[-72.61436299990365,42.14889100007194],[-72.61044600021656,42.15013299997281],[-72.60781999953532,42.15010000016069],[-72.60781199933963,42.14891000016289],[-72.6035480000805,42.14818299984077],[-72.60363199959511,42.14481899954996],[-72.59344599976787,42.14442099963727],[-72.59154200049747,42.135996000055805]]]}},{"id":"268","type":"Feature","properties":{"GISJOIN":"G2500130CH0032","pct_black":0.13},"geometry":{"type":"Polygon","coordinates":[[[-72.58205400006447,42.14013199989923],[-72.59154200049747,42.135996000055805],[-72.59344599976787,42.14442099963727],[-72.60363199959511,42.14481899954996],[-72.6035480000805,42.14818299984077],[-72.60781199933963,42.14891000016289],[-72.60781999953532,42.15010000016069],[-72.60403300014613,42.15039300001956],[-72.60013299992339,42.14959300004877],[-72.59573299929147,42.14989300025065],[-72.59133300007569,42.149393000382965],[-72.58693300048243,42.15039299990522],[-72.58873299988082,42.15519299975284],[-72.58814000005597,42.16008999987019],[-72.58185299992793,42.159786999589194],[-72.58173999927185,42.15819200029392],[-72.58089800024928,42.15734299958815],[-72.57958600023603,42.147654000233004],[-72.5805070000718,42.143413999600924],[-72.58205400006447,42.14013199989923]]]}},{"id":"269","type":"Feature","properties":{"GISJOIN":"G2500130CH0033","pct_black":0.04},"geometry":{"type":"Polygon","coordinates":[[[-72.54103100038604,42.15749300008889],[-72.57895999967842,42.14183699981656],[-72.58205400006447,42.14013199989923],[-72.5805070000718,42.143413999600924],[-72.57958600023603,42.147654000233004],[-72.58089800024928,42.15734299958815],[-72.58173999927185,42.15819200029392],[-72.58185299992793,42.159786999589194],[-72.57574600050627,42.1586899998303],[-72.57023200055549,42.16109299980883],[-72.56233199990774,42.16119300002232],[-72.55933200019703,42.16059300042933],[-72.55563200005096,42.157093000287965],[-72.55248299945504,42.156668000034735],[-72.54396299975477,42.159385999901964],[-72.5419309996367,42.15919300022611],[-72.54103100038604,42.15749300008889]]]}},{"id":"270","type":"Feature","properties":{"GISJOIN":"G2500130CH0034","pct_black":0.05},"geometry":{"type":"Polygon","coordinates":[[[-72.51613100035847,42.16099300050929],[-72.52238500042299,42.161384999721314],[-72.52806800032182,42.158893000409684],[-72.5358459999219,42.15727300000701],[-72.53844099986486,42.155147000161904],[-72.54093599956907,42.155719999751305],[-72.54103100038604,42.15749300008889],[-72.5419309996367,42.15919300022611],[-72.54477300046727,42.15921600011713],[-72.55248299945504,42.156668000034735],[-72.55563200005096,42.157093000287965],[-72.55933200019703,42.16059300042933],[-72.56233199990774,42.16119300002232],[-72.57023200055549,42.16109299980883],[-72.57574600050627,42.1586899998303],[-72.58185299992793,42.159786999589194],[-72.5818139996709,42.160666999987086],[-72.58560399960444,42.16167300007965],[-72.58823900022068,42.163408000371966],[-72.59311200043193,42.168119999729186],[-72.58466700000389,42.1770210004334],[-72.57796999969688,42.18087699981984],[-72.56799100034668,42.182337000399954],[-72.56346400025579,42.18064800010208],[-72.56386000048875,42.18007100030102],[-72.54853200022274,42.17339300009841],[-72.54503200042724,42.175893000510314],[-72.53623099989692,42.18509200011669],[-72.5344309996429,42.186192000295385],[-72.53173099972885,42.1897920000634],[-72.52613100049702,42.19039199976679],[-72.52283099974468,42.188191999752576],[-72.51755399951665,42.19208400033991],[-72.51402599934686,42.17485000030092],[-72.51403299953928,42.17445899978499],[-72.51878999997447,42.17393700018053],[-72.51613100035847,42.16099300050929]]]}},{"id":"271","type":"Feature","properties":{"GISJOIN":"G2500130CH0035","pct_black":8.07},"geometry":{"type":"Polygon","coordinates":[[[-72.51755399951665,42.19208400033991],[-72.52283099974468,42.188191999752576],[-72.52613100049702,42.19039199976679],[-72.53173099972885,42.1897920000634],[-72.5344309996429,42.186192000295385],[-72.53623099989692,42.18509200011669],[-72.54503200042724,42.175893000510314],[-72.54853200022274,42.17339300009841],[-72.56386000048875,42.18007100030102],[-72.56346400025579,42.18064800010208],[-72.56817500019572,42.18227100023263],[-72.56678499978888,42.1838300004124],[-72.56842269540037,42.19123014355036],[-72.56678847130189,42.1941744477421],[-72.56152600055029,42.19914399998176],[-72.5585639996269,42.206187999780454],[-72.55765599993755,42.20613899958394],[-72.5413599999148,42.217010999966774],[-72.52423099955297,42.21889199983805],[-72.51755399951665,42.19208400033991]]]}},{"id":"272","type":"Feature","properties":{"GISJOIN":"G2500130EL0038","pct_black":0.36},"geometry":{"type":"Polygon","coordinates":[[[-72.47114900045368,42.08962500026978],[-72.46788000023487,42.07629400034574],[-72.46613399960927,42.06425599949089],[-72.4632570002617,42.05505799985863],[-72.45818500007609,42.03406299998367],[-72.51733000020565,42.03439500020682],[-72.53157500030659,42.034006000111724],[-72.53939600033655,42.08113499998002],[-72.47114900045368,42.08962500026978]]]}},{"id":"273","type":"Feature","properties":{"GISJOIN":"G2500130HO0044","pct_black":0.24},"geometry":{"type":"Polygon","coordinates":[[[-72.6467050002464,42.226555000339346],[-72.6478479997599,42.226663000121825],[-72.65312499939063,42.22342699997152],[-72.65552899965974,42.22120200010422],[-72.65790699992542,42.220354999716236],[-72.65853599939265,42.21824500001814],[-72.66485299962383,42.21156499996129],[-72.66112300033802,42.211465000012396],[-72.66104199982433,42.21016800042821],[-72.65694800008008,42.20920599972032],[-72.65587199982451,42.207838999710404],[-72.65545800006852,42.20311700027429],[-72.65294900017349,42.202688000407676],[-72.65209100062239,42.2016629999032],[-72.65070800015785,42.20211199969189],[-72.64922099986657,42.20356700008708],[-72.646802999969,42.203996999616294],[-72.64288300022287,42.20134300011957],[-72.63975199973204,42.200971999860435],[-72.63533700036828,42.19900700037858],[-72.63300000016585,42.198957000120735],[-72.62724700033559,42.199555000518615],[-72.62065799956929,42.202305000143326],[-72.61944199955762,42.19997900003046],[-72.6170880006571,42.1986619996835],[-72.61838000024943,42.1973429998585],[-72.61739099994567,42.195527999652455],[-72.61450800024345,42.19392299978602],[-72.61395299988378,42.1930650002449],[-72.61480699982113,42.192324999812215],[-72.61157100066603,42.190669999830384],[-72.61067799971809,42.190949000236294],[-72.60985899937006,42.189790000157124],[-72.62243400007087,42.18539199974129],[-72.62683399973493,42.178992000290506],[-72.6285339996044,42.16829200023912],[-72.62763400044594,42.16199199990792],[-72.6848360001242,42.16299200004071],[-72.68689999954992,42.18318399977203],[-72.68623500013464,42.18907300032249],[-72.69045499958388,42.213083000061935],[-72.67003500040377,42.216391000449555],[-72.66773499961616,42.22539099976218],[-72.65633599975716,42.22769200030641],[-72.65172000021737,42.23742200026478],[-72.64938299926445,42.23249500032205],[-72.64712700034929,42.22987499989452],[-72.6467050002464,42.226555000339346]]]}},{"id":"274","type":"Feature","properties":{"GISJOIN":"G2500130HO0045","pct_black":0.1},"geometry":{"type":"Polygon","coordinates":[[[-72.6467050002464,42.226555000339346],[-72.64620199935601,42.22520100020244],[-72.6421070003213,42.22271700000883],[-72.6379940002997,42.21871899968207],[-72.6373209996599,42.21733300012223],[-72.63713799947342,42.21472800013811],[-72.63323900008076,42.21081000023029],[-72.62118899946012,42.21099099994459],[-72.61417699949459,42.207289999931625],[-72.61991300000618,42.201423999930235],[-72.62065799956929,42.202305000143326],[-72.62683900006178,42.199677999852284],[-72.62928699964205,42.19920699952188],[-72.63472199981803,42.198939000142694],[-72.63676199976516,42.199387000261126],[-72.63975199973204,42.200971999860435],[-72.64324400050816,42.201498000003355],[-72.646802999969,42.203996999616294],[-72.64922099986657,42.20356700008708],[-72.65190100057858,42.201647999656956],[-72.65294900017349,42.202688000407676],[-72.65534099975754,42.2029720001189],[-72.65587199982451,42.207838999710404],[-72.65680200042985,42.20908399982411],[-72.66104199982433,42.21016800042821],[-72.66112300033802,42.211465000012396],[-72.66485299962383,42.21156499996129],[-72.65853599939265,42.21824500001814],[-72.65790699992542,42.220354999716236],[-72.65552899965974,42.22120200010422],[-72.65312499939063,42.22342699997152],[-72.6478479997599,42.226663000121825],[-72.6467050002464,42.226555000339346]]]}},{"id":"275","type":"Feature","properties":{"GISJOIN":"G2500130HO0046","pct_black":1.57},"geometry":{"type":"Polygon","coordinates":[[[-72.60582499961436,42.20275999988601],[-72.61450800024345,42.19392299978602],[-72.61739099994567,42.195527999652455],[-72.61838000024943,42.1973429998585],[-72.6170880006571,42.1986619996835],[-72.61944199955762,42.19997900003046],[-72.61991300000618,42.201423999930235],[-72.61417699949459,42.207289999931625],[-72.60582499961436,42.20275999988601]]]}},{"id":"276","type":"Feature","properties":{"GISJOIN":"G2500130HO0047","pct_black":3.56},"geometry":{"type":"Polygon","coordinates":[[[-72.5975330002908,42.197192000431635],[-72.60133099949549,42.19509499987981],[-72.60575300043702,42.191724999867894],[-72.60985899937006,42.189790000157124],[-72.61067799971809,42.190949000236294],[-72.61157100066603,42.190669999830384],[-72.61480699982113,42.192324999812215],[-72.61395299988378,42.1930650002449],[-72.61450800024345,42.19392299978602],[-72.60582499961436,42.20275999988601],[-72.60177199941106,42.20046500003165],[-72.5975330002908,42.197192000431635]]]}},{"id":"277","type":"Feature","properties":{"GISJOIN":"G2500130HO0048","pct_black":2.23},"geometry":{"type":"Polygon","coordinates":[[[-72.5975330002908,42.197192000431635],[-72.60177199941106,42.20046500003165],[-72.60582499961436,42.20275999988601],[-72.60015599980582,42.20839000029379],[-72.59698600014326,42.20868899967524],[-72.59615100029015,42.211838000428024],[-72.5934329999024,42.21169099983552],[-72.59053300017439,42.20709200008983],[-72.59053299988821,42.202291999920845],[-72.5975330002908,42.197192000431635]]]}},{"id":"278","type":"Feature","properties":{"GISJOIN":"G2500130HO0049","pct_black":0.68},"geometry":{"type":"Polygon","coordinates":[[[-72.59615100029015,42.211838000428024],[-72.59698600014326,42.20868899967524],[-72.60015599980582,42.20839000029379],[-72.60582499961436,42.20275999988601],[-72.61417699949459,42.207289999931625],[-72.609830999999,42.21172499961718],[-72.61088599942163,42.21211400017118],[-72.61029000044236,42.21355899977881],[-72.6078879996693,42.21626799973263],[-72.6022330006134,42.21329099984682],[-72.59615100029015,42.211838000428024]]]}},{"id":"279","type":"Feature","properties":{"GISJOIN":"G2500130HO0050","pct_black":0.02},"geometry":{"type":"Polygon","coordinates":[[[-72.61091600056379,42.21062199986096],[-72.61417699949459,42.207289999931625],[-72.62118899946012,42.21099099994459],[-72.62983399974134,42.210737000108864],[-72.62933500034408,42.215474999944156],[-72.61803000031186,42.21612799993016],[-72.61704700047055,42.21543499990674],[-72.61704099955047,42.21342299989753],[-72.61631100048307,42.21228799995583],[-72.61292900045133,42.211701000421144],[-72.61091600056379,42.21062199986096]]]}},{"id":"280","type":"Feature","properties":{"GISJOIN":"G2500130HO0051","pct_black":0.31},"geometry":{"type":"Polygon","coordinates":[[[-72.6078879996693,42.21626799973263],[-72.6101510000188,42.213849000334164],[-72.61088599942163,42.21211400017118],[-72.609830999999,42.21172499961718],[-72.61091600056379,42.21062199986096],[-72.61292900045133,42.211701000421144],[-72.61631100048307,42.21228799995583],[-72.61704099955047,42.21342299989753],[-72.61710400003864,42.215553000445325],[-72.61848200001403,42.21616199985725],[-72.62933500034408,42.215474999944156],[-72.62983399974134,42.210737000108864],[-72.63323900008076,42.21081000023029],[-72.63713799947342,42.21472800013811],[-72.6373209996599,42.21733300012223],[-72.6379940002997,42.21871899968207],[-72.6421070003213,42.22271700000883],[-72.64638200036651,42.22539100051093],[-72.64712700034929,42.22987499989452],[-72.64938299926445,42.23249500032205],[-72.65172000021737,42.23742200026478],[-72.63433399986926,42.27399000028767],[-72.61303400045848,42.28619000017529],[-72.6056330003499,42.28479000044122],[-72.60133299981023,42.28129000032305],[-72.59893300004403,42.26808999980458],[-72.60013300005201,42.265389999727546],[-72.60791800006328,42.26017000006547],[-72.61803000029946,42.24807500019322],[-72.62393400034952,42.23369099997176],[-72.6209340003684,42.229291000027324],[-72.61293400047204,42.224991000127424],[-72.61023399985908,42.218490999919425],[-72.6078879996693,42.21626799973263]]]}},{"id":"281","type":"Feature","properties":{"GISJOIN":"G2500130LO0039","pct_black":0.41},"geometry":{"type":"Polygon","coordinates":[[[-72.53157500030659,42.034006000111724],[-72.57323100045724,42.03014099978659],[-72.5823320001232,42.024695000416564],[-72.60693299982869,42.02499499977624],[-72.60793299982437,42.03079499988379],[-72.6075330004509,42.043295000256684],[-72.6058329999359,42.04899499958036],[-72.58923299987688,42.07199399983148],[-72.58798900003842,42.07189699958641],[-72.53683100027295,42.063595000450135],[-72.53511700007886,42.05683200030028],[-72.53157500030659,42.034006000111724]]]}},{"id":"282","type":"Feature","properties":{"GISJOIN":"G2500130LU0036","pct_black":0.27},"geometry":{"type":"Polygon","coordinates":[[[-72.3952879998895,42.18476499980818],[-72.39759200002094,42.18270100019868],[-72.40951200003286,42.1782850000158],[-72.40936799955816,42.177661999868114],[-72.4111289995501,42.176696000083645],[-72.41202600042504,42.175458000503184],[-72.40994800008343,42.17399100011731],[-72.4108150003987,42.16906499971028],[-72.41191600048647,42.16756799989096],[-72.41013300041318,42.162100000004266],[-72.41038199964684,42.16048200004631],[-72.40888699978036,42.157180999909784],[-72.409228000086,42.15399300046692],[-72.41267699984364,42.152989000352804],[-72.42108399950087,42.157154999770135],[-72.42828200002663,42.15638099967943],[-72.43035800034659,42.15549000048251],[-72.43602900006843,42.156493000197855],[-72.44142900011096,42.15529299959673],[-72.44442899945187,42.153992999783],[-72.44962900006307,42.153393000036345],[-72.45302899955817,42.15509299948045],[-72.45432900012568,42.15509300046419],[-72.45922899969621,42.154492999911284],[-72.46376899993317,42.1532129995284],[-72.47012899995026,42.15269299987459],[-72.4732299999853,42.15379300011946],[-72.47832999961904,42.15379299976281],[-72.48462799986329,42.15666399985198],[-72.48801499939815,42.157455000121146],[-72.48851199987479,42.15825200000013],[-72.48660099948933,42.15974499982176],[-72.48749799940515,42.15994200004627],[-72.4895889999762,42.159135999583704],[-72.48957800027493,42.161528000193556],[-72.50623200024167,42.162086000502846],[-72.51053699941394,42.16057500025834],[-72.51613100035847,42.16099300050929],[-72.51878999997447,42.17393700018053],[-72.51403299953928,42.17445899978499],[-72.51402599934686,42.17485000030092],[-72.5171310004661,42.190591999791486],[-72.52423099955297,42.21889199983805],[-72.40410400004053,42.2318360004023],[-72.3952879998895,42.18476499980818]]]}},{"id":"283","type":"Feature","properties":{"GISJOIN":"G2500130WI0037","pct_black":0.15},"geometry":{"type":"Polygon","coordinates":[[[-72.37946300042758,42.10302200022607],[-72.41551900038299,42.098938999634164],[-72.41757599960015,42.09198200009405],[-72.41877599968332,42.090301999966876],[-72.45200500022182,42.086614000391066],[-72.47010099972088,42.08525400010779],[-72.48462799986329,42.15666399985198],[-72.47832999961904,42.15379299976281],[-72.4732299999853,42.15379300011946],[-72.47012899995026,42.15269299987459],[-72.46376899993317,42.1532129995284],[-72.45922899969621,42.154492999911284],[-72.45432900012568,42.15509300046419],[-72.45302899955817,42.15509299948045],[-72.44962900006307,42.153393000036345],[-72.44442899945187,42.153992999783],[-72.44142900011096,42.15529299959673],[-72.43602900006843,42.156493000197855],[-72.43035800034659,42.15549000048251],[-72.42828200002663,42.15638099967943],[-72.42108399950087,42.157154999770135],[-72.41267699984364,42.152989000352804],[-72.409228000086,42.15399300046692],[-72.40888699978036,42.157180999909784],[-72.41038199964684,42.16048200004631],[-72.41013300041318,42.162100000004266],[-72.41191600048647,42.16756799989096],[-72.4108150003987,42.16906499971028],[-72.40994800008343,42.17399100011731],[-72.41202600042504,42.175458000503184],[-72.4111289995501,42.176696000083645],[-72.40936799955816,42.177661999868114],[-72.40951200003286,42.1782850000158],[-72.39759200002094,42.18270100019868],[-72.3952879998895,42.18476499980818],[-72.39174700051493,42.164023999727455],[-72.38933900041138,42.154394000331486],[-72.37946300042758,42.10302200022607]]]}},{"id":"284","type":"Feature","properties":{"GISJOIN":"G2500130WS0041","pct_black":0.94},"geometry":{"type":"Polygon","coordinates":[[[-72.61411299964901,42.108770000339824],[-72.5952019999058,42.09889399969007],[-72.58863299981483,42.09289399978163],[-72.59050499988243,42.09221999985327],[-72.59553299983513,42.09349400026627],[-72.5986330003062,42.09289400034544],[-72.59963300047987,42.090194000372406],[-72.59853299962003,42.08989400020583],[-72.60033299980289,42.088794000341174],[-72.60081299987645,42.08614499996157],[-72.61006800030091,42.08856100039072],[-72.61349400027234,42.08754699985049],[-72.62028999964592,42.08768499979999],[-72.62680800049353,42.08988400036091],[-72.62981300033744,42.09208599989162],[-72.63081900008399,42.094587000434586],[-72.62962399944352,42.097488999995676],[-72.63112799942797,42.09989000004848],[-72.63313199986712,42.10039000029759],[-72.63619599991941,42.09943999953628],[-72.6366339998688,42.1011929996197],[-72.63760400010857,42.10082299983014],[-72.63797400043804,42.101986999860316],[-72.63603200065715,42.10350699990839],[-72.63233099949566,42.104149000046064],[-72.62788700039646,42.10156699980925],[-72.62682099965842,42.10149800021768],[-72.6160660001638,42.107171999759515],[-72.61411299964901,42.108770000339824]]]}},{"id":"285","type":"Feature","properties":{"GISJOIN":"G2500130WS0042","pct_black":0.13},"geometry":{"type":"Polygon","coordinates":[[[-72.62602399970504,42.149968000156186],[-72.61863399980527,42.14379299990557],[-72.61563399946628,42.13859300003919],[-72.61584100011328,42.133791000370906],[-72.62133399988019,42.123392999580126],[-72.62153399967691,42.11839300000821],[-72.61411299964901,42.108770000339824],[-72.61741500012515,42.10641599999939],[-72.62741100016287,42.10143900024253],[-72.63233099949566,42.104149000046064],[-72.63437000000442,42.11211300036767],[-72.63603899964649,42.11534200029608],[-72.63780299969896,42.12151499958338],[-72.63816099998475,42.12438200010439],[-72.6370600002385,42.128225000075176],[-72.63862400005745,42.13328400018574],[-72.64066000005279,42.13634800034997],[-72.644308999782,42.1390210003702],[-72.6467979998448,42.146514999872174],[-72.64827000026753,42.147964000017026],[-72.65332000003043,42.14867399991253],[-72.6539159995311,42.15265799980363],[-72.65298299966129,42.15477800032863],[-72.6585400002598,42.154983000422796],[-72.65914099985113,42.156211000423944],[-72.66185200014364,42.15770900042308],[-72.66336199944398,42.15789500018528],[-72.66632000045429,42.15999199982156],[-72.6672830003069,42.16260700046652],[-72.62763400044594,42.16199199990792],[-72.62773200010972,42.15398700044256],[-72.62602399970504,42.149968000156186]]]}},{"id":"286","type":"Feature","properties":{"GISJOIN":"G2500130WS0043","pct_black":0.05},"geometry":{"type":"Polygon","coordinates":[[[-72.63233099949566,42.104149000046064],[-72.63603200065715,42.10350699990839],[-72.63797400043804,42.101986999860316],[-72.63760400010857,42.10082299983014],[-72.6366339998688,42.1011929996197],[-72.63619599991941,42.09943999953628],[-72.63725900026265,42.09906199971785],[-72.64595199977602,42.09938699977871],[-72.65693300067522,42.09662999980816],[-72.65833500015184,42.09549399961622],[-72.66043500019408,42.09219399996363],[-72.66089200060296,42.089591999684245],[-72.66063499964322,42.085894000063185],[-72.66203500039468,42.08429399976509],[-72.66383299960708,42.08509499971409],[-72.6665270000649,42.08740900042356],[-72.6680160000548,42.091230000031906],[-72.67271599953023,42.094762000099266],[-72.67519300018677,42.09787500040817],[-72.67638499969033,42.100490000340564],[-72.68163500023728,42.10120100038617],[-72.68295899956145,42.10704199998162],[-72.6837579995559,42.10734599954227],[-72.694336000377,42.105589000084045],[-72.69121899961577,42.12000500025976],[-72.69011999978892,42.12884700027762],[-72.68650400061186,42.13549799972172],[-72.68716100019228,42.13947800013918],[-72.68678799999338,42.14371099999498],[-72.68907900020415,42.146199999918245],[-72.68807200012783,42.1490900003849],[-72.6865680001756,42.1507820003941],[-72.6848360001242,42.16299200004071],[-72.6672830003069,42.16260700046652],[-72.66632000045429,42.15999199982156],[-72.66336199944398,42.15789500018528],[-72.66185200014364,42.15770900042308],[-72.65914099985113,42.156211000423944],[-72.6585400002598,42.154983000422796],[-72.65298299966129,42.15477800032863],[-72.6539159995311,42.15265799980363],[-72.6534279996957,42.14881899957282],[-72.65254600005679,42.1482880003949],[-72.6484609998435,42.148017999552906],[-72.64754599989179,42.147394999800674],[-72.646638000403,42.146222999979656],[-72.644308999782,42.1390210003702],[-72.64066000005279,42.13634800034997],[-72.63866799978645,42.133397000118606],[-72.6370600002385,42.128225000075176],[-72.63816099998475,42.12438200010439],[-72.63780299969896,42.12151499958338],[-72.63603899964649,42.11534200029608],[-72.63437000000442,42.11211300036767],[-72.63233099949566,42.104149000046064]]]}}]}