{"type":"FeatureCollection","features":[{"id":"709","type":"Feature","properties":{"GISJOIN":"G33001100001","pct_black":0.73},"geometry":{"type":"Polygon","coordinates":[[[-71.45340800011392,43.03846900047462],[-71.4559159994628,43.03490900020822],[-71.46230300033702,43.034219999674484],[-71.46831999976551,43.03153000000794],[-71.47057299975965,43.027942999714256],[-71.46835200016446,43.01340600032794],[-71.47457699953287,43.01362199994129],[-71.47262500052535,43.008255999844124],[-71.46949599956262,43.003704999776325],[-71.47332887489034,43.004694831905994],[-71.47507957835849,43.00147481163489],[-71.47625172547286,43.001111696970504],[-71.47446699983786,42.99615399952868],[-71.476798000414,42.99693999990416],[-71.49141899969753,42.9965730001026],[-71.49135800047144,42.994938000365664],[-71.49328099963088,42.99455099953808],[-71.49549300002653,42.9930250002313],[-71.4950120000168,42.99548300036456],[-71.4965119994733,42.99668299975641],[-71.49891199978076,42.997283000024304],[-71.4998119997009,42.99808299957654],[-71.50011200023262,42.99988300001445],[-71.50194899981211,43.00164299957901],[-71.50076299980684,43.00174799973066],[-71.5065419996709,43.02653599960563],[-71.51271300017467,43.048282999654255],[-71.48882800035598,43.0514739999712],[-71.48632599942904,43.048295000012395],[-71.4830960006152,43.04104299990738],[-71.47979999927473,43.03883500028559],[-71.4759370005033,43.03769799964207],[-71.47341199939902,43.03508299998899],[-71.46052900007432,43.040929000272925],[-71.45471099956265,43.044183000044555],[-71.45340800011392,43.03846900047462]]]}},{"id":"710","type":"Feature","properties":{"GISJOIN":"G33001100002","pct_black":0.16},"geometry":{"type":"Polygon","coordinates":[[[-71.44718800007125,43.01995900022829],[-71.45137799963211,43.01576099993355],[-71.45327499976642,43.01225400022785],[-71.45574399975474,43.0092820001899],[-71.45525899993953,43.004113000330086],[-71.46684799972077,43.00287400022564],[-71.46880699977532,43.00325900020977],[-71.46960000051236,43.003535999912614],[-71.47361100044427,43.0102829997257],[-71.47457699953287,43.01362199994129],[-71.46835200016446,43.01340600032794],[-71.46856899950735,43.017080999786806],[-71.47062100047195,43.02737400005588],[-71.46867899985195,43.03120799959428],[-71.46230300033702,43.034219999674484],[-71.4559159994628,43.03490900020822],[-71.45340800011392,43.03846900047462],[-71.44951099994175,43.020783000228214],[-71.44718800007125,43.01995900022829]]]}},{"id":"711","type":"Feature","properties":{"GISJOIN":"G33001100003","pct_black":0.0},"geometry":{"type":"Polygon","coordinates":[[[-71.44023000017964,43.01870699973307],[-71.43455308349223,43.011485663529236],[-71.43099700908532,43.0016284122843],[-71.42761100043467,42.99895699991071],[-71.43516400005402,42.99560300006239],[-71.45374099981544,42.99570799953212],[-71.45580299974166,43.007011000331886],[-71.45574399975474,43.0092820001899],[-71.45327499976642,43.01225400022785],[-71.45137799963211,43.01576099993355],[-71.44718800007125,43.01995900022829],[-71.44023000017964,43.01870699973307]]]}},{"id":"712","type":"Feature","properties":{"GISJOIN":"G33001100004","pct_black":0.03},"geometry":{"type":"Polygon","coordinates":[[[-71.45374099981544,42.99570799953212],[-71.46092500036974,42.99501499980356],[-71.46243499982636,43.00340500037521],[-71.45525899993953,43.004113000330086],[-71.45374099981544,42.99570799953212]]]}},{"id":"713","type":"Feature","properties":{"GISJOIN":"G33001100005","pct_black":0.61},"geometry":{"type":"Polygon","coordinates":[[[-71.46092500036974,42.99501499980356],[-71.46068200032377,42.985060000103516],[-71.46366600022169,42.98502500043413],[-71.46367100029228,42.985791000291606],[-71.46415699941004,42.98578900008293],[-71.46418000030724,42.990798999868815],[-71.46366800004868,42.99080799972867],[-71.46309000072254,42.993249999716724],[-71.46575700040705,42.99328700019883],[-71.46597099969843,42.99452399961051],[-71.46381800010538,42.994727000457786],[-71.46469200043298,42.99907599965394],[-71.46677799959768,42.998881999736746],[-71.46803899955843,43.00300700008639],[-71.46243499982636,43.00340500037521],[-71.46092500036974,42.99501499980356]]]}},{"id":"714","type":"Feature","properties":{"GISJOIN":"G33001100006","pct_black":0.0},"geometry":{"type":"Polygon","coordinates":[[[-71.47332887489034,43.004694831905994],[-71.46803899955843,43.00300700008639],[-71.46677799959768,42.998881999736746],[-71.46469200043298,42.99907599965394],[-71.46381800010538,42.994727000457786],[-71.46597099969843,42.99452399961051],[-71.46575700040705,42.99328700019883],[-71.46309000072254,42.993249999716724],[-71.46366800004868,42.99080799972867],[-71.46418000030724,42.990798999868815],[-71.46415699941004,42.98578900008293],[-71.46367100029228,42.985791000291606],[-71.46366600022169,42.98502500043413],[-71.46562163107515,42.98475164445796],[-71.4649929996427,42.98358899947107],[-71.46521100068013,42.980383999864124],[-71.46673300059484,42.978600999697136],[-71.46911099964512,42.979084000046846],[-71.46849200040096,42.980654000167895],[-71.4684649997856,42.98301100039002],[-71.46953700057459,42.985266999670856],[-71.47392000008902,42.98468599998497],[-71.47413899989584,42.99003600040825],[-71.47258000035121,42.99390000022505],[-71.47446699983786,42.99615399952868],[-71.47625172547286,43.001111696970504],[-71.47507957835849,43.00147481163489],[-71.47332887489034,43.004694831905994]]]}},{"id":"715","type":"Feature","properties":{"GISJOIN":"G33001100007","pct_black":0.12},"geometry":{"type":"Polygon","coordinates":[[[-71.47446699983786,42.99615399952868],[-71.47258000035121,42.99390000022505],[-71.47401699956254,42.99040599971869],[-71.47852400043881,42.99032800002323],[-71.47858699953443,42.991825000281494],[-71.4795869999694,42.991838000145464],[-71.48129800045162,42.993830999921656],[-71.49028099929514,42.99287500019528],[-71.4903920005646,42.99495599982897],[-71.49135800047144,42.994938000365664],[-71.49141899969753,42.9965730001026],[-71.476798000414,42.99693999990416],[-71.47446699983786,42.99615399952868]]]}},{"id":"716","type":"Feature","properties":{"GISJOIN":"G33001100008","pct_black":0.46},"geometry":{"type":"Polygon","coordinates":[[[-71.47401699956254,42.99040599971869],[-71.47395899949281,42.9856509996602],[-71.48214900013427,42.98472699974144],[-71.48441099977195,42.986683999510525],[-71.48821200024994,42.98778400038039],[-71.49071199982004,42.989884000396245],[-71.49451199957929,42.99118300015026],[-71.49549300002653,42.9930250002313],[-71.4930359998321,42.994658999973176],[-71.4903920005646,42.99495599982897],[-71.49028099929514,42.99287500019528],[-71.48147999962455,42.993867999483314],[-71.48050400031309,42.993396000341626],[-71.4795869999694,42.991838000145464],[-71.47858699953443,42.991825000281494],[-71.47852400043881,42.99032800002323],[-71.47401699956254,42.99040599971869]]]}},{"id":"717","type":"Feature","properties":{"GISJOIN":"G33001100009","pct_black":0.39},"geometry":{"type":"Polygon","coordinates":[[[-71.46849200040096,42.980654000167895],[-71.47171399387886,42.97428548740245],[-71.47944658601936,42.976041634403416],[-71.48005231330518,42.97504014262706],[-71.4831719973043,42.97513506161827],[-71.48350799976681,42.97757600008553],[-71.4856870004437,42.97716600033065],[-71.48490300023944,42.98050499980208],[-71.48230899983673,42.98056699986651],[-71.48304699973558,42.98387300016363],[-71.48171100041398,42.98408400053895],[-71.48214900013427,42.98472699974144],[-71.48075312578345,42.98503934039303],[-71.47395899949281,42.9856509996602],[-71.47392000008902,42.98468599998497],[-71.47334100038366,42.98469000025494],[-71.47138300023191,42.98534199980668],[-71.47105099975072,42.984748999871265],[-71.46953700057459,42.985266999670856],[-71.4684649997856,42.98301100039002],[-71.46849200040096,42.980654000167895]]]}},{"id":"718","type":"Feature","properties":{"GISJOIN":"G33001100010","pct_black":0.0},"geometry":{"type":"Polygon","coordinates":[[[-71.49549300002653,42.9930250002313],[-71.49451199957929,42.99118300015026],[-71.49071199982004,42.989884000396245],[-71.48821200024994,42.98778400038039],[-71.48441099977195,42.986683999510525],[-71.48191100001843,42.98458399994473],[-71.48171100041398,42.98408400053895],[-71.48304699973558,42.98387300016363],[-71.48230899983673,42.98056699986651],[-71.48490300023944,42.98050499980208],[-71.48574400053677,42.97842600013675],[-71.4856870004437,42.97716600033065],[-71.48350799976681,42.97757600008553],[-71.4831719973043,42.97513506161827],[-71.48005231330518,42.97504014262706],[-71.47944658601936,42.976041634403416],[-71.47171399387886,42.97428548740245],[-71.4747109999162,42.96828399995619],[-71.4750110000241,42.96628400046447],[-71.47869999995163,42.966340000165175],[-71.48128200034718,42.965382000396254],[-71.49095100009659,42.9643379997845],[-71.49420699993233,42.98178700001711],[-71.49452099985733,42.98279899978329],[-71.49664399993216,42.98272300012705],[-71.4998119997009,42.99808299957654],[-71.4950120000168,42.99548300036456],[-71.49549300002653,42.9930250002313]]]}},{"id":"719","type":"Feature","properties":{"GISJOIN":"G33001100011","pct_black":0.27},"geometry":{"type":"Polygon","coordinates":[[[-71.46397500020379,42.980610999808704],[-71.4503620005997,42.960928999672106],[-71.44468799997635,42.95414799970473],[-71.45015899946955,42.95218400028739],[-71.45562699993077,42.948625000440515],[-71.46071999998084,42.94731400038155],[-71.46281100045036,42.94948399979884],[-71.46911099959534,42.952183999553164],[-71.47181099969549,42.95488399972423],[-71.4746109998004,42.963483999959855],[-71.47511099988374,42.96698400010983],[-71.46911099964512,42.979084000046846],[-71.46673300059484,42.978600999697136],[-71.46561999982944,42.97965499995164],[-71.4649929996427,42.98358899947107],[-71.46397500020379,42.980610999808704]]]}},{"id":"720","type":"Feature","properties":{"GISJOIN":"G33001100012","pct_black":0.0},"geometry":{"type":"Polygon","coordinates":[[[-71.44819899984755,42.979980999885434],[-71.45929699943046,42.98000600017461],[-71.46302799944371,42.979863999966774],[-71.46303000045954,42.97942999984091],[-71.46562163107515,42.98475164445796],[-71.46068200032377,42.985060000103516],[-71.46065499957184,42.986548999579846],[-71.44821300018246,42.98651999958583],[-71.44819899984755,42.979980999885434]]]}},{"id":"721","type":"Feature","properties":{"GISJOIN":"G33001100013","pct_black":0.0},"geometry":{"type":"Polygon","coordinates":[[[-71.44500600062163,42.98655299976138],[-71.46065499957184,42.986548999579846],[-71.46064399999781,42.99094699970699],[-71.44499199996908,42.99089800027289],[-71.44500600062163,42.98655299976138]]]}},{"id":"722","type":"Feature","properties":{"GISJOIN":"G33001100014","pct_black":0.05},"geometry":{"type":"Polygon","coordinates":[[[-71.44499199996908,42.99089800027289],[-71.46064399999781,42.99094699970699],[-71.46092500036974,42.99501499980356],[-71.45374099981544,42.99570799953212],[-71.44499799933509,42.99551700033525],[-71.44499199996908,42.99089800027289]]]}},{"id":"723","type":"Feature","properties":{"GISJOIN":"G33001100015","pct_black":0.0},"geometry":{"type":"Polygon","coordinates":[[[-71.43140999981175,42.97987300038995],[-71.44819899984755,42.979980999885434],[-71.44821300018246,42.98651999958583],[-71.44500600062163,42.98655299976138],[-71.44499799933509,42.99551700033525],[-71.43562900018962,42.99582200017157],[-71.43371900044905,42.9912769999025],[-71.43286000026255,42.98421700021476],[-71.43140999981175,42.97987300038995]]]}},{"id":"724","type":"Feature","properties":{"GISJOIN":"G33001100016","pct_black":0.0},"geometry":{"type":"Polygon","coordinates":[[[-71.41738099991133,42.960163000343044],[-71.42000899966459,42.96250000039405],[-71.42513599999305,42.97178200006182],[-71.42941899998462,42.97610100019614],[-71.43260099944935,42.98308300029391],[-71.43370099972292,42.99120800027795],[-71.43562900018962,42.99582200017157],[-71.43516400005402,42.99560300006239],[-71.42761100043467,42.99895699991071],[-71.41838499971611,42.99615900018388],[-71.41682799939225,42.99527200014603],[-71.4151673759565,42.99319117939946],[-71.4157090002906,42.9883270004516],[-71.41539600030998,42.98339199963131],[-71.4126520004102,42.96808800010495],[-71.41131500048515,42.96493999991063],[-71.40757200035578,42.95953899983073],[-71.41084899978937,42.958250000126505],[-71.4150860006329,42.96061599987029],[-71.41738099991133,42.960163000343044]]]}},{"id":"725","type":"Feature","properties":{"GISJOIN":"G33001100017","pct_black":0.0},"geometry":{"type":"Polygon","coordinates":[[[-71.42742100033608,42.97395999966617],[-71.43583699968407,42.97310200003322],[-71.43923299979018,42.973523000104215],[-71.44824499977754,42.97299299985292],[-71.44819899984755,42.979980999885434],[-71.43140999981175,42.97987300038995],[-71.42941899998462,42.97610100019614],[-71.42742100033608,42.97395999966617]]]}},{"id":"726","type":"Feature","properties":{"GISJOIN":"G33001100018","pct_black":0.0},"geometry":{"type":"Polygon","coordinates":[[[-71.44824499977754,42.97299299985292],[-71.45611300041797,42.97273299965386],[-71.45874299996572,42.97323300038905],[-71.46302799944371,42.979863999966774],[-71.44819899984755,42.979980999885434],[-71.44824499977754,42.97299299985292]]]}},{"id":"727","type":"Feature","properties":{"GISJOIN":"G33001100019","pct_black":0.0},"geometry":{"type":"Polygon","coordinates":[[[-71.41738099991133,42.960163000343044],[-71.41831000007834,42.95878399966174],[-71.41841000067164,42.95758399978815],[-71.41721000023841,42.95718499966503],[-71.41930999965962,42.95488500010906],[-71.41810999959404,42.95448500010443],[-71.42130999949602,42.95338500005106],[-71.4201100004037,42.95168500024817],[-71.42021000019827,42.949684999946356],[-71.41921000041432,42.949084999816385],[-71.41970999984255,42.94838500003072],[-71.42111000023583,42.94808499968818],[-71.42101000016214,42.946984999714836],[-71.42352800030143,42.947481999902614],[-71.42345299952103,42.944477000043925],[-71.42556599961436,42.943974999951344],[-71.42587899994514,42.94557199980121],[-71.4271949998177,42.94726899980885],[-71.42860300015595,42.9474680000024],[-71.42891299959804,42.94866599966252],[-71.4301200001145,42.948864000036814],[-71.4331439999957,42.946960000380955],[-71.43550999974599,42.94706599954819],[-71.43646999977388,42.948974000297845],[-71.43794800005244,42.949278000134434],[-71.43852399977742,42.94808199956143],[-71.43800999992135,42.947484999655096],[-71.43867700027279,42.94692699990748],[-71.4503620005997,42.960928999672106],[-71.45874299996572,42.97323300038905],[-71.45611300041797,42.97273299965386],[-71.4395209997684,42.97351800002599],[-71.43583699968407,42.97310200003322],[-71.42742100033608,42.97395999966617],[-71.42400499970891,42.970152000330074],[-71.42000899966459,42.96250000039405],[-71.41738099991133,42.960163000343044]]]}},{"id":"728","type":"Feature","properties":{"GISJOIN":"G33001100020","pct_black":1.27},"geometry":{"type":"Polygon","coordinates":[[[-71.46071999998084,42.94731400038155],[-71.45562699993077,42.948625000440515],[-71.45015899946955,42.95218400028739],[-71.44468799997635,42.95414799970473],[-71.43867700027279,42.94692699990748],[-71.43800999992135,42.947484999655096],[-71.43852399977742,42.94808199956143],[-71.43794800005244,42.949278000134434],[-71.43646999977388,42.948974000297845],[-71.43550999974599,42.94706599954819],[-71.4331439999957,42.946960000380955],[-71.4301200001145,42.948864000036814],[-71.42891299959804,42.94866599966252],[-71.42860300015595,42.9474680000024],[-71.4271949998177,42.94726899980885],[-71.42587899994514,42.94557199980121],[-71.42556599961436,42.943974999951344],[-71.42345299952103,42.944477000043925],[-71.42352800030143,42.947481999902614],[-71.42101000016214,42.946984999714836],[-71.42111000023583,42.94808499968818],[-71.41970999984255,42.94838500003072],[-71.41921000041432,42.949084999816385],[-71.42021000019827,42.949684999946356],[-71.4201100004037,42.95168500024817],[-71.42130999949602,42.95338500005106],[-71.41810999959404,42.95448500010443],[-71.41930999965962,42.95488500010906],[-71.41721000023841,42.95718499966503],[-71.41841000067164,42.95758399978815],[-71.4179099996362,42.95978399976819],[-71.4150860006329,42.96061599987029],[-71.41084899978937,42.958250000126505],[-71.40757200035578,42.95953899983073],[-71.41131500048515,42.96493999991063],[-71.4126520004102,42.96808800010495],[-71.41539600030998,42.98339199963131],[-71.4157090002906,42.9883270004516],[-71.4151673759565,42.99319117939946],[-71.4180679993988,42.99600200028114],[-71.42761100043467,42.99895699991071],[-71.43099700908532,43.0016284122843],[-71.43455308349223,43.011485663529236],[-71.44023000017964,43.01870699973307],[-71.41210999958575,43.0133840001355],[-71.39220999988487,43.0089840002661],[-71.37540899978927,42.93918399970782],[-71.4513100000046,42.930685000167585],[-71.44180999994622,42.88958599992856],[-71.45382399984378,42.90340800040689],[-71.45268000070648,42.9110689997284],[-71.45442000016453,42.920281000301415],[-71.4537199995401,42.92708100000662],[-71.45532099968275,42.931181000357476],[-71.45602099986522,42.93528100037625],[-71.45891499961644,42.94029700002399],[-71.46071999998084,42.94731400038155]]]}},{"id":"729","type":"Feature","properties":{"GISJOIN":"G3300110GT0001","pct_black":null},"geometry":{"type":"Polygon","coordinates":[[[-71.51852100028326,43.06891399993474],[-71.5065419996709,43.02653599960563],[-71.50076299980684,43.00174799973066],[-71.50194899981211,43.00164299957901],[-71.50011200023262,42.99988300001445],[-71.4987469997969,42.99126499987995],[-71.49664399993216,42.98272300012705],[-71.49708299984603,42.982614000233575],[-71.51789300062529,42.980482999840994],[-71.53894900012311,42.97660699966681],[-71.61711499979842,42.97177900016815],[-71.62363699978276,42.996849000187886],[-71.63160400045604,43.0227910001355],[-71.63313600047765,43.02425000040699],[-71.6357670002467,43.024458000327215],[-71.63786600031706,43.02397600025744],[-71.64053100058187,43.02505899980372],[-71.63955300035742,43.02665200008533],[-71.63850599997637,43.03296099965016],[-71.63486100014839,43.03355999973181],[-71.64125199974015,43.05417300028419],[-71.54684200047137,43.065121999867074],[-71.51852100028326,43.06891399993474]]]}}]}