{"type":"FeatureCollection","features":[{"id":"848","type":"Feature","properties":{"GISJOIN":"G33001100001","pct_black":0.36},"geometry":{"type":"Polygon","coordinates":[[[-71.44718800007125,43.01995900022829],[-71.45093199989057,43.01630799989281],[-71.45356200010018,43.01184599991491],[-71.457627999585,43.00717400013172],[-71.46820900071263,43.005975999693526],[-71.46803899955843,43.00300700008639],[-71.46960000051236,43.003535999912614],[-71.47040899981184,43.00549199996593],[-71.47262500052535,43.008255999844124],[-71.47511100065152,43.01488299967238],[-71.48011200046601,43.02378299973741],[-71.4802119998742,43.02528300010204],[-71.47941199967228,43.02788299998351],[-71.47341199939902,43.03508299998899],[-71.46052900007432,43.040929000272925],[-71.45471099956265,43.044183000044555],[-71.44951099994175,43.020783000228214],[-71.44718800007125,43.01995900022829]]]}},{"id":"849","type":"Feature","properties":{"GISJOIN":"G33001100002","pct_black":0.59},"geometry":{"type":"Polygon","coordinates":[[[-71.47341199939902,43.03508299998899],[-71.47941199967228,43.02788299998351],[-71.4802119998742,43.02528300010204],[-71.48011200046601,43.02378299973741],[-71.47511100065152,43.01488299967238],[-71.47262500052535,43.008255999844124],[-71.46949599956262,43.003704999776325],[-71.47281099957134,43.002182999778334],[-71.47371100045585,43.00118300048312],[-71.47381100019113,42.99998300019696],[-71.46941099961433,42.99678400038735],[-71.46938000001184,42.99420699998304],[-71.47258000035121,42.99390000022505],[-71.47446699983786,42.99615399952868],[-71.47670200019066,42.99693100009021],[-71.49141899969753,42.9965730001026],[-71.49135800047144,42.994938000365664],[-71.49328099963088,42.99455099953808],[-71.49549300002653,42.9930250002313],[-71.4950120000168,42.99548300036456],[-71.4965119994733,42.99668299975641],[-71.49891199978076,42.997283000024304],[-71.4998119997009,42.99808299957654],[-71.50011200023262,42.99988300001445],[-71.50194899981211,43.00164299957901],[-71.50076299980684,43.00174799973066],[-71.5065419996709,43.02653599960563],[-71.51271300017467,43.048282999654255],[-71.48882800035598,43.0514739999712],[-71.48632599942904,43.048295000012395],[-71.4830960006152,43.04104299990738],[-71.47979999927473,43.03883500028559],[-71.4759370005033,43.03769799964207],[-71.47341199939902,43.03508299998899]]]}},{"id":"850","type":"Feature","properties":{"GISJOIN":"G33001100003","pct_black":0.0},"geometry":{"type":"Polygon","coordinates":[[[-71.47258000035121,42.99390000022505],[-71.48041500025012,42.99327499995473],[-71.48185400036901,42.99388799998654],[-71.49028099929514,42.99287500019528],[-71.4903920005646,42.99495599982897],[-71.49135800047144,42.994938000365664],[-71.49141899969753,42.9965730001026],[-71.47670200019066,42.99693100009021],[-71.47446699983786,42.99615399952868],[-71.47258000035121,42.99390000022505]]]}},{"id":"851","type":"Feature","properties":{"GISJOIN":"G33001100004","pct_black":0.0},"geometry":{"type":"Polygon","coordinates":[[[-71.46803899955843,43.00300700008639],[-71.46677799959768,42.998881999736746],[-71.46469200043298,42.99907599965394],[-71.46381800010538,42.994727000457786],[-71.46597099969843,42.99452399961051],[-71.46575700040705,42.99328700019883],[-71.46309000072254,42.993249999716724],[-71.46366800004868,42.99080799972867],[-71.46418000030724,42.990798999868815],[-71.46415699941004,42.98578900008293],[-71.46565799995929,42.98581100040801],[-71.46500477560738,42.985040895067385],[-71.46562163107515,42.98475164445796],[-71.4649929996427,42.98358899947107],[-71.46521100068013,42.980383999864124],[-71.46673300059484,42.978600999697136],[-71.46911099964512,42.979084000046846],[-71.46849200040096,42.980654000167895],[-71.4684649997856,42.98301100039002],[-71.47034399989761,42.98665699993438],[-71.46941099961433,42.99678400038735],[-71.47381100019113,42.99998300019696],[-71.47371100045585,43.00118300048312],[-71.47221100003482,43.00258299988758],[-71.46960000051236,43.003535999912614],[-71.46803899955843,43.00300700008639]]]}},{"id":"852","type":"Feature","properties":{"GISJOIN":"G33001100005","pct_black":0.0},"geometry":{"type":"Polygon","coordinates":[[[-71.46092500036974,42.99501499980356],[-71.46068200032377,42.985060000103516],[-71.46304700037733,42.985054999979],[-71.46307200023232,42.98238099997677],[-71.46454700018916,42.98248899999482],[-71.46562163107515,42.98475164445796],[-71.46500477560738,42.985040895067385],[-71.46565799995929,42.98581100040801],[-71.46415699941004,42.98578900008293],[-71.46418000030724,42.990798999868815],[-71.46366800004868,42.99080799972867],[-71.46309000072254,42.993249999716724],[-71.46575700040705,42.99328700019883],[-71.46597099969843,42.99452399961051],[-71.46381800010538,42.994727000457786],[-71.46469200043298,42.99907599965394],[-71.46677799959768,42.998881999736746],[-71.46803899955843,43.00300700008639],[-71.46243499982636,43.00340500037521],[-71.46092500036974,42.99501499980356]]]}},{"id":"853","type":"Feature","properties":{"GISJOIN":"G33001100006","pct_black":0.0},"geometry":{"type":"Polygon","coordinates":[[[-71.4600019997609,43.00693600012021],[-71.45775400040098,42.995336999998415],[-71.46092500036974,42.99501499980356],[-71.46243499982636,43.00340500037521],[-71.46803899955843,43.00300700008639],[-71.46820900071263,43.005975999693526],[-71.4600019997609,43.00693600012021]]]}},{"id":"854","type":"Feature","properties":{"GISJOIN":"G33001100007","pct_black":0.22},"geometry":{"type":"Polygon","coordinates":[[[-71.44558199967699,43.000523000008656],[-71.45845800035484,42.99925399975895],[-71.4600019997609,43.00693600012021],[-71.45739800038143,43.00739800025391],[-71.45397799976199,43.01128300038406],[-71.45001999970083,43.0172420000597],[-71.4490210003069,43.01666000030011],[-71.44558199967699,43.000523000008656]]]}},{"id":"855","type":"Feature","properties":{"GISJOIN":"G33001100008","pct_black":0.0},"geometry":{"type":"Polygon","coordinates":[[[-71.44499799933509,42.99551700033525],[-71.45775400040098,42.995336999998415],[-71.45845800035484,42.99925399975895],[-71.44558199967699,43.000523000008656],[-71.44499799933509,42.99551700033525]]]}},{"id":"856","type":"Feature","properties":{"GISJOIN":"G33001100009","pct_black":0.0},"geometry":{"type":"Polygon","coordinates":[[[-71.39220999988487,43.0089840002661],[-71.39186599972714,43.007850000301545],[-71.39228499979731,43.00743599973961],[-71.40680300007007,43.00228500017723],[-71.40628799964243,43.00194399981032],[-71.41408600003139,42.996153000366974],[-71.41492200017223,42.99489000004369],[-71.4151673759565,42.99319117939946],[-71.41682799939225,42.99527200014603],[-71.41838499971611,42.99615900018388],[-71.42761100043467,42.99895699991071],[-71.43516400005402,42.99560300006239],[-71.44499799933509,42.99551700033525],[-71.44587100011572,43.00211100038771],[-71.4490210003069,43.01666000030011],[-71.45001999970083,43.0172420000597],[-71.44718800007125,43.01995900022829],[-71.41210999958575,43.0133840001355],[-71.39220999988487,43.0089840002661]]]}},{"id":"857","type":"Feature","properties":{"GISJOIN":"G33001100010","pct_black":0.62},"geometry":{"type":"Polygon","coordinates":[[[-71.38398999978013,42.93824399969928],[-71.38727500002493,42.94247499959688],[-71.40334199968575,42.95464900018817],[-71.40932399974524,42.96172200022011],[-71.4126520004102,42.96808800010495],[-71.41539600030998,42.98339199963131],[-71.41567500031138,42.989667000223825],[-71.41502799943473,42.99454600004995],[-71.41408600003139,42.996153000366974],[-71.40628799964243,43.00194399981032],[-71.40680300007007,43.00228500017723],[-71.39186599972714,43.007850000301545],[-71.37540899978927,42.93918399970782],[-71.38398999978013,42.93824399969928]]]}},{"id":"858","type":"Feature","properties":{"GISJOIN":"G33001100011","pct_black":0.11},"geometry":{"type":"Polygon","coordinates":[[[-71.4151673759565,42.99319117939946],[-71.4157090002906,42.9883270004516],[-71.41539600030998,42.98339199963131],[-71.4126520004102,42.96808800010495],[-71.40932399974524,42.96172200022011],[-71.40389499997987,42.95522600022141],[-71.4088020003881,42.95988800052903],[-71.41522600049855,42.96169500025869],[-71.41859700058812,42.961494000087924],[-71.42000899966459,42.96250000039405],[-71.42433699991375,42.97065699999668],[-71.42892100047735,42.97541699993827],[-71.43111899988871,42.97921500031978],[-71.43286000026255,42.98421700021476],[-71.43371900044905,42.9912769999025],[-71.43562900018962,42.99582200017157],[-71.43516400005402,42.99560300006239],[-71.42761100043467,42.99895699991071],[-71.41838499971611,42.99615900018388],[-71.41682799939225,42.99527200014603],[-71.4151673759565,42.99319117939946]]]}},{"id":"859","type":"Feature","properties":{"GISJOIN":"G33001100012","pct_black":0.0},"geometry":{"type":"Polygon","coordinates":[[[-71.43331500012572,42.98748199986956],[-71.44500399968501,42.98734100032037],[-71.44499799933509,42.99551700033525],[-71.43562900018962,42.99582200017157],[-71.43371900044905,42.9912769999025],[-71.43331500012572,42.98748199986956]]]}},{"id":"860","type":"Feature","properties":{"GISJOIN":"G33001100013","pct_black":0.0},"geometry":{"type":"Polygon","coordinates":[[[-71.44499199996908,42.99089800027289],[-71.45739399978073,42.99095899961231],[-71.45775400040098,42.995336999998415],[-71.44499799933509,42.99551700033525],[-71.44499199996908,42.99089800027289]]]}},{"id":"861","type":"Feature","properties":{"GISJOIN":"G33001100014","pct_black":0.38},"geometry":{"type":"Polygon","coordinates":[[[-71.45775400040098,42.995336999998415],[-71.45740100033852,42.981348999664924],[-71.46303600040062,42.98135000052304],[-71.46304700037733,42.985054999979],[-71.46068200032377,42.985060000103516],[-71.46092500036974,42.99501499980356],[-71.45775400040098,42.995336999998415]]]}},{"id":"862","type":"Feature","properties":{"GISJOIN":"G33001100015","pct_black":0.12},"geometry":{"type":"Polygon","coordinates":[[[-71.45297199976143,42.981336999981714],[-71.45740100033852,42.981348999664924],[-71.45739399978073,42.99095899961231],[-71.45299200060444,42.990945000018925],[-71.45297199976143,42.981336999981714]]]}},{"id":"863","type":"Feature","properties":{"GISJOIN":"G33001100016","pct_black":0.0},"geometry":{"type":"Polygon","coordinates":[[[-71.44499199996908,42.99089800027289],[-71.44499199993214,42.981336999589765],[-71.45297199976143,42.981336999981714],[-71.45299200060444,42.990945000018925],[-71.44499199996908,42.99089800027289]]]}},{"id":"864","type":"Feature","properties":{"GISJOIN":"G33001100017","pct_black":0.0},"geometry":{"type":"Polygon","coordinates":[[[-71.43152199999825,42.980260999767346],[-71.43447400014105,42.98135500028902],[-71.44499199993214,42.981336999589765],[-71.44500399968501,42.98734100032037],[-71.43331500012572,42.98748199986956],[-71.43260099944935,42.98308300029391],[-71.43152199999825,42.980260999767346]]]}},{"id":"865","type":"Feature","properties":{"GISJOIN":"G33001100018","pct_black":0.0},"geometry":{"type":"Polygon","coordinates":[[[-71.43152199999825,42.980260999767346],[-71.42941899998462,42.97610100019614],[-71.42742100033608,42.97395999966617],[-71.43583699968407,42.97310200003322],[-71.4395209997684,42.97351800002599],[-71.45540900006482,42.97274300010612],[-71.45541600036495,42.97378300022122],[-71.4530039995604,42.97378199987899],[-71.45297700001376,42.97648100025217],[-71.45073400021052,42.97648600032398],[-71.45073400017935,42.97737000031257],[-71.44820399959312,42.97736899946012],[-71.4482120000483,42.98134000003724],[-71.43447400014105,42.98135500028902],[-71.43152199999825,42.980260999767346]]]}},{"id":"866","type":"Feature","properties":{"GISJOIN":"G33001100019","pct_black":0.0},"geometry":{"type":"Polygon","coordinates":[[[-71.45540900006482,42.97274300010612],[-71.4609020001518,42.97372899994628],[-71.46586499932016,42.973538000321454],[-71.4671469999562,42.97113500030496],[-71.46663599930483,42.96805100032031],[-71.4718649994919,42.967295999930045],[-71.4723840005439,42.967299999743105],[-71.47222244379644,42.9681106980827],[-71.47480283634992,42.96798553531472],[-71.46911099964512,42.979084000046846],[-71.46673300059484,42.978600999697136],[-71.46561999982944,42.97965499995164],[-71.4649929996427,42.98358899947107],[-71.46454700018916,42.98248899999482],[-71.46307200023232,42.98238099997677],[-71.46303600040062,42.98135000052304],[-71.4482120000483,42.98134000003724],[-71.44820399959312,42.97736899946012],[-71.45073400017935,42.97737000031257],[-71.45073400021052,42.97648600032398],[-71.45297700001376,42.97648100025217],[-71.4530039995604,42.97378199987899],[-71.45541600036495,42.97378300022122],[-71.45540900006482,42.97274300010612]]]}},{"id":"867","type":"Feature","properties":{"GISJOIN":"G33001100020","pct_black":0.33},"geometry":{"type":"Polygon","coordinates":[[[-71.46849200040096,42.980654000167895],[-71.46991099958629,42.977484000115105],[-71.47401100010994,42.979383999911455],[-71.47519700018815,42.98066400018973],[-71.47991100066116,42.98149799984241],[-71.48074300027072,42.981993000394866],[-71.48013599965503,42.98290999990003],[-71.48214900013427,42.98472699974144],[-71.47395899949281,42.9856509996602],[-71.47392000008902,42.98468599998497],[-71.46953700057459,42.985266999670856],[-71.4684649997856,42.98301100039002],[-71.46849200040096,42.980654000167895]]]}},{"id":"868","type":"Feature","properties":{"GISJOIN":"G33001100021","pct_black":0.0},"geometry":{"type":"Polygon","coordinates":[[[-71.46953700057459,42.985266999670856],[-71.47392000008902,42.98468599998497],[-71.47395899949281,42.9856509996602],[-71.48214900013427,42.98472699974144],[-71.48581100048686,42.987784000175694],[-71.48941200003419,42.988584000456235],[-71.49071199982004,42.989884000396245],[-71.49451199957929,42.99118300015026],[-71.49549300002653,42.9930250002313],[-71.49328099963088,42.99455099953808],[-71.49167000058473,42.99493199966316],[-71.4903920005646,42.99495599982897],[-71.49028099929514,42.99287500019528],[-71.48204299974658,42.99387600010631],[-71.48041500025012,42.99327499995473],[-71.47614300040314,42.99337899998211],[-71.46938000001184,42.99420699998304],[-71.47034399989761,42.98665699993438],[-71.46953700057459,42.985266999670856]]]}},{"id":"869","type":"Feature","properties":{"GISJOIN":"G33001100022","pct_black":0.88},"geometry":{"type":"Polygon","coordinates":[[[-71.49549300002653,42.9930250002313],[-71.49451199957929,42.99118300015026],[-71.49071199982004,42.989884000396245],[-71.48941200003419,42.988584000456235],[-71.48581100048686,42.987784000175694],[-71.48013599965503,42.98290999990003],[-71.48074300027072,42.981993000394866],[-71.475915999889,42.9809429995392],[-71.47754899987805,42.97860500005954],[-71.4856870004437,42.97716600033065],[-71.49257799932214,42.972862000128195],[-71.49452099985733,42.98279899978329],[-71.49664399993216,42.98272300012705],[-71.4998119997009,42.99808299957654],[-71.4950120000168,42.99548300036456],[-71.49549300002653,42.9930250002313]]]}},{"id":"870","type":"Feature","properties":{"GISJOIN":"G33001100023","pct_black":0.0},"geometry":{"type":"Polygon","coordinates":[[[-71.46991099958629,42.977484000115105],[-71.4747109999162,42.96828399995619],[-71.4750110000241,42.96628400046447],[-71.47869999995163,42.966340000165175],[-71.48128200034718,42.965382000396254],[-71.49095100009659,42.9643379997845],[-71.49257799932214,42.972862000128195],[-71.4856870004437,42.97716600033065],[-71.47754899987805,42.97860500005954],[-71.475915999889,42.9809429995392],[-71.47401100010994,42.979383999911455],[-71.46991099958629,42.977484000115105]]]}},{"id":"871","type":"Feature","properties":{"GISJOIN":"G33001100024","pct_black":0.62},"geometry":{"type":"Polygon","coordinates":[[[-71.45874299996572,42.97323300038905],[-71.4503620005997,42.960928999672106],[-71.44468799997635,42.95414799970473],[-71.45015899946955,42.95218400028739],[-71.45562699993077,42.948625000440515],[-71.46071999998084,42.94731400038155],[-71.46281100045036,42.94948399979884],[-71.46911099959534,42.952183999553164],[-71.47181099969549,42.95488399972423],[-71.4746109998004,42.963483999959855],[-71.47511099988374,42.96698400010983],[-71.47480283634992,42.96798553531472],[-71.47222244379644,42.9681106980827],[-71.4723840005439,42.967299999743105],[-71.4718649994919,42.967295999930045],[-71.46663599930483,42.96805100032031],[-71.4671469999562,42.97113500030496],[-71.46586499932016,42.973538000321454],[-71.46115899981432,42.97374199987372],[-71.45874299996572,42.97323300038905]]]}},{"id":"872","type":"Feature","properties":{"GISJOIN":"G33001100025","pct_black":0.0},"geometry":{"type":"Polygon","coordinates":[[[-71.41859700058812,42.961494000087924],[-71.43155100050244,42.95859400007608],[-71.44468799997635,42.95414799970473],[-71.4503620005997,42.960928999672106],[-71.45874299996572,42.97323300038905],[-71.45611300041797,42.97273299965386],[-71.4395209997684,42.97351800002599],[-71.43583699968407,42.97310200003322],[-71.42742100033608,42.97395999966617],[-71.42472299997038,42.97122699991896],[-71.42010600009328,42.962648000112765],[-71.41859700058812,42.961494000087924]]]}},{"id":"873","type":"Feature","properties":{"GISJOIN":"G33001100026","pct_black":1.22},"geometry":{"type":"Polygon","coordinates":[[[-71.40389499997987,42.95522600022141],[-71.38696400042558,42.942209999665195],[-71.38398999978013,42.93824399969928],[-71.4513100000046,42.930685000167585],[-71.44180999994622,42.88958599992856],[-71.45382399984378,42.90340800040689],[-71.45268000070648,42.9110689997284],[-71.45442000016453,42.920281000301415],[-71.4537199995401,42.92708100000662],[-71.45532099968275,42.931181000357476],[-71.45602099986522,42.93528100037625],[-71.45891499961644,42.94029700002399],[-71.46071999998084,42.94731400038155],[-71.45623000024558,42.948377999639305],[-71.45015899946955,42.95218400028739],[-71.43919999971976,42.95612800001727],[-71.44078899963118,42.955330000079776],[-71.43074099955255,42.95882099990759],[-71.41704699973413,42.96186599985806],[-71.40856299976309,42.95977000009478],[-71.40389499997987,42.95522600022141]]]}},{"id":"874","type":"Feature","properties":{"GISJOIN":"G33001100027","pct_black":0.0},"geometry":{"type":"Polygon","coordinates":[[[-71.51852100028326,43.06891399993474],[-71.5065419996709,43.02653599960563],[-71.50076299980684,43.00174799973066],[-71.50194899981211,43.00164299957901],[-71.50011200023262,42.99988300001445],[-71.4998119997009,42.99808299957654],[-71.50611200006853,43.00188300033026],[-71.50681199955436,43.00318299967753],[-71.51431199999718,43.00668299983351],[-71.51820100029505,43.01113899982961],[-71.518648999755,43.0127549998966],[-71.5218489999628,43.013858999880384],[-71.52458499970982,43.015731000333865],[-71.52733499952247,43.014222000277954],[-71.52908099984967,43.01240300031302],[-71.52962499943536,43.01093100034257],[-71.53220100016924,43.01238700004217],[-71.53548099978272,43.01120299961588],[-71.53892099937106,43.013059000167104],[-71.54466500014979,43.013410999791624],[-71.54509699986768,43.014227000238215],[-71.54383300037074,43.01574700047504],[-71.5448250002191,43.01630699973334],[-71.55755799982724,43.01632400032962],[-71.56117000020951,43.0156410002752],[-71.56372699970086,43.01652900036171],[-71.56809000023271,43.01689900004574],[-71.57212199965224,43.01617900007283],[-71.5738500004764,43.015027000057955],[-71.5732090002783,43.014082999722476],[-71.57334799995948,43.013203000372684],[-71.5726690000401,43.01331099962045],[-71.57139600009155,43.008815000189735],[-71.56975799964366,43.00716799950689],[-71.56767700013822,43.003532999989],[-71.56360499984417,42.99986800018536],[-71.56222900015354,42.99392600036682],[-71.55826699948736,42.99095500012449],[-71.55612899973745,42.988564999635955],[-71.55360200016156,42.98185499993395],[-71.55276399941478,42.97596800017948],[-71.61711499979842,42.97177900016815],[-71.62363699978276,42.996849000187886],[-71.63160400045604,43.0227910001355],[-71.63313600047765,43.02425000040699],[-71.6357670002467,43.024458000327215],[-71.63786600031706,43.02397600025744],[-71.64053100058187,43.02505899980372],[-71.63955300035742,43.02665200008533],[-71.63850599997637,43.03296099965016],[-71.63486100014839,43.03355999973181],[-71.64125199974015,43.05417300028419],[-71.54684200047137,43.065121999867074],[-71.51852100028326,43.06891399993474]]]}},{"id":"875","type":"Feature","properties":{"GISJOIN":"G33001100028","pct_black":0.13},"geometry":{"type":"Polygon","coordinates":[[[-71.4998119997009,42.99808299957654],[-71.49664399993216,42.98272300012705],[-71.51955699959184,42.98024299955672],[-71.53894900012311,42.97660699966681],[-71.55276399941478,42.97596800017948],[-71.55360200016156,42.98185499993395],[-71.55612899973745,42.988564999635955],[-71.55826699948736,42.99095500012449],[-71.56222900015354,42.99392600036682],[-71.56360499984417,42.99986800018536],[-71.56767700013822,43.003532999989],[-71.56975799964366,43.00716799950689],[-71.57139600009155,43.008815000189735],[-71.5726690000401,43.01331099962045],[-71.57334799995948,43.013203000372684],[-71.5732090002783,43.014082999722476],[-71.57389799938203,43.01491500027065],[-71.57212199965224,43.01617900007283],[-71.56809000023271,43.01689900004574],[-71.56372699970086,43.01652900036171],[-71.56117000020951,43.0156410002752],[-71.55755799982724,43.01632400032962],[-71.5448250002191,43.01630699973334],[-71.54383300037074,43.01574700047504],[-71.54509699986768,43.014227000238215],[-71.54466500014979,43.013410999791624],[-71.53892099937106,43.013059000167104],[-71.53548099978272,43.01120299961588],[-71.53220100016924,43.01238700004217],[-71.52962499943536,43.01093100034257],[-71.52908099984967,43.01240300031302],[-71.52733499952247,43.014222000277954],[-71.52458499970982,43.015731000333865],[-71.5218489999628,43.013858999880384],[-71.518648999755,43.0127549998966],[-71.51820100029505,43.01113899982961],[-71.51431199999718,43.00668299983351],[-71.50681199955436,43.00318299967753],[-71.50611200006853,43.00188300033026],[-71.4998119997009,42.99808299957654]]]}},{"id":"876","type":"Feature","properties":{"GISJOIN":"G33001100029","pct_black":0.12},"geometry":{"type":"Polygon","coordinates":[[[-71.49452099985733,42.98279899978329],[-71.49095100009659,42.9643379997845],[-71.48128200034718,42.965382000396254],[-71.47869999995163,42.966340000165175],[-71.4750110000241,42.96628400046447],[-71.4746109998004,42.963483999959855],[-71.47181099969549,42.95488399972423],[-71.46911099959534,42.952183999553164],[-71.46281100045036,42.94948399979884],[-71.46091800006805,42.947707999951895],[-71.45891499961644,42.94029700002399],[-71.45602099986522,42.93528100037625],[-71.45532099968275,42.931181000357476],[-71.45412000065215,42.928880999908365],[-71.4537199995401,42.92708100000662],[-71.45442000016453,42.920281000301415],[-71.45268000070648,42.9110689997284],[-71.57001299976233,42.89628499968001],[-71.58223499953127,42.94327599995621],[-71.60870700053678,42.93992999982759],[-71.61524100003408,42.96429800031097],[-71.61493799966327,42.96516099991081],[-71.61578800009892,42.96645700005239],[-71.61711499979842,42.97177900016815],[-71.53894900012311,42.97660699966681],[-71.51789300062529,42.980482999840994],[-71.49452099985733,42.98279899978329]]]}}]}