{"type":"FeatureCollection","features":[{"id":"49","type":"Feature","properties":{"GISJOIN":"G18009703101","pct_black":8.2},"geometry":{"type":"Polygon","coordinates":[[[-86.20298500043786,39.89732599959111],[-86.25984500039374,39.896157000137514],[-86.25989199952518,39.86715899991473],[-86.27047900038329,39.86710499983294],[-86.27462799989085,39.86369799982569],[-86.27100500004906,39.86004400041943],[-86.27029000041365,39.82350500004486],[-86.29573499999888,39.82307600029719],[-86.29766000027084,39.822493000432836],[-86.32729099964125,39.822492000055206],[-86.32812099979716,39.866125000330904],[-86.32537300001266,39.86617599961606],[-86.32599599954698,39.87404899966761],[-86.32629300032625,39.92404200003685],[-86.26330500036347,39.92488900004229],[-86.24120100025071,39.92609299992118],[-86.20308699998844,39.926624999991795],[-86.20298500043786,39.89732599959111]]]}},{"id":"50","type":"Feature","properties":{"GISJOIN":"G18009703102","pct_black":6.57},"geometry":{"type":"Polygon","coordinates":[[[-86.2031389996483,39.868053999556],[-86.25989199952518,39.86715899991473],[-86.25984500039374,39.896157000137514],[-86.20298500043786,39.89732599959111],[-86.20261999997125,39.88632699969986],[-86.2031389996483,39.868053999556]]]}},{"id":"51","type":"Feature","properties":{"GISJOIN":"G18009703103","pct_black":1.4},"geometry":{"type":"Polygon","coordinates":[[[-86.21637899957754,39.82384700029878],[-86.27029000041365,39.82350500004486],[-86.27100500004906,39.86004400041943],[-86.27462799989085,39.86369799982569],[-86.27047900038329,39.86710499983294],[-86.2170819995238,39.867863000014964],[-86.2164840001231,39.85354800003469],[-86.21637899957754,39.82384700029878]]]}},{"id":"52","type":"Feature","properties":{"GISJOIN":"G18009703201","pct_black":0.35},"geometry":{"type":"Polygon","coordinates":[[[-86.14582500038007,39.91254599966681],[-86.16506300057534,39.912433999918356],[-86.16511200037174,39.903560000379315],[-86.16445700007783,39.90228899983554],[-86.16505699955087,39.90087399993959],[-86.16504600004546,39.89763500030853],[-86.2030079995498,39.897361999749535],[-86.20308699998844,39.926624999991795],[-86.14588299997997,39.92716799963705],[-86.14582500038007,39.91254599966681]]]}},{"id":"53","type":"Feature","properties":{"GISJOIN":"G18009703202","pct_black":0.28},"geometry":{"type":"Polygon","coordinates":[[[-86.12191399979355,39.891775999845436],[-86.13373800003805,39.89404100004754],[-86.13514700019309,39.89381699997031],[-86.1372849999846,39.891260000427415],[-86.13761399954171,39.88911899956878],[-86.13435599975303,39.88330999998905],[-86.13382799966465,39.87840500022361],[-86.13305999959405,39.87713799987801],[-86.13301410834038,39.87232057486117],[-86.1341380035033,39.87271745725315],[-86.13454866989545,39.871794221781855],[-86.13982700046625,39.87447100016345],[-86.13894799980805,39.8765689996395],[-86.14123799983695,39.878699000161944],[-86.14593599945995,39.87924200029443],[-86.1458377004971,39.88037406582774],[-86.14512508873966,39.88033847915478],[-86.14506759984748,39.881493324149645],[-86.14304175165258,39.881421981105646],[-86.14321723618367,39.883246355550796],[-86.14184399993175,39.88332500038808],[-86.14147300006434,39.88541700043466],[-86.14224699963113,39.88671099992154],[-86.14581399973407,39.88668900032377],[-86.14588299997997,39.92716799963705],[-86.0761829997083,39.926949999729054],[-86.07408500034033,39.921391999703935],[-86.07443499998836,39.92020599973306],[-86.07616100019548,39.91884100045336],[-86.0837930002586,39.91817699959934],[-86.08871099942942,39.91692699998777],[-86.09059200022284,39.91331499966273],[-86.09117199973964,39.90928399971024],[-86.0929650003519,39.9086939999856],[-86.09465800024931,39.90930200005673],[-86.09525099995304,39.91032899972357],[-86.09483700004445,39.91286199992717],[-86.09543000036557,39.91407899988737],[-86.0988920005578,39.914541999976855],[-86.10179000052433,39.91338500009948],[-86.1038670000428,39.9118290003901],[-86.106013999748,39.907519999616184],[-86.1124460001143,39.90590800025801],[-86.11485799957644,39.904714000412184],[-86.11617399952435,39.90272399998677],[-86.11714100037888,39.897794000207625],[-86.11629899971132,39.89502200023031],[-86.11697800045414,39.89363500000888],[-86.11795900041545,39.89264699962399],[-86.12191399979355,39.891775999845436]]]}},{"id":"54","type":"Feature","properties":{"GISJOIN":"G18009703203","pct_black":0.0},"geometry":{"type":"Polygon","coordinates":[[[-86.06972300008532,39.88338200014611],[-86.12209300059223,39.88324499998407],[-86.12191399979355,39.891775999845436],[-86.11795900041545,39.89264699962399],[-86.11697800045414,39.89363500000888],[-86.11629899971132,39.89502200023031],[-86.11714100037888,39.897794000207625],[-86.11617399952435,39.90272399998677],[-86.11485799957644,39.904714000412184],[-86.1124460001143,39.90590800025801],[-86.106013999748,39.907519999616184],[-86.1038670000428,39.9118290003901],[-86.10179000052433,39.91338500009948],[-86.0988920005578,39.914541999976855],[-86.09543000036557,39.91407899988737],[-86.09483700004445,39.91286199992717],[-86.09525099995304,39.91032899972357],[-86.09465800024931,39.90930200005673],[-86.0929650003519,39.9086939999856],[-86.09117199973964,39.90928399971024],[-86.09059200022284,39.91331499966273],[-86.08871099942942,39.91692699998777],[-86.0837930002586,39.91817699959934],[-86.07616100019548,39.91884100045336],[-86.07443499998836,39.92020599973306],[-86.07408500034033,39.921391999703935],[-86.0761829997083,39.926949999729054],[-86.06919899947918,39.926984999934916],[-86.0693020001788,39.92114500025555],[-86.0698669994128,39.91938600024928],[-86.06927099966906,39.91573199970694],[-86.06972300008532,39.88338200014611]]]}},{"id":"55","type":"Feature","properties":{"GISJOIN":"G18009703204","pct_black":2.99},"geometry":{"type":"Polygon","coordinates":[[[-86.06958500035324,39.86872400025665],[-86.09854800015157,39.86862600037321],[-86.09832499945402,39.88323400035902],[-86.06972300008532,39.88338200014611],[-86.06958500035324,39.86872400025665]]]}},{"id":"56","type":"Feature","properties":{"GISJOIN":"G18009703205","pct_black":0.17},"geometry":{"type":"Polygon","coordinates":[[[-86.09854800015157,39.86862600037321],[-86.12223600016972,39.868676999912005],[-86.12209300059223,39.88324499998407],[-86.09832499945402,39.88323400035902],[-86.09854800015157,39.86862600037321]]]}},{"id":"57","type":"Feature","properties":{"GISJOIN":"G18009703206","pct_black":0.0},"geometry":{"type":"Polygon","coordinates":[[[-86.12191399979355,39.891775999845436],[-86.12223600016972,39.868676999912005],[-86.13388999983832,39.86861599986087],[-86.13642100017906,39.86912600012608],[-86.13630599939872,39.86967500018328],[-86.13303299985212,39.8713889997592],[-86.13305999959405,39.87713799987801],[-86.13382799966465,39.87840500022361],[-86.13435599975303,39.88330999998905],[-86.13761399954171,39.88911899956878],[-86.1372849999846,39.891260000427415],[-86.13514700019309,39.89381699997031],[-86.13373800003805,39.89404100004754],[-86.12191399979355,39.891775999845436]]]}},{"id":"58","type":"Feature","properties":{"GISJOIN":"G18009703207","pct_black":0.0},"geometry":{"type":"Polygon","coordinates":[[[-86.13301410834038,39.87232057486117],[-86.13303299985212,39.8713889997592],[-86.13630599939872,39.86967500018328],[-86.13642100017906,39.86912600012608],[-86.14123600048757,39.869724999664776],[-86.14170999962717,39.87070099994575],[-86.14428000016783,39.870647999683285],[-86.1461359997671,39.86981899966286],[-86.14617899968266,39.87040500016182],[-86.15542100058546,39.87030199990806],[-86.15612800021572,39.871130999929015],[-86.153703999957,39.87252800037635],[-86.152274000245,39.874333000433985],[-86.1554440005597,39.8767709996201],[-86.15544599949901,39.88308300029364],[-86.15432799985231,39.883078999578764],[-86.1543229994195,39.882558000166625],[-86.15174600030146,39.882571999936836],[-86.1517330000736,39.88314100001773],[-86.14308337978126,39.88323136889915],[-86.14304175165258,39.881421981105646],[-86.14506759984748,39.881493324149645],[-86.14512508873966,39.88033847915478],[-86.1458377004971,39.88037406582774],[-86.14593599945995,39.87924200029443],[-86.14123799983695,39.878699000161944],[-86.13894799980805,39.8765689996395],[-86.13982700046625,39.87447100016345],[-86.13454866989545,39.871794221781855],[-86.1341380035033,39.87271745725315],[-86.13301410834038,39.87232057486117]]]}},{"id":"59","type":"Feature","properties":{"GISJOIN":"G18009703208","pct_black":0.16},"geometry":{"type":"Polygon","coordinates":[[[-86.14184399993175,39.88332500038808],[-86.1517330000736,39.88314100001773],[-86.15174600030146,39.882571999936836],[-86.1543229994195,39.882558000166625],[-86.15432799985231,39.883078999578764],[-86.15544599949901,39.88308300029364],[-86.1554440005597,39.8767709996201],[-86.152274000245,39.874333000433985],[-86.153703999957,39.87252800037635],[-86.15879000034609,39.87355200028405],[-86.1650139995233,39.87313700038678],[-86.16506400045078,39.900770999634105],[-86.16445700007783,39.90228899983554],[-86.16511200037174,39.903560000379315],[-86.16506300057534,39.912433999918356],[-86.14582500038007,39.91254599966681],[-86.14581399973407,39.88668900032377],[-86.14224699963113,39.88671099992154],[-86.14147300006434,39.88541700043466],[-86.14184399993175,39.88332500038808]]]}},{"id":"60","type":"Feature","properties":{"GISJOIN":"G18009703209","pct_black":20.48},"geometry":{"type":"Polygon","coordinates":[[[-86.16504600004546,39.89763500030853],[-86.16501700012826,39.872046999752165],[-86.18872000000289,39.871851000142954],[-86.18854699986215,39.868196000020596],[-86.2031389996483,39.868053999556],[-86.20261999997125,39.88632699969986],[-86.20298500043786,39.89732599959111],[-86.16504600004546,39.89763500030853]]]}},{"id":"61","type":"Feature","properties":{"GISJOIN":"G18009703210","pct_black":22.65},"geometry":{"type":"Polygon","coordinates":[[[-86.19752100033439,39.82448400011553],[-86.20203999942714,39.82379400008045],[-86.21637899957754,39.82384700029878],[-86.2164840001231,39.85354800003469],[-86.2170819995238,39.867863000014964],[-86.18840799964059,39.86798300003546],[-86.18824000008291,39.857250999852745],[-86.19056200005048,39.85604199991714],[-86.19563200035707,39.85547399974538],[-86.19806000037522,39.854498999708625],[-86.19752100033439,39.82448400011553]]]}},{"id":"62","type":"Feature","properties":{"GISJOIN":"G18009703211","pct_black":22.33},"geometry":{"type":"Polygon","coordinates":[[[-86.16234399946501,39.85343599959775],[-86.17137400031741,39.844775000176135],[-86.17823600009268,39.83387200004983],[-86.17591700009467,39.833847000006195],[-86.17590800055598,39.83203999988458],[-86.17866300054034,39.83180300032937],[-86.18292299988197,39.829189000105],[-86.18080700014636,39.82474099982902],[-86.19752100033439,39.82448400011553],[-86.19806000037522,39.854498999708625],[-86.19563200035707,39.85547399974538],[-86.19056200005048,39.85604199991714],[-86.18824000008291,39.857250999852745],[-86.18872000000289,39.871851000142954],[-86.16501700012826,39.872046999752165],[-86.16500899946642,39.86826299975164],[-86.15982699994517,39.86840599984589],[-86.16219000052055,39.86220200005359],[-86.16295099965258,39.854603000028575],[-86.16429599942018,39.85317100001871],[-86.16234399946501,39.85343599959775]]]}},{"id":"63","type":"Feature","properties":{"GISJOIN":"G18009703212","pct_black":2.74},"geometry":{"type":"Polygon","coordinates":[[[-86.153703999957,39.87252800037635],[-86.15612800021572,39.871130999929015],[-86.15596400009102,39.87056699999123],[-86.14617899968266,39.87040500016182],[-86.1461359997671,39.86981899966286],[-86.14428000016783,39.870647999683285],[-86.14170999962717,39.87070099994575],[-86.1407949994647,39.86858199969062],[-86.14049899953255,39.863849000323675],[-86.1411150004779,39.85939899990464],[-86.14058400049437,39.854282000009],[-86.1609909998464,39.85407999990299],[-86.16074800026283,39.85467700042951],[-86.16234399946501,39.85343599959775],[-86.16429599942018,39.85317100001871],[-86.16295099965258,39.854603000028575],[-86.16219000052055,39.86220200005359],[-86.15982699994517,39.86840599984589],[-86.16500899946642,39.86826299975164],[-86.1650139995233,39.87313700038678],[-86.15879000034609,39.87355200028405],[-86.153703999957,39.87252800037635]]]}},{"id":"64","type":"Feature","properties":{"GISJOIN":"G18009703213","pct_black":0.0},"geometry":{"type":"Polygon","coordinates":[[[-86.12221000046411,39.862374000351416],[-86.14070700034105,39.86226100015018],[-86.1407949994647,39.86858199969062],[-86.14123600048757,39.869724999664776],[-86.13388999983832,39.86861599986087],[-86.12223600016972,39.868676999912005],[-86.12221000046411,39.862374000351416]]]}},{"id":"65","type":"Feature","properties":{"GISJOIN":"G18009703214","pct_black":0.83},"geometry":{"type":"Polygon","coordinates":[[[-86.11273199965254,39.85504499964325],[-86.12211199995953,39.85500799970818],[-86.12223600016972,39.868676999912005],[-86.09854800015157,39.86862600037321],[-86.09851300017279,39.86694500021949],[-86.10234000002428,39.86422699964017],[-86.11273199965254,39.85504499964325]]]}},{"id":"66","type":"Feature","properties":{"GISJOIN":"G18009703215","pct_black":0.0},"geometry":{"type":"Polygon","coordinates":[[[-86.08396199985026,39.8550740003776],[-86.0855859995235,39.855145000298194],[-86.11273199965254,39.85504499964325],[-86.10234000002428,39.86422699964017],[-86.09851300017279,39.86694500021949],[-86.09854800015157,39.86862600037321],[-86.08426800019451,39.868681000455325],[-86.08394499965495,39.856158999839955],[-86.08445499945579,39.85607300027158],[-86.08396199985026,39.8550740003776]]]}},{"id":"67","type":"Feature","properties":{"GISJOIN":"G18009703216","pct_black":0.24},"geometry":{"type":"Polygon","coordinates":[[[-86.08384099943743,39.84041800005164],[-86.12192499979325,39.840258000243765],[-86.12196499959235,39.84356900035425],[-86.11919400000009,39.849088999900765],[-86.11273199965254,39.85504499964325],[-86.08396199985026,39.8550740003776],[-86.08384099943743,39.84041800005164]]]}},{"id":"68","type":"Feature","properties":{"GISJOIN":"G18009703217","pct_black":0.0},"geometry":{"type":"Polygon","coordinates":[[[-86.11273199965254,39.85504499964325],[-86.11801500007692,39.85042700012303],[-86.12018999956858,39.847628000278704],[-86.13916400018533,39.84754999984278],[-86.14055199967602,39.84700099978633],[-86.1411150004779,39.85939899990464],[-86.14070700034105,39.86226100015018],[-86.12221000046411,39.862374000351416],[-86.12211199995953,39.85500799970818],[-86.11273199965254,39.85504499964325]]]}},{"id":"69","type":"Feature","properties":{"GISJOIN":"G18009703218","pct_black":5.22},"geometry":{"type":"Polygon","coordinates":[[[-86.14055199967602,39.84700099978633],[-86.16429399943745,39.8466750001176],[-86.16976900026098,39.846668999951696],[-86.16074800026283,39.85467700042951],[-86.1609909998464,39.85407999990299],[-86.14058400049437,39.854282000009],[-86.14055199967602,39.84700099978633]]]}},{"id":"70","type":"Feature","properties":{"GISJOIN":"G18009703219","pct_black":38.24},"geometry":{"type":"Polygon","coordinates":[[[-86.15472699974234,39.8468169995754],[-86.15456000026848,39.833738000423196],[-86.17823600009268,39.83387200004983],[-86.16976900026098,39.846668999951696],[-86.15472699974234,39.8468169995754]]]}},{"id":"71","type":"Feature","properties":{"GISJOIN":"G18009703220","pct_black":79.59},"geometry":{"type":"Polygon","coordinates":[[[-86.15448399946774,39.82492999994843],[-86.18078300051388,39.82473599991028],[-86.18292299988197,39.829189000105],[-86.17866300054034,39.83180300032937],[-86.17590800055598,39.83203999988458],[-86.17591700009467,39.833847000006195],[-86.15456000026848,39.833738000423196],[-86.15448399946774,39.82492999994843]]]}},{"id":"72","type":"Feature","properties":{"GISJOIN":"G18009703221","pct_black":40.01},"geometry":{"type":"Polygon","coordinates":[[[-86.14013200016768,39.83239300001533],[-86.14033600030976,39.82534500004716],[-86.15448399946774,39.82492999994843],[-86.15456000026848,39.833738000423196],[-86.14983999951913,39.83379800031362],[-86.14982700004497,39.83227599965174],[-86.14013200016768,39.83239300001533]]]}},{"id":"73","type":"Feature","properties":{"GISJOIN":"G18009703222","pct_black":19.71},"geometry":{"type":"Polygon","coordinates":[[[-86.14013200016768,39.83239300001533],[-86.14982700004497,39.83227599965174],[-86.14983999951913,39.83379800031362],[-86.15456000026848,39.833738000423196],[-86.15462699982365,39.83950900030742],[-86.14029700041667,39.83969200029271],[-86.14013200016768,39.83239300001533]]]}},{"id":"74","type":"Feature","properties":{"GISJOIN":"G18009703223","pct_black":5.35},"geometry":{"type":"Polygon","coordinates":[[[-86.14029700041667,39.83969200029271],[-86.15462699982365,39.83950900030742],[-86.15472699974234,39.8468169995754],[-86.14055199967602,39.84700099978633],[-86.14029700041667,39.83969200029271]]]}},{"id":"75","type":"Feature","properties":{"GISJOIN":"G18009703224","pct_black":1.13},"geometry":{"type":"Polygon","coordinates":[[[-86.12192499979325,39.840258000243765],[-86.13871399988706,39.84017599969455],[-86.14029700041667,39.83969200029271],[-86.14055199967602,39.84700099978633],[-86.13916400018533,39.84754999984278],[-86.12018999956858,39.847628000278704],[-86.12196499959235,39.84356900035425],[-86.12192499979325,39.840258000243765]]]}},{"id":"76","type":"Feature","properties":{"GISJOIN":"G18009703225","pct_black":5.57},"geometry":{"type":"Polygon","coordinates":[[[-86.1308640005472,39.825441000174735],[-86.14033600030976,39.82534500004716],[-86.14029700041667,39.83969200029271],[-86.13871399988706,39.84017599969455],[-86.12192499979325,39.840258000243765],[-86.12178199980883,39.83413899975727],[-86.12730799988242,39.83043200010518],[-86.12786000055637,39.82836899999338],[-86.1308640005472,39.825441000174735]]]}},{"id":"77","type":"Feature","properties":{"GISJOIN":"G18009703226","pct_black":13.91},"geometry":{"type":"Polygon","coordinates":[[[-86.10271200060842,39.82533399968929],[-86.12006299962911,39.82531399961463],[-86.1308640005472,39.825441000174735],[-86.12786000055637,39.82836899999338],[-86.12730799988242,39.83043200010518],[-86.12178199980883,39.83413899975727],[-86.12192499979325,39.840258000243765],[-86.10286900053526,39.84029699979977],[-86.10271200060842,39.82533399968929]]]}},{"id":"78","type":"Feature","properties":{"GISJOIN":"G18009703227","pct_black":1.6},"geometry":{"type":"Polygon","coordinates":[[[-86.083771999633,39.82551499985326],[-86.10271200060842,39.82533399968929],[-86.10286900053526,39.84029699979977],[-86.08384099943743,39.84041800005164],[-86.083771999633,39.82551499985326]]]}},{"id":"79","type":"Feature","properties":{"GISJOIN":"G18009703301","pct_black":0.0},"geometry":{"type":"Polygon","coordinates":[[[-85.97255800027972,39.92684000015447],[-85.97457699980416,39.92504699984363],[-85.97692299963316,39.92513299995784],[-85.97510200041116,39.92446500026012],[-85.97631599975823,39.92198899954536],[-85.97738500057999,39.92158499966877],[-85.97637700061365,39.92149699968103],[-85.97837699951126,39.918915999791395],[-85.9779670002248,39.91852300035773],[-85.97853699979612,39.917731999874924],[-85.97941300010169,39.917428000083156],[-85.97909899952474,39.91694099958589],[-85.98033199981523,39.915151999963825],[-85.98180099978984,39.91573999990404],[-85.98316499954964,39.915334999851765],[-85.98052900000641,39.914480999968994],[-85.98242500050362,39.91246600001389],[-85.98330399946887,39.91270100034053],[-85.98305700030821,39.91184800007569],[-85.98580399980852,39.9117910003527],[-85.98496600024963,39.911340999956984],[-85.98579899953111,39.909747999613174],[-85.98670700050059,39.90998500007557],[-85.98656799998686,39.90869100008477],[-85.98554899962309,39.90780800012559],[-85.98686699972068,39.906518000245185],[-85.98896600029182,39.90278399981996],[-85.98848399988024,39.9017030001313],[-85.98965599980315,39.90022699977393],[-85.99236300052696,39.89946199987173],[-85.99229399952898,39.898181999849754],[-85.99452499966183,39.89435899986744],[-85.9974520000958,39.891032000182975],[-85.99864099958457,39.88990700026111],[-85.99962999963289,39.890884000222066],[-86.00077599998632,39.88902900043935],[-86.00124099987363,39.886150000397954],[-86.0048450001219,39.88413099993769],[-86.00582799972999,39.879329000387486],[-86.01170599998581,39.87902100004677],[-86.01390499972226,39.87731599968652],[-86.01382400018849,39.876283999775765],[-86.01774299978982,39.8762859997861],[-86.0174729994688,39.8796889999427],[-86.02192699995106,39.87831700022822],[-86.02229200012971,39.87624299958772],[-86.03292700028591,39.8762739997624],[-86.03291200033773,39.87587300000058],[-86.03582599996896,39.87575300014266],[-86.0343580001747,39.8782409996358],[-86.0330289995563,39.878634999988186],[-86.03301299959308,39.88345999981728],[-86.06972300008532,39.88338200014611],[-86.06927099966906,39.91573199970694],[-86.0698669994128,39.91938600024928],[-86.0693020001788,39.92114500025555],[-86.06919899947918,39.926984999934916],[-86.01385699962698,39.927392000302774],[-85.97255800027972,39.92684000015447]]]}},{"id":"80","type":"Feature","properties":{"GISJOIN":"G18009703302","pct_black":0.39},"geometry":{"type":"Polygon","coordinates":[[[-85.95312300054523,39.82677699998389],[-85.99106899999623,39.82628199977465],[-85.99154999993014,39.85569899982339],[-85.99866399951489,39.8555849998462],[-85.98915400005522,39.86054299959069],[-85.99001100010011,39.86306900021177],[-85.99194300022705,39.86305000004303],[-85.99188499989873,39.866468999757494],[-85.9964592786567,39.86657072512521],[-85.99650496413597,39.86883093875676],[-85.99992496658534,39.86886990842361],[-86.00005299984844,39.88371199966035],[-85.99521399942708,39.88385000005193],[-85.99492199967588,39.88720800035507],[-85.99023000019903,39.88737000008877],[-85.99043900013382,39.89103500017129],[-85.9974520000958,39.891032000182975],[-85.99452499966183,39.89435899986744],[-85.99229399952898,39.898181999849754],[-85.99236300052696,39.89946199987173],[-85.98965599980315,39.90022699977393],[-85.98848399988024,39.9017030001313],[-85.98896600029182,39.90278399981996],[-85.98686699972068,39.906518000245185],[-85.98554899962309,39.90780800012559],[-85.98656799998686,39.90869100008477],[-85.98670700050059,39.90998500007557],[-85.98579899953111,39.909747999613174],[-85.98496600024963,39.911340999956984],[-85.98580399980852,39.9117910003527],[-85.98305700030821,39.91184800007569],[-85.98330399946887,39.91270100034053],[-85.98247400040417,39.912428999929915],[-85.98052900000641,39.914480999968994],[-85.98316499954964,39.915334999851765],[-85.98180099978984,39.91573999990404],[-85.98033199981523,39.915151999963825],[-85.97909899952474,39.91694099958589],[-85.97941300010169,39.917428000083156],[-85.9779670002248,39.91852300035773],[-85.97837699951126,39.918915999791395],[-85.97637700061365,39.92149699968103],[-85.97738500057999,39.92158499966877],[-85.97631599975823,39.92198899954536],[-85.97510200041116,39.92446500026012],[-85.97692299963316,39.92513299995784],[-85.97457699980416,39.92504699984363],[-85.97255800027972,39.92684000015447],[-85.93758700041583,39.92713700006866],[-85.93737900003546,39.92643399956607],[-85.93810399995021,39.92282299955691],[-85.93806700052762,39.86981199987853],[-85.9540130003067,39.869645999942435],[-85.95312300054523,39.82677699998389]]]}},{"id":"81","type":"Feature","properties":{"GISJOIN":"G18009703303","pct_black":7.92},"geometry":{"type":"Polygon","coordinates":[[[-85.98915400005522,39.86054299959069],[-86.01947800003661,39.84473000001184],[-86.01959600009222,39.847636999829554],[-86.02722499976322,39.84785000041283],[-86.02714400019818,39.854935000191276],[-86.03174299968303,39.85497400011239],[-86.03222600036509,39.86212700038426],[-86.03677399964813,39.86243999980231],[-86.03422500049084,39.86916199959762],[-86.03702200022735,39.86878900031615],[-86.0388970001377,39.86938099972238],[-86.03852400050528,39.87039599962681],[-86.03920000020032,39.87279900039963],[-86.03795800024508,39.874415000422815],[-86.03582599996896,39.87575300014266],[-86.03291200033773,39.87587300000058],[-86.03292700028591,39.8762739997624],[-86.02229200012971,39.87624299958772],[-86.02192699995106,39.87831700022822],[-86.0174729994688,39.8796889999427],[-86.01774299978982,39.8762859997861],[-86.01382400018849,39.876283999775765],[-86.01390499972226,39.87731599968652],[-86.01170599998581,39.87902100004677],[-86.00582799972999,39.879329000387486],[-86.0048450001219,39.88413099993769],[-86.00124099987363,39.886150000397954],[-86.00077599998632,39.88902900043935],[-85.99962999963289,39.890884000222066],[-85.99864099958457,39.88990700026111],[-85.9974520000958,39.891032000182975],[-85.99043900013382,39.89103500017129],[-85.99023000019903,39.88737000008877],[-85.99492199967588,39.88720800035507],[-85.99521399942708,39.88385000005193],[-86.00005299984844,39.88371199966035],[-85.99992496658534,39.86886990842361],[-85.99650496413597,39.86883093875676],[-85.9964592786567,39.86657072512521],[-85.99188499989873,39.866468999757494],[-85.99194300022705,39.86305000004303],[-85.99001100010011,39.86306900021177],[-85.98915400005522,39.86054299959069]]]}},{"id":"82","type":"Feature","properties":{"GISJOIN":"G18009703304","pct_black":0.11},"geometry":{"type":"Polygon","coordinates":[[[-86.03582599996896,39.87575300014266],[-86.03795800024508,39.874415000422815],[-86.03914100032279,39.872929000038496],[-86.03851999943585,39.8703470003779],[-86.0388970001377,39.86938099972238],[-86.03702200022735,39.86878900031615],[-86.03422500049084,39.86916199959762],[-86.03677399964813,39.86243999980231],[-86.03222600036509,39.86212700038426],[-86.03174299968303,39.85497400011239],[-86.08396199985026,39.8550740003776],[-86.08445499945579,39.85607300027158],[-86.08394499965495,39.856158999839955],[-86.08426800019451,39.868681000455325],[-86.06958500035324,39.86872400025665],[-86.06972300008532,39.88338200014611],[-86.03301299959308,39.88345999981728],[-86.0330289995563,39.878634999988186],[-86.0343580001747,39.8782409996358],[-86.03582599996896,39.87575300014266]]]}},{"id":"83","type":"Feature","properties":{"GISJOIN":"G18009703305","pct_black":0.0},"geometry":{"type":"Polygon","coordinates":[[[-86.04606400039468,39.84039700006632],[-86.08384099943743,39.84041800005164],[-86.08396199985026,39.8550740003776],[-86.0471299997151,39.85504300002538],[-86.04698600051695,39.852050000322095],[-86.04596399984796,39.849815999670376],[-86.046853000572,39.85113900009178],[-86.04621700028821,39.848619999991044],[-86.04606400039468,39.84039700006632]]]}},{"id":"84","type":"Feature","properties":{"GISJOIN":"G18009703306","pct_black":0.56},"geometry":{"type":"Polygon","coordinates":[[[-86.02714400019818,39.854935000191276],[-86.02715499971582,39.84056500038437],[-86.02752800033574,39.84034699982027],[-86.04606400039468,39.84039700006632],[-86.04621700028821,39.848619999991044],[-86.046853000572,39.85113900009178],[-86.04596399984796,39.849815999670376],[-86.04698600051695,39.852050000322095],[-86.0471299997151,39.85504300002538],[-86.02714400019818,39.854935000191276]]]}},{"id":"85","type":"Feature","properties":{"GISJOIN":"G18009703307","pct_black":0.0},"geometry":{"type":"Polygon","coordinates":[[[-85.99131899951104,39.8410019997534],[-86.02715499971582,39.84056500038437],[-86.02722499976322,39.84785000041283],[-86.01959600009222,39.847636999829554],[-86.01947800003661,39.84473000001184],[-85.99866399951489,39.8555849998462],[-85.99154999993014,39.85569899982339],[-85.99131899951104,39.8410019997534]]]}},{"id":"86","type":"Feature","properties":{"GISJOIN":"G18009703308","pct_black":1.3},"geometry":{"type":"Polygon","coordinates":[[[-85.99106899999623,39.82628199977465],[-86.04588899956268,39.82575500018754],[-86.04606400039468,39.84039700006632],[-85.99131899951104,39.8410019997534],[-85.99106899999623,39.82628199977465]]]}},{"id":"87","type":"Feature","properties":{"GISJOIN":"G18009703309","pct_black":0.0},"geometry":{"type":"Polygon","coordinates":[[[-86.04588899956268,39.82575500018754],[-86.0647809996746,39.82552099968631],[-86.06500699992807,39.840366999875975],[-86.04606400039468,39.84039700006632],[-86.04588899956268,39.82575500018754]]]}},{"id":"88","type":"Feature","properties":{"GISJOIN":"G18009703310","pct_black":4.6},"geometry":{"type":"Polygon","coordinates":[[[-86.0647809996746,39.82552099968631],[-86.083771999633,39.82551499985326],[-86.08384099943743,39.84041800005164],[-86.06500699992807,39.840366999875975],[-86.0647809996746,39.82552099968631]]]}},{"id":"89","type":"Feature","properties":{"GISJOIN":"G18009703401","pct_black":2.14},"geometry":{"type":"Polygon","coordinates":[[[-86.27000300040186,39.80175700010991],[-86.27167099968875,39.800772000139276],[-86.27358300016593,39.80061699998191],[-86.28031499960073,39.803038000323184],[-86.28894499972162,39.80473600042623],[-86.28849700060971,39.781666999766564],[-86.28917600011181,39.77979300029923],[-86.28902400018347,39.76069999980495],[-86.32674300043259,39.75980399974263],[-86.326915999698,39.77781000030488],[-86.32638499992557,39.779539000303465],[-86.32729099964125,39.822492000055206],[-86.29766000027084,39.822493000432836],[-86.29573499999888,39.82307600029719],[-86.27029000041365,39.82350500004486],[-86.27000300040186,39.80175700010991]]]}},{"id":"90","type":"Feature","properties":{"GISJOIN":"G18009703402","pct_black":0.8},"geometry":{"type":"Polygon","coordinates":[[[-86.25102900014015,39.804248999967555],[-86.25080500048847,39.79165600037129],[-86.26402899991989,39.79694399993249],[-86.2654489994095,39.79847100007324],[-86.2651479995314,39.79879400017713],[-86.27000300040186,39.80175700010991],[-86.27029000041365,39.82350500004486],[-86.25617299953137,39.82380699977875],[-86.2557119995122,39.804234000279585],[-86.25102900014015,39.804248999967555]]]}},{"id":"91","type":"Feature","properties":{"GISJOIN":"G18009703403","pct_black":0.25},"geometry":{"type":"Polygon","coordinates":[[[-86.24009799948695,39.823969000380174],[-86.23974800025017,39.802017999846306],[-86.25098499949789,39.80191499994935],[-86.25102900014015,39.804248999967555],[-86.2557119995122,39.804234000279585],[-86.25617299953137,39.82380699977875],[-86.24009799948695,39.823969000380174]]]}},{"id":"92","type":"Feature","properties":{"GISJOIN":"G18009703404","pct_black":0.97},"geometry":{"type":"Polygon","coordinates":[[[-86.22576799966188,39.80955300019435],[-86.23987099990336,39.80937100037258],[-86.24009799948695,39.823969000380174],[-86.22600399984061,39.82390199961526],[-86.22576799966188,39.80955300019435]]]}},{"id":"93","type":"Feature","properties":{"GISJOIN":"G18009703405","pct_black":1.01},"geometry":{"type":"Polygon","coordinates":[[[-86.19669999975913,39.80993000006997],[-86.22576799966188,39.80955300019435],[-86.22600399984061,39.82390199961526],[-86.20203999942714,39.82379400008045],[-86.19752100033439,39.82448400011553],[-86.19674800017471,39.821036999947275],[-86.19669999975913,39.80993000006997]]]}},{"id":"94","type":"Feature","properties":{"GISJOIN":"G18009703406","pct_black":5.17},"geometry":{"type":"Polygon","coordinates":[[[-86.19669999975913,39.80993000006997],[-86.19695199944196,39.789043999883056],[-86.20076999984951,39.788002000143834],[-86.21581200046256,39.78782999988017],[-86.2161119997577,39.80970400028806],[-86.19669999975913,39.80993000006997]]]}},{"id":"95","type":"Feature","properties":{"GISJOIN":"G18009703407","pct_black":0.0},"geometry":{"type":"Polygon","coordinates":[[[-86.21581200046256,39.78782999988017],[-86.23952300035808,39.78743399978557],[-86.23987099990336,39.80937100037258],[-86.2161119997577,39.80970400028806],[-86.21581200046256,39.78782999988017]]]}},{"id":"96","type":"Feature","properties":{"GISJOIN":"G18009703408","pct_black":0.0},"geometry":{"type":"Polygon","coordinates":[[[-86.23952300035808,39.78743399978557],[-86.25080500048847,39.79165600037129],[-86.25098499949789,39.80191499994935],[-86.23974800025017,39.802017999846306],[-86.23952300035808,39.78743399978557]]]}},{"id":"97","type":"Feature","properties":{"GISJOIN":"G18009703409","pct_black":0.12},"geometry":{"type":"Polygon","coordinates":[[[-86.27000300040186,39.80175700010991],[-86.2651479995314,39.79879400017713],[-86.2654489994095,39.79847100007324],[-86.26402899991989,39.79694399993249],[-86.25080500048847,39.79165600037129],[-86.25059799972078,39.7799689995908],[-86.28917500015086,39.77922099967285],[-86.28849700060971,39.781666999766564],[-86.28894499972162,39.80473600042623],[-86.28031499960073,39.803038000323184],[-86.27358300016593,39.80061699998191],[-86.27167099968875,39.800772000139276],[-86.27000300040186,39.80175700010991]]]}},{"id":"98","type":"Feature","properties":{"GISJOIN":"G18009703410","pct_black":0.0},"geometry":{"type":"Polygon","coordinates":[[[-86.23952300035808,39.78743399978557],[-86.22564893618241,39.78760955994739],[-86.2254230006324,39.780357999650114],[-86.23406800018077,39.7802259998415],[-86.23410300005712,39.77589599996649],[-86.23910699965572,39.775945000270816],[-86.23929099948886,39.77552900005169],[-86.2436510002729,39.7771309996659],[-86.24411400018354,39.78006199993219],[-86.25059799972078,39.7799689995908],[-86.25080500048847,39.79165600037129],[-86.23952300035808,39.78743399978557]]]}},{"id":"99","type":"Feature","properties":{"GISJOIN":"G18009703411","pct_black":0.18},"geometry":{"type":"Polygon","coordinates":[[[-86.21058800020305,39.78060500035178],[-86.2254230006324,39.780357999650114],[-86.22564893618241,39.78760955994739],[-86.21103099962912,39.78787899952324],[-86.21058800020305,39.78060500035178]]]}},{"id":"100","type":"Feature","properties":{"GISJOIN":"G18009703412","pct_black":64.96},"geometry":{"type":"Polygon","coordinates":[[[-86.19673899997967,39.78073499968221],[-86.21058800020305,39.78060500035178],[-86.21103099962912,39.78787899952324],[-86.20076999984951,39.788002000143834],[-86.19695199944196,39.789043999883056],[-86.19673899997967,39.78073499968221]]]}},{"id":"101","type":"Feature","properties":{"GISJOIN":"G18009703413","pct_black":81.51},"geometry":{"type":"Polygon","coordinates":[[[-86.19690900047415,39.771159000051036],[-86.20519900053698,39.77429699979442],[-86.20519299964467,39.78067599969703],[-86.1969730000989,39.78073699994069],[-86.19690900047415,39.771159000051036]]]}},{"id":"102","type":"Feature","properties":{"GISJOIN":"G18009703414","pct_black":0.0},"geometry":{"type":"Polygon","coordinates":[[[-86.20656999956451,39.774603999842775],[-86.19690900047415,39.771159000051036],[-86.19690099968426,39.766238999595124],[-86.20650599989366,39.76528300031968],[-86.20656999956451,39.774603999842775]]]}},{"id":"103","type":"Feature","properties":{"GISJOIN":"G18009703415","pct_black":17.56},"geometry":{"type":"Polygon","coordinates":[[[-86.2060120003912,39.774608999979506],[-86.20656999956451,39.774603999842775],[-86.20650599989366,39.76528300031968],[-86.21178200037302,39.764727999595074],[-86.21956899960549,39.76270399990188],[-86.22161699971772,39.765130999648335],[-86.21585000015332,39.76532099998176],[-86.21613299945659,39.77844399997943],[-86.2060120003912,39.774608999979506]]]}},{"id":"104","type":"Feature","properties":{"GISJOIN":"G18009703416","pct_black":30.19},"geometry":{"type":"Polygon","coordinates":[[[-86.20519299964467,39.78067599969703],[-86.20519900053698,39.77429699979442],[-86.21613299945659,39.77844399997943],[-86.2160229994987,39.78051999973068],[-86.20519299964467,39.78067599969703]]]}},{"id":"105","type":"Feature","properties":{"GISJOIN":"G18009703417","pct_black":8.09},"geometry":{"type":"Polygon","coordinates":[[[-86.2160229994987,39.78051999973068],[-86.21585000015332,39.76532099998176],[-86.22161699971772,39.765130999648335],[-86.21956899960549,39.76270399990188],[-86.22012700057601,39.76235200008137],[-86.2295910001346,39.7620279997311],[-86.23451599969123,39.76378099999555],[-86.23405299999074,39.76903999987093],[-86.23436199958944,39.77161000008965],[-86.24430800042596,39.77217100007389],[-86.2446269567798,39.775770892104],[-86.24114300046534,39.776195000255356],[-86.23929099948886,39.77552900005169],[-86.23910699965572,39.775945000270816],[-86.23410300005712,39.77589599996649],[-86.23406800018077,39.7802259998415],[-86.2160229994987,39.78051999973068]]]}},{"id":"106","type":"Feature","properties":{"GISJOIN":"G18009703418","pct_black":0.0},"geometry":{"type":"Polygon","coordinates":[[[-86.24114300046534,39.776195000255356],[-86.2446269567798,39.775770892104],[-86.24430800042596,39.77217100007389],[-86.23436199958944,39.77161000008965],[-86.23405299999074,39.76903999987093],[-86.23451599969123,39.76378099999555],[-86.2295910001346,39.7620279997311],[-86.25026599990287,39.76157299995649],[-86.25059799972078,39.7799689995908],[-86.24411400018354,39.78006199993219],[-86.2438349995437,39.77733499994696],[-86.24114300046534,39.776195000255356]]]}},{"id":"107","type":"Feature","properties":{"GISJOIN":"G18009703419","pct_black":0.41},"geometry":{"type":"Polygon","coordinates":[[[-86.25026599990287,39.76157299995649],[-86.28902400018347,39.76069999980495],[-86.28917500015086,39.77922099967285],[-86.25059799972078,39.7799689995908],[-86.25026599990287,39.76157299995649]]]}},{"id":"108","type":"Feature","properties":{"GISJOIN":"G18009703420","pct_black":10.02},"geometry":{"type":"Polygon","coordinates":[[[-86.29773999976784,39.71992900021079],[-86.32659099988746,39.71948599994336],[-86.32674300043259,39.75980399974263],[-86.28902400018347,39.76069999980495],[-86.28882399939992,39.737570000180455],[-86.29819100000063,39.73545100000539],[-86.29907743496399,39.727537773612816],[-86.29851700003553,39.72740200022071],[-86.29773999976784,39.71992900021079]]]}},{"id":"109","type":"Feature","properties":{"GISJOIN":"G18009703421","pct_black":0.0},"geometry":{"type":"Polygon","coordinates":[[[-86.26548993844673,39.72033446048553],[-86.29773999976784,39.71992900021079],[-86.29851700003553,39.72740200022071],[-86.29907743496399,39.727537773612816],[-86.29819100000063,39.73545100000539],[-86.28882399939992,39.737570000180455],[-86.28902400018347,39.76069999980495],[-86.26986300020931,39.761130000101524],[-86.26979452671692,39.72375226783844],[-86.26548993844673,39.72033446048553]]]}},{"id":"110","type":"Feature","properties":{"GISJOIN":"G18009703422","pct_black":0.0},"geometry":{"type":"Polygon","coordinates":[[[-86.25026599990287,39.76157299995649],[-86.25033999965547,39.7203889997846],[-86.26548993844673,39.72033446048553],[-86.26979452671692,39.72375226783844],[-86.26986300020931,39.761130000101524],[-86.25026599990287,39.76157299995649]]]}},{"id":"111","type":"Feature","properties":{"GISJOIN":"G18009703423","pct_black":0.3},"geometry":{"type":"Polygon","coordinates":[[[-86.22511200047609,39.720687000142874],[-86.23454999996179,39.72021800009857],[-86.25033999965547,39.7203889997846],[-86.25025399998542,39.74317899976171],[-86.23463500015107,39.74227500019653],[-86.22524199998468,39.74258200016954],[-86.22511200047609,39.720687000142874]]]}},{"id":"112","type":"Feature","properties":{"GISJOIN":"G18009703424","pct_black":0.0},"geometry":{"type":"Polygon","coordinates":[[[-86.20810599972779,39.75053500027481],[-86.20397900002001,39.74703300044917],[-86.20101399993064,39.74542700043455],[-86.20032800000438,39.742268999987786],[-86.2009039999266,39.74111999970338],[-86.20048000016227,39.739309999789675],[-86.19946499953224,39.73788400016474],[-86.19619000032363,39.736839000078845],[-86.19618099971052,39.721585000282396],[-86.22511200047609,39.720687000142874],[-86.22524199998468,39.74258200016954],[-86.23463500015107,39.74227500019653],[-86.25026700042886,39.74322399995127],[-86.25019800032209,39.74730999963205],[-86.2138400004886,39.756150999895176],[-86.2121159997975,39.75536899996623],[-86.20810499994884,39.7518229997166],[-86.20810599972779,39.75053500027481]]]}},{"id":"113","type":"Feature","properties":{"GISJOIN":"G18009703425","pct_black":0.28},"geometry":{"type":"Polygon","coordinates":[[[-86.21607800036485,39.755608000116595],[-86.22435000059407,39.753486999953545],[-86.25019800032209,39.74730999963205],[-86.25026599990287,39.76157299995649],[-86.22012700057601,39.76235200008137],[-86.22048399978488,39.76211999987584],[-86.21800699974779,39.76185599956437],[-86.21630999991008,39.76015499970388],[-86.21607800036485,39.755608000116595]]]}},{"id":"114","type":"Feature","properties":{"GISJOIN":"G18009703426","pct_black":0.43},"geometry":{"type":"Polygon","coordinates":[[[-86.19673800008235,39.75099299987095],[-86.20810599972779,39.75053500027481],[-86.20810499994884,39.7518229997166],[-86.2121159997975,39.75536899996623],[-86.2138400004886,39.756150999895176],[-86.21607800036485,39.755608000116595],[-86.21630999991008,39.76015499970388],[-86.21806600046384,39.761887999791945],[-86.22048399978488,39.76211999987584],[-86.21876699959985,39.76300999960698],[-86.21152499957711,39.764775999628945],[-86.19690099968426,39.766238999595124],[-86.19673800008235,39.75099299987095]]]}},{"id":"115","type":"Feature","properties":{"GISJOIN":"G18009703427","pct_black":10.46},"geometry":{"type":"Polygon","coordinates":[[[-86.19627699981653,39.73693899960731],[-86.19946499953224,39.73788400016474],[-86.20048000016227,39.739309999789675],[-86.2009039999266,39.74111999970338],[-86.20032800000438,39.742268999987786],[-86.20101399993064,39.74542700043455],[-86.20397900002001,39.74703300044917],[-86.20810599972779,39.75053500027481],[-86.19673800008235,39.75099299987095],[-86.19627699981653,39.73693899960731]]]}},{"id":"116","type":"Feature","properties":{"GISJOIN":"G18009703501","pct_black":96.12},"geometry":{"type":"Polygon","coordinates":[[[-86.18850099969286,39.81735299984455],[-86.18972400058635,39.8140139996773],[-86.18893199965655,39.81099000033121],[-86.18768199971971,39.80919300040798],[-86.17877300011898,39.80071100013967],[-86.19680571933714,39.80055960171399],[-86.19668100000597,39.819391999938254],[-86.19752100033439,39.82448400011553],[-86.18668500030644,39.82460199959575],[-86.18820700002935,39.82063499994252],[-86.18850099969286,39.81735299984455]]]}},{"id":"117","type":"Feature","properties":{"GISJOIN":"G18009703502","pct_black":80.2},"geometry":{"type":"Polygon","coordinates":[[[-86.16396299959185,39.82484099981171],[-86.16385800035704,39.813132000151356],[-86.17499099995457,39.81309899992691],[-86.17731499990987,39.8174049996241],[-86.18850099969286,39.81735299984455],[-86.18820700002935,39.82063499994252],[-86.18668500030644,39.82460199959575],[-86.16396299959185,39.82484099981171]]]}},{"id":"118","type":"Feature","properties":{"GISJOIN":"G18009703503","pct_black":63.63},"geometry":{"type":"Polygon","coordinates":[[[-86.15442100018726,39.8175419999852],[-86.1638910003074,39.81731300046204],[-86.16396299959185,39.82484099981171],[-86.15448399946774,39.82492999994843],[-86.15442100018726,39.8175419999852]]]}},{"id":"119","type":"Feature","properties":{"GISJOIN":"G18009703504","pct_black":60.14},"geometry":{"type":"Polygon","coordinates":[[[-86.13789399962928,39.81799700013009],[-86.15442100018726,39.8175419999852],[-86.15448399946774,39.82492999994843],[-86.1308640005472,39.825441000174735],[-86.13766799940029,39.81941400023198],[-86.13789399962928,39.81799700013009]]]}},{"id":"120","type":"Feature","properties":{"GISJOIN":"G18009703505","pct_black":88.54},"geometry":{"type":"Polygon","coordinates":[[[-86.11216399962773,39.818141000017924],[-86.13483499994948,39.8180460001666],[-86.13789399962928,39.81799700013009],[-86.13766799940029,39.81941400023198],[-86.1308640005472,39.825441000174735],[-86.11178999946421,39.8253319996229],[-86.11172500009276,39.81877300044839],[-86.11216399962773,39.818141000017924]]]}},{"id":"121","type":"Feature","properties":{"GISJOIN":"G18009703506","pct_black":66.43},"geometry":{"type":"Polygon","coordinates":[[[-86.08354600018748,39.81467499990279],[-86.0978589997302,39.814520999803236],[-86.09789900038666,39.818214999999675],[-86.11216399962773,39.818141000017924],[-86.11172500009276,39.81877300044839],[-86.11178999946421,39.8253319996229],[-86.083771999633,39.82551499985326],[-86.08354600018748,39.81467499990279]]]}},{"id":"122","type":"Feature","properties":{"GISJOIN":"G18009703507","pct_black":77.29},"geometry":{"type":"Polygon","coordinates":[[[-86.09789900038666,39.818214999999675],[-86.09779799966323,39.81081700025486],[-86.12159999965458,39.81075200001704],[-86.12166099964443,39.81810500027025],[-86.09789900038666,39.818214999999675]]]}},{"id":"123","type":"Feature","properties":{"GISJOIN":"G18009703508","pct_black":95.7},"geometry":{"type":"Polygon","coordinates":[[[-86.12159999965458,39.81075200001704],[-86.14247599969563,39.8105119996648],[-86.14318000021818,39.812607999927835],[-86.14268400037236,39.81460399987685],[-86.13889099985077,39.81659899959051],[-86.13789399962928,39.81799700013009],[-86.12166099964443,39.81810500027025],[-86.12159999965458,39.81075200001704]]]}},{"id":"124","type":"Feature","properties":{"GISJOIN":"G18009703509","pct_black":92.1},"geometry":{"type":"Polygon","coordinates":[[[-86.14318000021818,39.812607999927835],[-86.14237699970565,39.80980899995275],[-86.14478099953725,39.80758700007351],[-86.14955900032648,39.80576600008687],[-86.1496929996142,39.81761500006217],[-86.13789399962928,39.81799700013009],[-86.13889099985077,39.81659899959051],[-86.14268400037236,39.81460399987685],[-86.14318000021818,39.812607999927835]]]}},{"id":"125","type":"Feature","properties":{"GISJOIN":"G18009703510","pct_black":82.6},"geometry":{"type":"Polygon","coordinates":[[[-86.14960900033361,39.81029399989136],[-86.16905899970743,39.81011499998609],[-86.16908699993301,39.81310699960743],[-86.16385800035704,39.813132000151356],[-86.1638910003074,39.81731300046204],[-86.1496929996142,39.81761500006217],[-86.14960900033361,39.81029399989136]]]}},{"id":"126","type":"Feature","properties":{"GISJOIN":"G18009703511","pct_black":98.09},"geometry":{"type":"Polygon","coordinates":[[[-86.16908699993301,39.81310699960743],[-86.16905899970743,39.81011499998609],[-86.18832799990246,39.80999900043099],[-86.18972400058635,39.8140139996773],[-86.18850099969286,39.81735299984455],[-86.17731499990987,39.8174049996241],[-86.17528699955321,39.81310200014455],[-86.16908699993301,39.81310699960743]]]}},{"id":"127","type":"Feature","properties":{"GISJOIN":"G18009703512","pct_black":97.74},"geometry":{"type":"Polygon","coordinates":[[[-86.16794299997933,39.804282000105935],[-86.17104100042309,39.80427800008531],[-86.17078399983762,39.803740000240644],[-86.1815399997422,39.80372600033063],[-86.18832799990246,39.80999900043099],[-86.16856500009962,39.81011599956143],[-86.16794299997933,39.804282000105935]]]}},{"id":"128","type":"Feature","properties":{"GISJOIN":"G18009703513","pct_black":99.47},"geometry":{"type":"Polygon","coordinates":[[[-86.16928400007174,39.79723299991931],[-86.17489999976512,39.80027300024991],[-86.17773100034975,39.797829000169436],[-86.17862199950872,39.80080399984211],[-86.1815399997422,39.80372600033063],[-86.17078399983762,39.803740000240644],[-86.17104100042309,39.80427800008531],[-86.16794299997933,39.804282000105935],[-86.16792699955143,39.79774100004664],[-86.16926600039908,39.797826999800186],[-86.16928400007174,39.79723299991931]]]}},{"id":"129","type":"Feature","properties":{"GISJOIN":"G18009703514","pct_black":99.68},"geometry":{"type":"Polygon","coordinates":[[[-86.16125200001058,39.802279000104186],[-86.1631210002567,39.80094100032762],[-86.16277500054251,39.7979880002988],[-86.16365800028433,39.79716999983495],[-86.16624599977014,39.79663400032951],[-86.16928400007174,39.79723299991931],[-86.16926600039908,39.797826999800186],[-86.16792699955143,39.79774100004664],[-86.16794600029334,39.806507999955926],[-86.16850300023125,39.80650699972723],[-86.16856500009962,39.81011599956143],[-86.16140999995451,39.810131999877456],[-86.16125200001058,39.802279000104186]]]}},{"id":"130","type":"Feature","properties":{"GISJOIN":"G18009703515","pct_black":81.23},"geometry":{"type":"Polygon","coordinates":[[[-86.14955900032648,39.80576600008687],[-86.15307800023469,39.805597999689375],[-86.15662599990229,39.80348000007022],[-86.16125200001058,39.802279000104186],[-86.16140999995451,39.810131999877456],[-86.14960900033361,39.81029399989136],[-86.14955900032648,39.80576600008687]]]}},{"id":"131","type":"Feature","properties":{"GISJOIN":"G18009703516","pct_black":82.28},"geometry":{"type":"Polygon","coordinates":[[[-86.15096900002885,39.795816000125555],[-86.15499300039934,39.795769000309974],[-86.15497900035562,39.79499400029134],[-86.16874099972226,39.7949539996264],[-86.16928400007174,39.79723299991931],[-86.16624599977014,39.79663400032951],[-86.16365800028433,39.79716999983495],[-86.16277500054251,39.7979880002988],[-86.1631210002567,39.80094100032762],[-86.16125200001058,39.802279000104186],[-86.15662599990229,39.80348000007022],[-86.15307800023469,39.805597999689375],[-86.14955900032648,39.80576600008687],[-86.14955400039067,39.80517200046456],[-86.15074599979575,39.8052069997391],[-86.15096900002885,39.795816000125555]]]}},{"id":"132","type":"Feature","properties":{"GISJOIN":"G18009703517","pct_black":95.7},"geometry":{"type":"Polygon","coordinates":[[[-86.13997800036952,39.79595200014686],[-86.15096900002885,39.795816000125555],[-86.15074599979575,39.8052069997391],[-86.14955400039067,39.80517200046456],[-86.14955900032648,39.80576600008687],[-86.14478099953725,39.80758700007351],[-86.14237699970565,39.80980899995275],[-86.14247599969563,39.8105119996648],[-86.13730100013608,39.81067200037488],[-86.13988800043836,39.800604999713165],[-86.13997800036952,39.79595200014686]]]}},{"id":"133","type":"Feature","properties":{"GISJOIN":"G18009703518","pct_black":99.72},"geometry":{"type":"Polygon","coordinates":[[[-86.13113999973562,39.810734000403684],[-86.13115000034321,39.796628999936864],[-86.13997800036952,39.79595200014686],[-86.13988800043836,39.800604999713165],[-86.13730100013608,39.81067200037488],[-86.13113999973562,39.810734000403684]]]}},{"id":"134","type":"Feature","properties":{"GISJOIN":"G18009703519","pct_black":97.62},"geometry":{"type":"Polygon","coordinates":[[[-86.1119760004826,39.803404000223026],[-86.1310470002339,39.80338599997688],[-86.13113999973562,39.810734000403684],[-86.11207699984533,39.81076100037894],[-86.1119760004826,39.803404000223026]]]}},{"id":"135","type":"Feature","properties":{"GISJOIN":"G18009703520","pct_black":91.04},"geometry":{"type":"Polygon","coordinates":[[[-86.11661599988113,39.795117999996215],[-86.12155300027953,39.79645300036695],[-86.1257349997593,39.79611999983679],[-86.12535900027828,39.79669400002623],[-86.12746400013273,39.79731299970685],[-86.12835299980668,39.795625999590996],[-86.13289399981075,39.79564200040633],[-86.13300399969752,39.796390999662314],[-86.13115000034321,39.796628999936864],[-86.1310470002339,39.80338599997688],[-86.11676300012293,39.80339999983571],[-86.11667799947104,39.79905600017153],[-86.11752199972982,39.798711000280626],[-86.11661599988113,39.795117999996215]]]}},{"id":"136","type":"Feature","properties":{"GISJOIN":"G18009703521","pct_black":74.17},"geometry":{"type":"Polygon","coordinates":[[[-86.10711299980922,39.79606799975231],[-86.11223820755548,39.79635107115772],[-86.111897999585,39.797460999839096],[-86.11661599967029,39.79500599959582],[-86.11752199972982,39.798711000280626],[-86.11667799947104,39.79905600017153],[-86.11676300012293,39.80339999983571],[-86.1119760004826,39.803404000223026],[-86.11207699984533,39.81076100037894],[-86.10731600058728,39.81073299996373],[-86.10711299980922,39.79606799975231]]]}},{"id":"137","type":"Feature","properties":{"GISJOIN":"G18009703522","pct_black":39.63},"geometry":{"type":"Polygon","coordinates":[[[-86.10229400001096,39.79608100023286],[-86.10711299980922,39.79606799975231],[-86.10734799979183,39.81076500021138],[-86.10256800056315,39.81077300017936],[-86.10229400001096,39.79608100023286]]]}},{"id":"138","type":"Feature","properties":{"GISJOIN":"G18009703523","pct_black":38.37},"geometry":{"type":"Polygon","coordinates":[[[-86.08330700009938,39.79623799990931],[-86.10229400001096,39.79608100023286],[-86.10256800056315,39.81077300017936],[-86.09779799966323,39.81081700025486],[-86.0978589997302,39.814520999803236],[-86.08354600018748,39.81467499990279],[-86.08330700009938,39.79623799990931]]]}},{"id":"139","type":"Feature","properties":{"GISJOIN":"G18009703524","pct_black":0.0},"geometry":{"type":"Polygon","coordinates":[[[-86.08328799966516,39.7888680001738],[-86.10224499975314,39.788769000007726],[-86.10229400001096,39.79608100023286],[-86.08330700009938,39.79623799990931],[-86.08328799966516,39.7888680001738]]]}},{"id":"140","type":"Feature","properties":{"GISJOIN":"G18009703525","pct_black":1.68},"geometry":{"type":"Polygon","coordinates":[[[-86.08319600055191,39.78152900022132],[-86.1022159998288,39.78141199994728],[-86.10224499975314,39.788769000007726],[-86.08328799966516,39.7888680001738],[-86.08319600055191,39.78152900022132]]]}},{"id":"141","type":"Feature","properties":{"GISJOIN":"G18009703526","pct_black":0.57},"geometry":{"type":"Polygon","coordinates":[[[-86.10229400001096,39.79608100023286],[-86.1022159998288,39.78141199994728],[-86.11661000012913,39.78134200000627],[-86.11660300041643,39.7940779996049],[-86.1125559998392,39.79618700032153],[-86.10229400001096,39.79608100023286]]]}},{"id":"142","type":"Feature","properties":{"GISJOIN":"G18009703527","pct_black":5.01},"geometry":{"type":"Polygon","coordinates":[[[-86.11661000012913,39.78134200000627],[-86.12644900012813,39.7812949999779],[-86.12648200041174,39.78390800023637],[-86.13120614013513,39.785807462656855],[-86.11660200051523,39.793956000212916],[-86.11661000012913,39.78134200000627]]]}},{"id":"143","type":"Feature","properties":{"GISJOIN":"G18009703528","pct_black":83.54},"geometry":{"type":"Polygon","coordinates":[[[-86.11223820755548,39.79635107115772],[-86.13120614013513,39.785807462656855],[-86.13145199968625,39.78614399962196],[-86.13182899995027,39.78828200025667],[-86.13052699985285,39.7922049997042],[-86.13068700014256,39.79562099971659],[-86.12835299980668,39.795625999590996],[-86.12746400013273,39.79731299970685],[-86.12535900027828,39.79669400002623],[-86.1257349997593,39.79611999983679],[-86.12155300027953,39.79645300036695],[-86.11661599967029,39.79500599959582],[-86.111897999585,39.797460999839096],[-86.11223820755548,39.79635107115772]]]}},{"id":"144","type":"Feature","properties":{"GISJOIN":"G18009703529","pct_black":98.8},"geometry":{"type":"Polygon","coordinates":[[[-86.13068700014256,39.79562099971659],[-86.13052699985285,39.7922049997042],[-86.13180299996638,39.78853400001047],[-86.13996699972469,39.78850899955842],[-86.13997800036952,39.79595200014686],[-86.13300399969752,39.796390999662314],[-86.13289399981075,39.79564200040633],[-86.13068700014256,39.79562099971659]]]}},{"id":"145","type":"Feature","properties":{"GISJOIN":"G18009703530","pct_black":22.26},"geometry":{"type":"Polygon","coordinates":[[[-86.13120614013513,39.785807462656855],[-86.12648200041174,39.78390800023637],[-86.12644900012813,39.7812949999779],[-86.1400420003872,39.78123900032243],[-86.13996699972469,39.78850899955842],[-86.13180299996638,39.78853400001047],[-86.13120614013513,39.785807462656855]]]}},{"id":"146","type":"Feature","properties":{"GISJOIN":"G18009703531","pct_black":92.69},"geometry":{"type":"Polygon","coordinates":[[[-86.13997800036952,39.79595200014686],[-86.14002699995389,39.78067099965006],[-86.14506799971427,39.780712999935744],[-86.14474299964938,39.79587399987969],[-86.13997800036952,39.79595200014686]]]}},{"id":"147","type":"Feature","properties":{"GISJOIN":"G18009703532","pct_black":69.04},"geometry":{"type":"Polygon","coordinates":[[[-86.14506799971427,39.780712999935744],[-86.15212099957364,39.78107499978315],[-86.15236199957124,39.795798999865816],[-86.14474299964938,39.79587399987969],[-86.14506799971427,39.780712999935744]]]}},{"id":"148","type":"Feature","properties":{"GISJOIN":"G18009703533","pct_black":30.13},"geometry":{"type":"Polygon","coordinates":[[[-86.15212099957364,39.78107499978315],[-86.15393800007719,39.781047999728926],[-86.15397100003125,39.78008899972967],[-86.16143001322845,39.78104029334296],[-86.16152900055121,39.794982999676776],[-86.15497900035562,39.79499400029134],[-86.15499300039934,39.795769000309974],[-86.15236199957124,39.795798999865816],[-86.15212099957364,39.78107499978315]]]}},{"id":"149","type":"Feature","properties":{"GISJOIN":"G18009703534","pct_black":68.55},"geometry":{"type":"Polygon","coordinates":[[[-86.16143001322845,39.78104029334296],[-86.1656070001796,39.780978999913046],[-86.16571500016579,39.78836400020409],[-86.16839500054708,39.78831999992734],[-86.16874099972226,39.7949539996264],[-86.16152900055121,39.794982999676776],[-86.16143001322845,39.78104029334296]]]}},{"id":"150","type":"Feature","properties":{"GISJOIN":"G18009703535","pct_black":99.94},"geometry":{"type":"Polygon","coordinates":[[[-86.16928400007174,39.79723299991931],[-86.1684819994265,39.79446499986376],[-86.16839500054708,39.78831999992734],[-86.16571500016579,39.78836400020409],[-86.1656070001796,39.780978999913046],[-86.16617399950009,39.78096499982797],[-86.16513299945672,39.77697100020379],[-86.16507299941047,39.77427700000075],[-86.17051700061116,39.777932999730425],[-86.17055600051229,39.777243999781554],[-86.17317899997605,39.77731700041338],[-86.17328900031265,39.77584500037563],[-86.1757409994167,39.77599299994452],[-86.17588399958359,39.783178999633414],[-86.17510300011243,39.783782000058224],[-86.17444500003417,39.78588500026363],[-86.17517999995982,39.78789500004836],[-86.17639299972106,39.787700999988786],[-86.17791199979656,39.78871700008441],[-86.17880900031228,39.795570999583894],[-86.17822300009115,39.797337000448884],[-86.17489999976512,39.80027300024991],[-86.16928400007174,39.79723299991931]]]}},{"id":"151","type":"Feature","properties":{"GISJOIN":"G18009703536","pct_black":96.02},"geometry":{"type":"Polygon","coordinates":[[[-86.17773100034975,39.797829000169436],[-86.17880900031228,39.795570999583894],[-86.17833400018925,39.79133299990927],[-86.19688799972374,39.791088999715484],[-86.19680571933714,39.80055960171399],[-86.17877300011898,39.80071100013967],[-86.17773100034975,39.797829000169436]]]}},{"id":"152","type":"Feature","properties":{"GISJOIN":"G18009703537","pct_black":87.97},"geometry":{"type":"Polygon","coordinates":[[[-86.1755529995357,39.78095599963472],[-86.17928200021612,39.780049999874144],[-86.18765200053913,39.779726000067605],[-86.19094600002406,39.78075299973438],[-86.19673899997967,39.78073499968221],[-86.19688799972374,39.791088999715484],[-86.17833400018925,39.79133299990927],[-86.17791199979656,39.78871700008441],[-86.17639299972106,39.787700999988786],[-86.17517999995982,39.78789500004836],[-86.17444500003417,39.78588500026363],[-86.17510300011243,39.783782000058224],[-86.17588399958359,39.783178999633414],[-86.17597599999515,39.78124700009281],[-86.1755529995357,39.78095599963472]]]}},{"id":"153","type":"Feature","properties":{"GISJOIN":"G18009703538","pct_black":28.92},"geometry":{"type":"Polygon","coordinates":[[[-86.18962000058147,39.78027599965448],[-86.1901979998602,39.77844600008754],[-86.18864200045917,39.775079000292905],[-86.18601300010866,39.7717039998578],[-86.18879799952624,39.77156200008292],[-86.18826399976136,39.76712100008938],[-86.19690099968426,39.766238999595124],[-86.1969730000989,39.78073699994069],[-86.19117799961897,39.7807730000737],[-86.18962000058147,39.78027599965448]]]}},{"id":"154","type":"Feature","properties":{"GISJOIN":"G18009703539","pct_black":15.98},"geometry":{"type":"Polygon","coordinates":[[[-86.17426300049682,39.77587400013614],[-86.17448599959285,39.771718000310884],[-86.17331199954245,39.771682000187276],[-86.17332200042968,39.76777599994142],[-86.17278900031374,39.76723200028225],[-86.17392100018694,39.76698300006137],[-86.17607499951694,39.76806199986482],[-86.18395200033832,39.77011800038585],[-86.18601300010866,39.7717039998578],[-86.18864200045917,39.775079000292905],[-86.1901979998602,39.77844600008754],[-86.18962000058147,39.78027599965448],[-86.1878349993908,39.77972700028899],[-86.17979899971006,39.78001700030022],[-86.1755529995357,39.78095599963472],[-86.1757409994167,39.77599299994452],[-86.17426300049682,39.77587400013614]]]}},{"id":"155","type":"Feature","properties":{"GISJOIN":"G18009703540","pct_black":98.72},"geometry":{"type":"Polygon","coordinates":[[[-86.17051700061116,39.777932999730425],[-86.16468700041735,39.77396300030483],[-86.16558499983805,39.76840999962723],[-86.16513899988489,39.76723599964614],[-86.17278900031374,39.76723200028225],[-86.17332200042968,39.76777599994142],[-86.17331199954245,39.771682000187276],[-86.17448599959285,39.771718000310884],[-86.17426300049682,39.77587400013614],[-86.17328900031265,39.77584500037563],[-86.17317899997605,39.77731700041338],[-86.17055600051229,39.777243999781554],[-86.17051700061116,39.777932999730425]]]}},{"id":"156","type":"Feature","properties":{"GISJOIN":"G18009703541","pct_black":26.24},"geometry":{"type":"Polygon","coordinates":[[[-86.15397100003125,39.78008899972967],[-86.15446800015685,39.76699599984545],[-86.16513899988489,39.76723599964614],[-86.16558499983805,39.76840999962723],[-86.16468700041735,39.77396300030483],[-86.16617399950009,39.78096499982797],[-86.16143001322845,39.78104029334296],[-86.15397100003125,39.78008899972967]]]}},{"id":"157","type":"Feature","properties":{"GISJOIN":"G18009703542","pct_black":5.44},"geometry":{"type":"Polygon","coordinates":[[[-86.14766399942359,39.78077700019786],[-86.14778199990715,39.77779099972482],[-86.1472400001108,39.777782999746144],[-86.1469519997883,39.776267000029975],[-86.1473300004162,39.76684100024175],[-86.15446800015685,39.76699599984545],[-86.15393800007719,39.781047999728926],[-86.14766399942359,39.78077700019786]]]}},{"id":"158","type":"Feature","properties":{"GISJOIN":"G18009703543","pct_black":3.61},"geometry":{"type":"Polygon","coordinates":[[[-86.14080200049655,39.766936999884166],[-86.1473300004162,39.76684100024175],[-86.1469519997883,39.776267000029975],[-86.1472400001108,39.777782999746144],[-86.14778199990715,39.77779099972482],[-86.14766399942359,39.78077700019786],[-86.14002699995389,39.78067099965006],[-86.14050399981633,39.77204800035341],[-86.14103599953648,39.770939000091865],[-86.13999799951415,39.77098099967493],[-86.13949000005302,39.76806199989298],[-86.14077800006915,39.768085000278916],[-86.14080200049655,39.766936999884166]]]}},{"id":"159","type":"Feature","properties":{"GISJOIN":"G18009703544","pct_black":18.18},"geometry":{"type":"Polygon","coordinates":[[[-86.1306469998648,39.77432099998345],[-86.13346199965905,39.774301999955846],[-86.13342299969449,39.7671290003625],[-86.14080200049655,39.766936999884166],[-86.14077800006915,39.768085000278916],[-86.13949000005302,39.76806199989298],[-86.13999799951415,39.77098099967493],[-86.14103599953648,39.770939000091865],[-86.14050399981633,39.77204800035341],[-86.1400420003872,39.78123900032243],[-86.13072099946609,39.78127700018143],[-86.1306469998648,39.77432099998345]]]}},{"id":"160","type":"Feature","properties":{"GISJOIN":"G18009703545","pct_black":3.34},"geometry":{"type":"Polygon","coordinates":[[[-86.12541999974697,39.76770000041398],[-86.13342299969449,39.7671290003625],[-86.13346199965905,39.774301999955846],[-86.12545099976393,39.77436299988866],[-86.12541999974697,39.76770000041398]]]}},{"id":"161","type":"Feature","properties":{"GISJOIN":"G18009703546","pct_black":0.0},"geometry":{"type":"Polygon","coordinates":[[[-86.12606200016856,39.77435400018893],[-86.1306469998648,39.77432099998345],[-86.13072099946609,39.78127700018143],[-86.12580099964366,39.781303999709245],[-86.12606200016856,39.77435400018893]]]}},{"id":"162","type":"Feature","properties":{"GISJOIN":"G18009703547","pct_black":0.0},"geometry":{"type":"Polygon","coordinates":[[[-86.12135700041445,39.77440000029687],[-86.1218889998061,39.77439499955049],[-86.12181999969137,39.76796600000616],[-86.12541999974697,39.76770000041398],[-86.12545099976393,39.77436299988866],[-86.12606200016856,39.77435400018893],[-86.12580099964366,39.781303999709245],[-86.12132199988683,39.781327999654394],[-86.12135700041445,39.77440000029687]]]}},{"id":"163","type":"Feature","properties":{"GISJOIN":"G18009703548","pct_black":0.0},"geometry":{"type":"Polygon","coordinates":[[[-86.11306800044179,39.77452199990727],[-86.12135700041445,39.77440000029687],[-86.12137799978247,39.781278999579186],[-86.11313000012606,39.781356000086404],[-86.11306800044179,39.77452199990727]]]}},{"id":"164","type":"Feature","properties":{"GISJOIN":"G18009703549","pct_black":0.0},"geometry":{"type":"Polygon","coordinates":[[[-86.10736500004023,39.7746220001835],[-86.11306800044179,39.77452199990727],[-86.11313000012606,39.781356000086404],[-86.10255300002589,39.781409999672825],[-86.103507000276,39.77933099973802],[-86.10657800044359,39.77659400001878],[-86.10736500004023,39.7746220001835]]]}},{"id":"165","type":"Feature","properties":{"GISJOIN":"G18009703550","pct_black":0.0},"geometry":{"type":"Polygon","coordinates":[[[-86.10720599998331,39.76894900037869],[-86.12181999969137,39.76796600000616],[-86.1218889998061,39.77439499955049],[-86.10736500004023,39.7746220001835],[-86.10720599998331,39.76894900037869]]]}},{"id":"166","type":"Feature","properties":{"GISJOIN":"G18009703551","pct_black":0.0},"geometry":{"type":"Polygon","coordinates":[[[-86.09618399998817,39.766457999639385],[-86.10210400061116,39.7661389998257],[-86.10214300048311,39.76920300004757],[-86.10720599998331,39.76894900037869],[-86.10736500004023,39.7746220001835],[-86.09623500056662,39.77476599976565],[-86.09618399998817,39.766457999639385]]]}},{"id":"167","type":"Feature","properties":{"GISJOIN":"G18009703552","pct_black":0.0},"geometry":{"type":"Polygon","coordinates":[[[-86.09623500056662,39.77476599976565],[-86.10101999969416,39.774712999735385],[-86.10736500004023,39.7746220001835],[-86.10657800044359,39.77659400001878],[-86.103507000276,39.77933099973802],[-86.10255300002589,39.781409999672825],[-86.0963840004249,39.781439000408916],[-86.09623500056662,39.77476599976565]]]}},{"id":"168","type":"Feature","properties":{"GISJOIN":"G18009703553","pct_black":0.0},"geometry":{"type":"Polygon","coordinates":[[[-86.08312699980456,39.774892999663535],[-86.09623500056662,39.77476599976565],[-86.0963840004249,39.781439000408916],[-86.08319600055191,39.78152900022132],[-86.08312699980456,39.774892999663535]]]}},{"id":"169","type":"Feature","properties":{"GISJOIN":"G18009703554","pct_black":0.24},"geometry":{"type":"Polygon","coordinates":[[[-86.08303799960281,39.767453999973256],[-86.09618399998817,39.766457999639385],[-86.09623500056662,39.77476599976565],[-86.08312699980456,39.774892999663535],[-86.08303799960281,39.767453999973256]]]}},{"id":"170","type":"Feature","properties":{"GISJOIN":"G18009703555","pct_black":0.0},"geometry":{"type":"Polygon","coordinates":[[[-86.08287499998667,39.75283899986679],[-86.1019390005133,39.75270399966824],[-86.10210400061116,39.7661389998257],[-86.09076399936676,39.766533000373165],[-86.08303799960281,39.767453999973256],[-86.08287499998667,39.75283899986679]]]}},{"id":"171","type":"Feature","properties":{"GISJOIN":"G18009703556","pct_black":3.22},"geometry":{"type":"Polygon","coordinates":[[[-86.10214300048311,39.76920300004757],[-86.1019390005133,39.75270399966824],[-86.12120300027809,39.75244100012232],[-86.12120400037513,39.75747400012779],[-86.11636899949947,39.757805999953284],[-86.11643699957577,39.768362000194315],[-86.10214300048311,39.76920300004757]]]}},{"id":"172","type":"Feature","properties":{"GISJOIN":"G18009703557","pct_black":1.18},"geometry":{"type":"Polygon","coordinates":[[[-86.11642300012433,39.757675999936914],[-86.12359600042629,39.75744700013527],[-86.12359700009485,39.75797799972572],[-86.13068200029764,39.75791399980649],[-86.13061099960726,39.76499099996933],[-86.12271695602449,39.764506773217406],[-86.11642000015705,39.76528900045565],[-86.11642300012433,39.757675999936914]]]}},{"id":"173","type":"Feature","properties":{"GISJOIN":"G18009703558","pct_black":0.0},"geometry":{"type":"Polygon","coordinates":[[[-86.11642000015705,39.76528900045565],[-86.12271695602449,39.764506773217406],[-86.13061099960726,39.76499099996933],[-86.13061399997805,39.759720000300774],[-86.13984100019945,39.75963999969105],[-86.1398090005271,39.763843000212226],[-86.14076800034607,39.764765000172595],[-86.14077700057392,39.7665529996444],[-86.14182199962914,39.7669170003973],[-86.11643699957577,39.768362000194315],[-86.11642000015705,39.76528900045565]]]}},{"id":"174","type":"Feature","properties":{"GISJOIN":"G18009703559","pct_black":0.61},"geometry":{"type":"Polygon","coordinates":[[[-86.13065199967964,39.759707000094004],[-86.1306679995445,39.7523999996395],[-86.1397840000219,39.75232799990834],[-86.13984100019945,39.75963999969105],[-86.13065199967964,39.759707000094004]]]}},{"id":"175","type":"Feature","properties":{"GISJOIN":"G18009703560","pct_black":7.4},"geometry":{"type":"Polygon","coordinates":[[[-86.13985099995882,39.76138399958101],[-86.1397829999015,39.7519989998063],[-86.14924900053413,39.761218999618436],[-86.13985099995882,39.76138399958101]]]}},{"id":"176","type":"Feature","properties":{"GISJOIN":"G18009703561","pct_black":0.0},"geometry":{"type":"Polygon","coordinates":[[[-86.14924900053413,39.761218999618436],[-86.14409644710948,39.756187290071416],[-86.14946500035451,39.75631900044996],[-86.14951699967706,39.755016999831305],[-86.15493600016879,39.75512900032053],[-86.1546860004815,39.76135800020151],[-86.14924900053413,39.761218999618436]]]}},{"id":"177","type":"Feature","properties":{"GISJOIN":"G18009703562","pct_black":25.99},"geometry":{"type":"Polygon","coordinates":[[[-86.13985099995882,39.76138399958101],[-86.1546860004815,39.76135800020151],[-86.15446800015685,39.76699599984545],[-86.14077700057392,39.7665529996444],[-86.14076800034607,39.764765000172595],[-86.1398090005271,39.763843000212226],[-86.13985099995882,39.76138399958101]]]}},{"id":"178","type":"Feature","properties":{"GISJOIN":"G18009703563","pct_black":12.8},"geometry":{"type":"Polygon","coordinates":[[[-86.15446800015685,39.76699599984545],[-86.15489100056965,39.75644400010723],[-86.17105600034945,39.75684900040381],[-86.17240099964715,39.75761100028121],[-86.17345200035986,39.756533000395024],[-86.17463100001387,39.759423999782754],[-86.17319900010689,39.76373499987343],[-86.17321199979058,39.76569899968941],[-86.17392100018694,39.76698300006137],[-86.16922599950941,39.767373000007744],[-86.15446800015685,39.76699599984545]]]}},{"id":"179","type":"Feature","properties":{"GISJOIN":"G18009703564","pct_black":0.0},"geometry":{"type":"Polygon","coordinates":[[[-86.17392100018694,39.76698300006137],[-86.17321199979058,39.76569899968941],[-86.17319900010689,39.76373499987343],[-86.17463100001387,39.759423999782754],[-86.17410799987766,39.75853299965625],[-86.18724499986288,39.7585359999845],[-86.18733199945582,39.767217999770516],[-86.18826399976136,39.76712100008938],[-86.18879799952624,39.77156200008292],[-86.18601300010866,39.7717039998578],[-86.18395200033832,39.77011800038585],[-86.17607499951694,39.76806199986482],[-86.17392100018694,39.76698300006137]]]}},{"id":"180","type":"Feature","properties":{"GISJOIN":"G18009703565","pct_black":0.0},"geometry":{"type":"Polygon","coordinates":[[[-86.18733199945582,39.767217999770516],[-86.18735799971881,39.7512840000782],[-86.19673800008235,39.75099299987095],[-86.19690099968426,39.766238999595124],[-86.18733199945582,39.767217999770516]]]}},{"id":"181","type":"Feature","properties":{"GISJOIN":"G18009703566","pct_black":0.0},"geometry":{"type":"Polygon","coordinates":[[[-86.17345200035986,39.756533000395024],[-86.17453300039558,39.75149500023046],[-86.16916699953104,39.741788999522164],[-86.17307700020748,39.74251099995873],[-86.18131199982058,39.74637600016299],[-86.18405499969757,39.748552999970904],[-86.18546699987576,39.751125999816495],[-86.18735799971881,39.7512840000782],[-86.18724499986288,39.7585359999845],[-86.17410799987766,39.75853299965625],[-86.17345200035986,39.756533000395024]]]}},{"id":"182","type":"Feature","properties":{"GISJOIN":"G18009703567","pct_black":54.62},"geometry":{"type":"Polygon","coordinates":[[[-86.15489100056965,39.75644400010723],[-86.15427399986054,39.75191700021309],[-86.17453300039558,39.75149500023046],[-86.17345200035986,39.756533000395024],[-86.17240099964715,39.75761100028121],[-86.17105600034945,39.75684900040381],[-86.15489100056965,39.75644400010723]]]}},{"id":"183","type":"Feature","properties":{"GISJOIN":"G18009703568","pct_black":0.0},"geometry":{"type":"Polygon","coordinates":[[[-86.1494810001513,39.748228000278274],[-86.15626600005035,39.74814700026704],[-86.15627199939318,39.748796000279576],[-86.15911900035137,39.74876199965298],[-86.1591769996246,39.75172299954017],[-86.15427399986054,39.75191700021309],[-86.15493600016879,39.75512900032053],[-86.14951699967706,39.755016999831305],[-86.1494810001513,39.748228000278274]]]}},{"id":"184","type":"Feature","properties":{"GISJOIN":"G18009703569","pct_black":0.0},"geometry":{"type":"Polygon","coordinates":[[[-86.1494810001513,39.748228000278274],[-86.14940699948393,39.741083000292],[-86.15906300004723,39.74112600024033],[-86.15911900035137,39.74876199965298],[-86.15627199939318,39.748796000279576],[-86.15626600005035,39.74814700026704],[-86.1494810001513,39.748228000278274]]]}},{"id":"185","type":"Feature","properties":{"GISJOIN":"G18009703570","pct_black":0.04},"geometry":{"type":"Polygon","coordinates":[[[-86.1397829999015,39.7519989998063],[-86.1397840004128,39.74134099984064],[-86.14940699948393,39.741083000292],[-86.14946500035451,39.75631900044996],[-86.14409644710948,39.756187290071416],[-86.1397829999015,39.7519989998063]]]}},{"id":"186","type":"Feature","properties":{"GISJOIN":"G18009703571","pct_black":3.76},"geometry":{"type":"Polygon","coordinates":[[[-86.13044900042068,39.74151000001674],[-86.1397840004128,39.74134099984064],[-86.1397840000219,39.75232799990834],[-86.1306679995445,39.7523999996395],[-86.13044900042068,39.74151000001674]]]}},{"id":"187","type":"Feature","properties":{"GISJOIN":"G18009703572","pct_black":13.47},"geometry":{"type":"Polygon","coordinates":[[[-86.12120400037513,39.75747400012779],[-86.1210479994162,39.74512400015048],[-86.12297600038154,39.7451070001648],[-86.12685599969612,39.74251899986421],[-86.13044900042068,39.74151000001674],[-86.13068200029764,39.75791399980649],[-86.12359700009485,39.75797799972572],[-86.12359600042629,39.75744700013527],[-86.12120400037513,39.75747400012779]]]}},{"id":"188","type":"Feature","properties":{"GISJOIN":"G18009703573","pct_black":60.51},"geometry":{"type":"Polygon","coordinates":[[[-86.11135199974531,39.73783300004216],[-86.13038299966799,39.73764400035973],[-86.13044900042068,39.74151000001674],[-86.12685599969612,39.74251899986421],[-86.12297600038154,39.7451070001648],[-86.1210479994162,39.74512400015048],[-86.12120300027809,39.75244100012232],[-86.11313999993072,39.75255100007558],[-86.11525800026718,39.7507200001743],[-86.11134700030317,39.74878899958004],[-86.11135199974531,39.73783300004216]]]}},{"id":"189","type":"Feature","properties":{"GISJOIN":"G18009703574","pct_black":16.18},"geometry":{"type":"Polygon","coordinates":[[[-86.08287400015418,39.75281199972647],[-86.08266999960618,39.738344000330926],[-86.11135199974531,39.73783300004216],[-86.11134700030317,39.74878899958004],[-86.11525800026718,39.7507200001743],[-86.11313999993072,39.75255100007558],[-86.08287400015418,39.75281199972647]]]}},{"id":"190","type":"Feature","properties":{"GISJOIN":"G18009703575","pct_black":0.0},"geometry":{"type":"Polygon","coordinates":[[[-86.08249499985868,39.72362099961035],[-86.11126500021757,39.72328100038642],[-86.11135199974531,39.73783300004216],[-86.08266999960618,39.738344000330926],[-86.08215400000132,39.73156500029652],[-86.08309800018667,39.727563000163876],[-86.08249499985868,39.72362099961035]]]}},{"id":"191","type":"Feature","properties":{"GISJOIN":"G18009703576","pct_black":11.84},"geometry":{"type":"Polygon","coordinates":[[[-86.11126500021757,39.72328100038642],[-86.12954000054017,39.72302800032324],[-86.12958399949851,39.72760499980636],[-86.13027800049504,39.72759700033316],[-86.13038299966799,39.73764400035973],[-86.11135199974531,39.73783300004216],[-86.11126500021757,39.72328100038642]]]}},{"id":"192","type":"Feature","properties":{"GISJOIN":"G18009703577","pct_black":8.23},"geometry":{"type":"Polygon","coordinates":[[[-86.13044900042068,39.74151000001674],[-86.13027800049504,39.72759700033316],[-86.12958399949851,39.72760499980636],[-86.12954000054017,39.72302800032324],[-86.1395419997334,39.722747000012056],[-86.13975400034002,39.738795000035424],[-86.14020419943284,39.7394222086182],[-86.1397840004128,39.74134099984064],[-86.13044900042068,39.74151000001674]]]}},{"id":"193","type":"Feature","properties":{"GISJOIN":"G18009703578","pct_black":0.0},"geometry":{"type":"Polygon","coordinates":[[[-86.13968800053432,39.73371699972961],[-86.14449899953102,39.733648999780364],[-86.1445560002053,39.73727200016045],[-86.15902100010338,39.73723300016041],[-86.15906300004723,39.74112600024033],[-86.1397840004128,39.74134099984064],[-86.14020419943284,39.7394222086182],[-86.13975400034002,39.738795000035424],[-86.13968800053432,39.73371699972961]]]}},{"id":"194","type":"Feature","properties":{"GISJOIN":"G18009703579","pct_black":0.0},"geometry":{"type":"Polygon","coordinates":[[[-86.13968800053432,39.73371699972961],[-86.1395419997334,39.722747000012056],[-86.15875999955769,39.72243700020505],[-86.15902100010338,39.73723300016041],[-86.1445560002053,39.73727200016045],[-86.14449899953102,39.733648999780364],[-86.13968800053432,39.73371699972961]]]}},{"id":"195","type":"Feature","properties":{"GISJOIN":"G18009703580","pct_black":0.0},"geometry":{"type":"Polygon","coordinates":[[[-86.1591769996246,39.75172299954017],[-86.15875999955769,39.72243700020505],[-86.1890959997754,39.72187799994813],[-86.18959500050381,39.72565699978964],[-86.1885669997697,39.72645100021616],[-86.17739999984607,39.72671500001696],[-86.17546600035365,39.72778299967544],[-86.16958600014226,39.73706200017801],[-86.16916299969901,39.74182500001031],[-86.17453300039558,39.75149500023046],[-86.1591769996246,39.75172299954017]]]}},{"id":"196","type":"Feature","properties":{"GISJOIN":"G18009703581","pct_black":8.63},"geometry":{"type":"Polygon","coordinates":[[[-86.16916699953104,39.741788999522164],[-86.16958600014226,39.73706200017801],[-86.17546600035365,39.72778299967544],[-86.17739999984607,39.72671500001696],[-86.1885669997697,39.72645100021616],[-86.18959500050381,39.72565699978964],[-86.1890959997754,39.72187799994813],[-86.19618099971052,39.721585000282396],[-86.1959110002481,39.73513900001473],[-86.19662800010123,39.73921199972974],[-86.19673800008235,39.75099299987095],[-86.18546699987576,39.751125999816495],[-86.18405499969757,39.748552999970904],[-86.18165899950274,39.74656699968876],[-86.17307700020748,39.74251099995873],[-86.16916699953104,39.741788999522164]]]}},{"id":"197","type":"Feature","properties":{"GISJOIN":"G18009703601","pct_black":40.05},"geometry":{"type":"Polygon","coordinates":[[[-86.0647809996746,39.82552099968631],[-86.06440600002026,39.79630400027824],[-86.08330700009938,39.79623799990931],[-86.083771999633,39.82551499985326],[-86.0647809996746,39.82552099968631]]]}},{"id":"198","type":"Feature","properties":{"GISJOIN":"G18009703602","pct_black":0.32},"geometry":{"type":"Polygon","coordinates":[[[-86.00972399985861,39.81136499972846],[-86.06465499970123,39.81096499970718],[-86.0647809996746,39.82552099968631],[-86.00992400048025,39.82604800027615],[-86.00972399985861,39.81136499972846]]]}},{"id":"199","type":"Feature","properties":{"GISJOIN":"G18009703603","pct_black":0.53},"geometry":{"type":"Polygon","coordinates":[[[-86.00945399979886,39.7966949999465],[-86.06440600002026,39.79630400027824],[-86.06465499970123,39.81096499970718],[-86.00972399985861,39.81136499972846],[-86.00945399979886,39.7966949999465]]]}},{"id":"200","type":"Feature","properties":{"GISJOIN":"G18009703604","pct_black":0.54},"geometry":{"type":"Polygon","coordinates":[[[-85.95258200023156,39.79737999977716],[-86.00945399979886,39.7966949999465],[-86.00992400048025,39.82604800027615],[-85.95312300054523,39.82677699998389],[-85.95258200023156,39.79737999977716]]]}},{"id":"201","type":"Feature","properties":{"GISJOIN":"G18009703605","pct_black":0.06},"geometry":{"type":"Polygon","coordinates":[[[-85.95258200023156,39.79737999977716],[-85.95235099976553,39.7741389998727],[-86.0091430004062,39.77122100027083],[-86.00945399979886,39.7966949999465],[-85.95258200023156,39.79737999977716]]]}},{"id":"202","type":"Feature","properties":{"GISJOIN":"G18009703606","pct_black":0.17},"geometry":{"type":"Polygon","coordinates":[[[-86.0091430004062,39.77122100027083],[-86.04048000027282,39.769443999929365],[-86.04520999962902,39.76868099995395],[-86.04552999948416,39.79642499982881],[-86.00945399979886,39.7966949999465],[-86.0091430004062,39.77122100027083]]]}},{"id":"203","type":"Feature","properties":{"GISJOIN":"G18009703607","pct_black":13.37},"geometry":{"type":"Polygon","coordinates":[[[-86.04520999962902,39.76868099995395],[-86.04993299953384,39.7691200003079],[-86.06407999959052,39.768388000363906],[-86.0642269999711,39.78163000027795],[-86.04540700019206,39.781755999689466],[-86.04520999962902,39.76868099995395]]]}},{"id":"204","type":"Feature","properties":{"GISJOIN":"G18009703608","pct_black":0.0},"geometry":{"type":"Polygon","coordinates":[[[-86.04540700019206,39.781755999689466],[-86.0642269999711,39.78163000027795],[-86.06440600002026,39.79630400027824],[-86.04552999948416,39.79642499982881],[-86.04540700019206,39.781755999689466]]]}},{"id":"205","type":"Feature","properties":{"GISJOIN":"G18009703609","pct_black":0.05},"geometry":{"type":"Polygon","coordinates":[[[-86.0642269999711,39.78163000027795],[-86.08319600055191,39.78152900022132],[-86.08330700009938,39.79623799990931],[-86.06440600002026,39.79630400027824],[-86.0642269999711,39.78163000027795]]]}},{"id":"206","type":"Feature","properties":{"GISJOIN":"G18009703610","pct_black":0.0},"geometry":{"type":"Polygon","coordinates":[[[-86.06415300044102,39.77506499963484],[-86.08312699980456,39.774892999663535],[-86.08319600055191,39.78152900022132],[-86.0642269999711,39.78163000027795],[-86.06415300044102,39.77506499963484]]]}},{"id":"207","type":"Feature","properties":{"GISJOIN":"G18009703611","pct_black":0.0},"geometry":{"type":"Polygon","coordinates":[[[-86.06407999959052,39.768388000363906],[-86.08303799960281,39.767453999973256],[-86.08312699980456,39.774892999663535],[-86.06415300044102,39.77506499963484],[-86.06407999959052,39.768388000363906]]]}},{"id":"208","type":"Feature","properties":{"GISJOIN":"G18009703612","pct_black":1.35},"geometry":{"type":"Polygon","coordinates":[[[-86.06407999959052,39.768388000363906],[-86.06389900039284,39.753025000369995],[-86.08058499942533,39.75333400025204],[-86.08287400015418,39.75281199972647],[-86.08303799960281,39.767453999973256],[-86.06407999959052,39.768388000363906]]]}},{"id":"209","type":"Feature","properties":{"GISJOIN":"G18009703613","pct_black":0.0},"geometry":{"type":"Polygon","coordinates":[[[-86.00898100012475,39.76214699960017],[-86.06397199948852,39.76093199998995],[-86.06407999959052,39.768388000363906],[-86.04993299953384,39.7691200003079],[-86.04520999962902,39.76868099995395],[-86.04048000027282,39.769443999929365],[-86.0091430004062,39.77122100027083],[-86.00898100012475,39.76214699960017]]]}},{"id":"210","type":"Feature","properties":{"GISJOIN":"G18009703614","pct_black":0.0},"geometry":{"type":"Polygon","coordinates":[[[-86.00863000038795,39.740199999891104],[-86.08266999960618,39.738344000330926],[-86.08287400015418,39.75281199972647],[-86.08058499942533,39.75333400025204],[-86.06389900039284,39.753025000369995],[-86.06397199948852,39.76093199998995],[-86.00898100012475,39.76214699960017],[-86.00863000038795,39.740199999891104]]]}},{"id":"211","type":"Feature","properties":{"GISJOIN":"G18009703615","pct_black":0.0},"geometry":{"type":"Polygon","coordinates":[[[-86.00856599993564,39.72559900013489],[-86.02548799980627,39.72553500010148],[-86.02571300050265,39.72504999998281],[-86.08249499985868,39.72362099961035],[-86.08309800018667,39.727563000163876],[-86.08215400000132,39.73156500029652],[-86.08266999960618,39.738344000330926],[-86.00863000038795,39.740199999891104],[-86.00856599993564,39.72559900013489]]]}},{"id":"212","type":"Feature","properties":{"GISJOIN":"G18009703616","pct_black":3.49},"geometry":{"type":"Polygon","coordinates":[[[-85.95169899960442,39.72641899989543],[-86.00856599993564,39.72559900013489],[-86.0091430004062,39.77122100027083],[-85.95235099976553,39.7741389998727],[-85.95169899960442,39.72641899989543]]]}},{"id":"213","type":"Feature","properties":{"GISJOIN":"G18009703701","pct_black":0.0},"geometry":{"type":"Polygon","coordinates":[[[-86.26948500000832,39.69853499991608],[-86.26926599956485,39.676851000066385],[-86.29903499980803,39.676569999667876],[-86.30029099955641,39.67719499987321],[-86.30131500013934,39.6762190002983],[-86.30765900018783,39.67652299985215],[-86.3076859999803,39.681950999998016],[-86.31700600016401,39.68159199958816],[-86.31701400044712,39.68340299962535],[-86.32657600028672,39.68289599962983],[-86.32659099988746,39.71948599994336],[-86.265390758384,39.72033659148603],[-86.26563002805135,39.715741124000424],[-86.26733025540587,39.71437907844128],[-86.26962200041173,39.71399300004426],[-86.26958100037707,39.70611300026098],[-86.26836399982925,39.70606000009368],[-86.26829800003225,39.69890599965127],[-86.26948500000832,39.69853499991608]]]}},{"id":"214","type":"Feature","properties":{"GISJOIN":"G18009703702","pct_black":0.0},"geometry":{"type":"Polygon","coordinates":[[[-86.22262500002502,39.692094999593536],[-86.23791099957288,39.692064999909555],[-86.24297700039033,39.69253999959798],[-86.24314199993842,39.69185600003693],[-86.2438019997647,39.69179799962989],[-86.26937500042419,39.6913849999913],[-86.26948500000832,39.69853499991608],[-86.26829800003225,39.69890599965127],[-86.26836399982925,39.70606000009368],[-86.26958100037707,39.70611300026098],[-86.26962200041173,39.71399300004426],[-86.26733025540587,39.71437907844128],[-86.26563002805135,39.715741124000424],[-86.265390758384,39.72033659148603],[-86.26434399973324,39.720456999870144],[-86.23454999996179,39.72021800009857],[-86.1890959997754,39.72187799994813],[-86.1892669997994,39.719514000294524],[-86.19094500004871,39.71824200009409],[-86.19751000017271,39.715935999647996],[-86.19876999989691,39.71348499969838],[-86.1980590004687,39.71226299970653],[-86.19870899952033,39.71088000018421],[-86.2021240004221,39.709744999823464],[-86.20357200059095,39.710040999605674],[-86.20575199986664,39.71154100036608],[-86.20874199937226,39.71100700033895],[-86.20935300020808,39.710180000404435],[-86.20926999945692,39.70871500030227],[-86.20845299960867,39.70844799960645],[-86.20948999972455,39.7073720003356],[-86.21446800017189,39.70988300015856],[-86.21928000032213,39.71010900011384],[-86.21984399962032,39.70853599983797],[-86.21859400028616,39.706629999810566],[-86.21393099962293,39.70550799977877],[-86.212979999424,39.70482900005765],[-86.21591299944862,39.70133900008305],[-86.22211499954926,39.69760999997637],[-86.22307900003906,39.69546299979051],[-86.22262500002502,39.692094999593536]]]}},{"id":"215","type":"Feature","properties":{"GISJOIN":"G18009703703","pct_black":0.0},"geometry":{"type":"Polygon","coordinates":[[[-86.2429240004257,39.63374399992854],[-86.32634100024478,39.63217700018672],[-86.32657600028672,39.68289599962983],[-86.31701400044712,39.68340299962535],[-86.31700600016401,39.68159199958816],[-86.3076859999803,39.681950999998016],[-86.30765900018783,39.67652299985215],[-86.30131500013934,39.6762190002983],[-86.30029099955641,39.67719499987321],[-86.29903499980803,39.676569999667876],[-86.26926599956485,39.676851000066385],[-86.26937500042419,39.6913849999913],[-86.2438019997647,39.69179799962989],[-86.24314199993842,39.69185600003693],[-86.24297700039033,39.69253999959798],[-86.23791099957288,39.692064999909555],[-86.22262500002502,39.692094999593536],[-86.22315000044229,39.688521000016],[-86.22494499982302,39.68612299990256],[-86.22954299971511,39.6863290001459],[-86.23104099954503,39.68853800009339],[-86.23343200048778,39.68863000032052],[-86.2350239997942,39.68752800042148],[-86.23511799972809,39.686222000186206],[-86.22401599989907,39.677376999711846],[-86.22432400058419,39.67492399990114],[-86.22462700049876,39.67400700028361],[-86.22713600008326,39.672653999794335],[-86.2302429994671,39.67280099960936],[-86.23595900025157,39.67200499976719],[-86.23837100047787,39.672696999824474],[-86.23781999989066,39.668588999927685],[-86.23664299959691,39.666977000083335],[-86.23628899964477,39.6638890002994],[-86.23667899971255,39.66170199993052],[-86.234336999728,39.657884000251315],[-86.23599300049433,39.653764000200496],[-86.23489300014873,39.65076899998959],[-86.23646299946877,39.64777200004648],[-86.23892099942654,39.64677600039826],[-86.23804699999785,39.64166800004679],[-86.23899199948248,39.63915100009817],[-86.2417530003174,39.638109999628604],[-86.24507600056339,39.64018099995916],[-86.24591899977747,39.639547999764794],[-86.2452990003412,39.637106000351984],[-86.2429240004257,39.63374399992854]]]}},{"id":"216","type":"Feature","properties":{"GISJOIN":"G18009703801","pct_black":0.26},"geometry":{"type":"Polygon","coordinates":[[[-86.17748799963286,39.72219300016763],[-86.17757099939688,39.673192000366505],[-86.18082200031327,39.66293000037956],[-86.17777000005114,39.64972199993549],[-86.17743000038912,39.63473000032326],[-86.2429240004257,39.63374399992854],[-86.2452990003412,39.637106000351984],[-86.24591899977747,39.639547999764794],[-86.24507600056339,39.64018099995916],[-86.2417530003174,39.638109999628604],[-86.23899199948248,39.63915100009817],[-86.23804699999785,39.64166800004679],[-86.23892099942654,39.64677600039826],[-86.23646299946877,39.64777200004648],[-86.23489300014873,39.65076899998959],[-86.23599300049433,39.653764000200496],[-86.234336999728,39.657884000251315],[-86.23667899971255,39.66170199993052],[-86.23628899964477,39.6638890002994],[-86.23664299959691,39.666977000083335],[-86.23781999989066,39.668588999927685],[-86.23837100047787,39.672696999824474],[-86.23595900025157,39.67200499976719],[-86.2302429994671,39.67280099960936],[-86.22713600008326,39.672653999794335],[-86.22462700049876,39.67400700028361],[-86.22432400058419,39.67492399990114],[-86.22401599989907,39.677376999711846],[-86.23511799972809,39.686222000186206],[-86.2350239997942,39.68752800042148],[-86.23343200048778,39.68863000032052],[-86.23104099954503,39.68853800009339],[-86.22954299971511,39.6863290001459],[-86.22494499982302,39.68612299990256],[-86.22315000044229,39.688521000016],[-86.22262500002502,39.692094999593536],[-86.22307900003906,39.69546299979051],[-86.22211499954926,39.69760999997637],[-86.21591299944862,39.70133900008305],[-86.212979999424,39.70482900005765],[-86.21393099962293,39.70550799977877],[-86.21859400028616,39.706629999810566],[-86.21984399962032,39.70853599983797],[-86.2195859998658,39.70981100031428],[-86.21791400009538,39.71037400035269],[-86.21446800017189,39.70988300015856],[-86.20948999972455,39.7073720003356],[-86.20845299960867,39.70844799960645],[-86.20926999945692,39.70871500030227],[-86.20935300020808,39.710180000404435],[-86.20874199937226,39.71100700033895],[-86.20575199986664,39.71154100036608],[-86.20357200059095,39.710040999605674],[-86.2021240004221,39.709744999823464],[-86.19870899952033,39.71088000018421],[-86.1980590004687,39.71226299970653],[-86.19876999989691,39.71348499969838],[-86.19751000017271,39.715935999647996],[-86.19094500004871,39.71824200009409],[-86.1892669997994,39.719514000294524],[-86.1890959997754,39.72187799994813],[-86.17748799963286,39.72219300016763]]]}},{"id":"217","type":"Feature","properties":{"GISJOIN":"G18009703802","pct_black":0.34},"geometry":{"type":"Polygon","coordinates":[[[-86.13941800023615,39.70832099967671],[-86.17723999936595,39.70746900039213],[-86.17748799963286,39.72219300016763],[-86.1395419997334,39.722747000012056],[-86.13941800023615,39.70832099967671]]]}},{"id":"218","type":"Feature","properties":{"GISJOIN":"G18009703803","pct_black":0.07},"geometry":{"type":"Polygon","coordinates":[[[-86.1157990004662,39.70855300022528],[-86.13941800023615,39.70832099967671],[-86.1395419997334,39.722747000012056],[-86.11126500021757,39.72328100038642],[-86.11120400029988,39.715947000253905],[-86.11591100046778,39.71588399974035],[-86.1158929996979,39.71450499988819],[-86.11390999986669,39.71321899984506],[-86.1158849994989,39.7137570000962],[-86.1157990004662,39.70855300022528]]]}},{"id":"219","type":"Feature","properties":{"GISJOIN":"G18009703804","pct_black":0.19},"geometry":{"type":"Polygon","coordinates":[[[-86.08241999979857,39.69458999998474],[-86.09663100023678,39.69429599982997],[-86.09685400048534,39.69340100037576],[-86.1013410004387,39.69419700008658],[-86.10140699990653,39.701143999810434],[-86.10416300025128,39.70637799982692],[-86.10404900040115,39.70872400011901],[-86.1157990004662,39.70855300022528],[-86.1158849994989,39.7137570000962],[-86.11390999986669,39.71321899984506],[-86.1158929996979,39.71450499988819],[-86.11591100046778,39.71588399974035],[-86.11120400029988,39.715947000253905],[-86.11126500021757,39.72328100038642],[-86.08249499985868,39.72362099961035],[-86.08241999979857,39.69458999998474]]]}},{"id":"220","type":"Feature","properties":{"GISJOIN":"G18009703805","pct_black":0.2},"geometry":{"type":"Polygon","coordinates":[[[-86.1013410004387,39.69419700008658],[-86.1367980003897,39.693520000090494],[-86.13933699995471,39.70081499966393],[-86.13941800023615,39.70832099967671],[-86.10404900040115,39.70872400011901],[-86.10416300025128,39.70637799982692],[-86.10140699990653,39.701143999810434],[-86.1013410004387,39.69419700008658]]]}},{"id":"221","type":"Feature","properties":{"GISJOIN":"G18009703806","pct_black":0.65},"geometry":{"type":"Polygon","coordinates":[[[-86.1367980003897,39.693520000090494],[-86.14822100043685,39.693325000041916],[-86.15074500009905,39.69273099989208],[-86.17344399955056,39.692853999927976],[-86.17370900010634,39.69243300000391],[-86.17660400037013,39.69218700016652],[-86.17735499990172,39.69275600043355],[-86.17723999936595,39.70746900039213],[-86.13941800023615,39.70832099967671],[-86.13933699995471,39.70081499966393],[-86.1367980003897,39.693520000090494]]]}},{"id":"222","type":"Feature","properties":{"GISJOIN":"G18009703807","pct_black":0.36},"geometry":{"type":"Polygon","coordinates":[[[-86.13946199982263,39.6794840000763],[-86.17753500010903,39.67865599976939],[-86.17735499990172,39.69275600043355],[-86.17660400037013,39.69218700016652],[-86.17370900010634,39.69243300000391],[-86.17344399955056,39.692853999927976],[-86.15074500009905,39.69273099989208],[-86.14822100043685,39.693325000041916],[-86.1386980000034,39.69349799956735],[-86.13886400033115,39.68677300002707],[-86.13947799992553,39.68676400037982],[-86.13946199982263,39.6794840000763]]]}},{"id":"223","type":"Feature","properties":{"GISJOIN":"G18009703808","pct_black":0.0},"geometry":{"type":"Polygon","coordinates":[[[-86.11102499954006,39.679865000350546],[-86.13946199982263,39.6794840000763],[-86.13947799992553,39.68676400037982],[-86.13886400033115,39.68677300002707],[-86.1386980000034,39.69349799956735],[-86.11231499951765,39.693993000008334],[-86.11105499998362,39.68734800041178],[-86.11102499954006,39.679865000350546]]]}},{"id":"224","type":"Feature","properties":{"GISJOIN":"G18009703809","pct_black":0.11},"geometry":{"type":"Polygon","coordinates":[[[-86.08271199957773,39.65118599986083],[-86.11092399962398,39.65037399999952],[-86.1110380005086,39.687082000297615],[-86.11231499951765,39.693993000008334],[-86.10071899982239,39.69419700027754],[-86.09685400048534,39.69340100037576],[-86.09663100023678,39.69429599982997],[-86.08241999979857,39.69458999998474],[-86.08218200000178,39.662777999909736],[-86.08271199957773,39.65118599986083]]]}},{"id":"225","type":"Feature","properties":{"GISJOIN":"G18009703810","pct_black":0.05},"geometry":{"type":"Polygon","coordinates":[[[-86.11092399962398,39.65037399999952],[-86.13939600061848,39.64990299972662],[-86.13946199982263,39.6794840000763],[-86.11102499954006,39.679865000350546],[-86.11092399962398,39.65037399999952]]]}},{"id":"226","type":"Feature","properties":{"GISJOIN":"G18009703811","pct_black":0.0},"geometry":{"type":"Polygon","coordinates":[[[-86.13939600061848,39.64990299972662],[-86.17774900053304,39.64947400023338],[-86.18082200031327,39.66293000037956],[-86.17768300016833,39.67236400028424],[-86.17753500010903,39.67865599976939],[-86.13946199982263,39.6794840000763],[-86.13939600061848,39.64990299972662]]]}},{"id":"227","type":"Feature","properties":{"GISJOIN":"G18009703812","pct_black":0.0},"geometry":{"type":"Polygon","coordinates":[[[-86.08271199957773,39.65118599986083],[-86.08273600019513,39.63643800031723],[-86.17743000038912,39.63473000032326],[-86.17774900053304,39.64947400023338],[-86.08271199957773,39.65118599986083]]]}},{"id":"228","type":"Feature","properties":{"GISJOIN":"G18009703901","pct_black":0.17},"geometry":{"type":"Polygon","coordinates":[[[-86.01783899977849,39.696039000328454],[-86.08241999979857,39.69458999998474],[-86.08249499985868,39.72362099961035],[-86.01810800058102,39.72554000004417],[-86.01933300033164,39.72470800011836],[-86.01805100048902,39.72340400022872],[-86.01783899977849,39.696039000328454]]]}},{"id":"229","type":"Feature","properties":{"GISJOIN":"G18009703902","pct_black":0.0},"geometry":{"type":"Polygon","coordinates":[[[-85.95172099975188,39.69713600021859],[-86.01783899977849,39.696039000328454],[-86.01805100048902,39.72340400022872],[-86.01933300033164,39.72470800011836],[-86.01810800058102,39.72554000004417],[-85.95169899960442,39.72641899989543],[-85.95172099975188,39.69713600021859]]]}},{"id":"230","type":"Feature","properties":{"GISJOIN":"G18009703903","pct_black":0.14},"geometry":{"type":"Polygon","coordinates":[[[-85.95208000016788,39.638344999880616],[-86.018788000235,39.63734200002767],[-86.02017299999012,39.643093000269644],[-86.0189760004928,39.64702500001751],[-86.01843399956319,39.652147000161236],[-86.01862700017301,39.68152600042937],[-86.01783899977849,39.696039000328454],[-85.95173500036489,39.69704899972432],[-85.95208000016788,39.638344999880616]]]}},{"id":"231","type":"Feature","properties":{"GISJOIN":"G18009703904","pct_black":2.98},"geometry":{"type":"Polygon","coordinates":[[[-86.018788000235,39.63734200002767],[-86.08273000010144,39.63643999972459],[-86.08218200000178,39.662777999909736],[-86.08241999979857,39.69458999998474],[-86.01783899977849,39.696039000328454],[-86.01862700017301,39.68152600042937],[-86.01843399956319,39.652147000161236],[-86.0189760004928,39.64702500001751],[-86.02017299999012,39.643093000269644],[-86.018788000235,39.63734200002767]]]}}]}