{"type":"FeatureCollection","features":[{"id":"0","type":"Feature","properties":{"GISJOIN":"G18009700001","pct_black":2.61},"geometry":{"type":"Polygon","coordinates":[[[-86.0835019997833,39.8109400000863],[-86.09265428817861,39.80643351484365],[-86.09272065196595,39.80359631469313],[-86.09751599968402,39.8040080000018],[-86.10243900027677,39.801446999891866],[-86.10256800056315,39.81077300017936],[-86.09779799966323,39.81081700025486],[-86.0978589997302,39.814520999803236],[-86.08354600018748,39.81467499990279],[-86.0835019997833,39.8109400000863]]]}},{"id":"1","type":"Feature","properties":{"GISJOIN":"G18009700002","pct_black":0.37},"geometry":{"type":"Polygon","coordinates":[[[-86.09751599968402,39.8040080000018],[-86.09994400034645,39.80075699976714],[-86.10197000051085,39.79608299990293],[-86.10711299980922,39.79606799975231],[-86.10734799979183,39.81076500021138],[-86.10256800056315,39.81077300017936],[-86.10243900027677,39.801446999891866],[-86.09751599968402,39.8040080000018]]]}},{"id":"2","type":"Feature","properties":{"GISJOIN":"G18009700003","pct_black":6.24},"geometry":{"type":"Polygon","coordinates":[[[-86.09789900038666,39.818214999999675],[-86.09779799966323,39.81081700025486],[-86.12159999965458,39.81075200001704],[-86.12166099964443,39.81810500027025],[-86.09789900038666,39.818214999999675]]]}},{"id":"3","type":"Feature","properties":{"GISJOIN":"G18009700004","pct_black":13.76},"geometry":{"type":"Polygon","coordinates":[[[-86.10711299980922,39.79606799975231],[-86.11223820755548,39.79635107115772],[-86.111897999585,39.797460999839096],[-86.11661599967029,39.79500599959582],[-86.11752199972982,39.798711000280626],[-86.11667799947104,39.79905600017153],[-86.11676300012293,39.80339999983571],[-86.1119760004826,39.803404000223026],[-86.11207699984533,39.81076100037894],[-86.10731600058728,39.81073299996373],[-86.10711299980922,39.79606799975231]]]}},{"id":"4","type":"Feature","properties":{"GISJOIN":"G18009700005","pct_black":1.14},"geometry":{"type":"Polygon","coordinates":[[[-86.08330700009938,39.79623799990931],[-86.08328799966516,39.7888680001738],[-86.10224499975314,39.788769000007726],[-86.10229400001096,39.79608100023286],[-86.09268800027637,39.79791599977286],[-86.09280400044076,39.79974600032178],[-86.09149099991778,39.79997399962069],[-86.08811699974893,39.79992500005458],[-86.088105000408,39.79877200005946],[-86.08567500046182,39.7992260001538],[-86.08573178932208,39.79674021170664],[-86.08330700009938,39.79623799990931]]]}},{"id":"5","type":"Feature","properties":{"GISJOIN":"G18009700006","pct_black":2.22},"geometry":{"type":"Polygon","coordinates":[[[-86.08328799966516,39.7888680001738],[-86.08319600055191,39.78152900022132],[-86.1022159998288,39.78141199994728],[-86.10224499975314,39.788769000007726],[-86.08328799966516,39.7888680001738]]]}},{"id":"6","type":"Feature","properties":{"GISJOIN":"G18009700007","pct_black":0.06},"geometry":{"type":"Polygon","coordinates":[[[-86.10229400001096,39.79608100023286],[-86.1022159998288,39.78141199994728],[-86.11661000012913,39.78134200000627],[-86.11660300041643,39.7940779996049],[-86.1125559998392,39.79618700032153],[-86.10229400001096,39.79608100023286]]]}},{"id":"7","type":"Feature","properties":{"GISJOIN":"G18009700008","pct_black":67.24},"geometry":{"type":"Polygon","coordinates":[[[-86.1119760004826,39.803404000223026],[-86.1310470002339,39.80338599997688],[-86.13113999973562,39.810734000403684],[-86.11207699984533,39.81076100037894],[-86.1119760004826,39.803404000223026]]]}},{"id":"8","type":"Feature","properties":{"GISJOIN":"G18009700009","pct_black":51.9},"geometry":{"type":"Polygon","coordinates":[[[-86.11661599988113,39.795117999996215],[-86.12155300027953,39.79645300036695],[-86.1257349997593,39.79611999983679],[-86.12535900027828,39.79669400002623],[-86.12746400013273,39.79731299970685],[-86.12835299980668,39.795625999590996],[-86.13289399981075,39.79564200040633],[-86.13300399969752,39.796390999662314],[-86.13115000034321,39.796628999936864],[-86.1310470002339,39.80338599997688],[-86.11676300012293,39.80339999983571],[-86.11667799947104,39.79905600017153],[-86.11752199972982,39.798711000280626],[-86.11661599988113,39.795117999996215]]]}},{"id":"9","type":"Feature","properties":{"GISJOIN":"G18009700010","pct_black":3.66},"geometry":{"type":"Polygon","coordinates":[[[-86.11223820755548,39.79635107115772],[-86.13120614013513,39.785807462656855],[-86.13145199968625,39.78614399962196],[-86.13182899995027,39.78828200025667],[-86.13052699985285,39.7922049997042],[-86.13068700014256,39.79562099971659],[-86.12835299980668,39.795625999590996],[-86.12746400013273,39.79731299970685],[-86.12535900027828,39.79669400002623],[-86.1257349997593,39.79611999983679],[-86.12155300027953,39.79645300036695],[-86.11661599967029,39.79500599959582],[-86.111897999585,39.797460999839096],[-86.11223820755548,39.79635107115772]]]}},{"id":"10","type":"Feature","properties":{"GISJOIN":"G18009700011","pct_black":3.83},"geometry":{"type":"Polygon","coordinates":[[[-86.11661000012913,39.78134200000627],[-86.12644900012813,39.7812949999779],[-86.12648200041174,39.78390800023637],[-86.13120614013513,39.785807462656855],[-86.11660200051523,39.793956000212916],[-86.11661000012913,39.78134200000627]]]}},{"id":"11","type":"Feature","properties":{"GISJOIN":"G18009700012","pct_black":35.49},"geometry":{"type":"Polygon","coordinates":[[[-86.13120614013513,39.785807462656855],[-86.12648200041174,39.78390800023637],[-86.12644900012813,39.7812949999779],[-86.1400420003872,39.78123900032243],[-86.13996699972469,39.78850899955842],[-86.13180299996638,39.78853400001047],[-86.13120614013513,39.785807462656855]]]}},{"id":"12","type":"Feature","properties":{"GISJOIN":"G18009700013","pct_black":93.64},"geometry":{"type":"Polygon","coordinates":[[[-86.13068700014256,39.79562099971659],[-86.13052699985285,39.7922049997042],[-86.13180299996638,39.78853400001047],[-86.13996699972469,39.78850899955842],[-86.13997800036952,39.79595200014686],[-86.13300399969752,39.796390999662314],[-86.13289399981075,39.79564200040633],[-86.13068700014256,39.79562099971659]]]}},{"id":"13","type":"Feature","properties":{"GISJOIN":"G18009700014","pct_black":98.86},"geometry":{"type":"Polygon","coordinates":[[[-86.13113999973562,39.810734000403684],[-86.13115000034321,39.796628999936864],[-86.13997800036952,39.79595200014686],[-86.13988800043836,39.800604999713165],[-86.13730100013608,39.81067200037488],[-86.13113999973562,39.810734000403684]]]}},{"id":"14","type":"Feature","properties":{"GISJOIN":"G18009700015","pct_black":8.6},"geometry":{"type":"Polygon","coordinates":[[[-86.12159999965458,39.81075200001704],[-86.14247599969563,39.8105119996648],[-86.14318000021818,39.812607999927835],[-86.14268400037236,39.81460399987685],[-86.13889099985077,39.81659899959051],[-86.13789399962928,39.81799700013009],[-86.12166099964443,39.81810500027025],[-86.12159999965458,39.81075200001704]]]}},{"id":"15","type":"Feature","properties":{"GISJOIN":"G18009700016","pct_black":7.18},"geometry":{"type":"Polygon","coordinates":[[[-86.13997800036952,39.79595200014686],[-86.15096900002885,39.795816000125555],[-86.15079299962962,39.805707000024015],[-86.14478099953725,39.80758700007351],[-86.14237699970565,39.80980899995275],[-86.14247599969563,39.8105119996648],[-86.13730100013608,39.81067200037488],[-86.13988800043836,39.800604999713165],[-86.13997800036952,39.79595200014686]]]}},{"id":"16","type":"Feature","properties":{"GISJOIN":"G18009700017","pct_black":35.83},"geometry":{"type":"Polygon","coordinates":[[[-86.13997800036952,39.79595200014686],[-86.14002699995389,39.78067099965006],[-86.14506799971427,39.780712999935744],[-86.14474299964938,39.79587399987969],[-86.13997800036952,39.79595200014686]]]}},{"id":"17","type":"Feature","properties":{"GISJOIN":"G18009700018","pct_black":1.53},"geometry":{"type":"Polygon","coordinates":[[[-86.14506799971427,39.780712999935744],[-86.15212099957364,39.78107499978315],[-86.15236199957124,39.795798999865816],[-86.14474299964938,39.79587399987969],[-86.14506799971427,39.780712999935744]]]}},{"id":"18","type":"Feature","properties":{"GISJOIN":"G18009700019","pct_black":6.45},"geometry":{"type":"Polygon","coordinates":[[[-86.15212099957364,39.78107499978315],[-86.15393800007719,39.781047999728926],[-86.15397100003125,39.78008899972967],[-86.16143001322845,39.78104029334296],[-86.16152900055121,39.794982999676776],[-86.15497900035562,39.79499400029134],[-86.15499300039934,39.795769000309974],[-86.15236199957124,39.795798999865816],[-86.15212099957364,39.78107499978315]]]}},{"id":"19","type":"Feature","properties":{"GISJOIN":"G18009700020","pct_black":85.81},"geometry":{"type":"Polygon","coordinates":[[[-86.16143001322845,39.78104029334296],[-86.1656070001796,39.780978999913046],[-86.16571500016579,39.78836400020409],[-86.16839500054708,39.78831999992734],[-86.16874099972226,39.7949539996264],[-86.16152900055121,39.794982999676776],[-86.16143001322845,39.78104029334296]]]}},{"id":"20","type":"Feature","properties":{"GISJOIN":"G18009700021","pct_black":21.09},"geometry":{"type":"Polygon","coordinates":[[[-86.15096900002885,39.795816000125555],[-86.15499300039934,39.795769000309974],[-86.15497900035562,39.79499400029134],[-86.16874099972226,39.7949539996264],[-86.16928400007174,39.79723299991931],[-86.16624599977014,39.79663400032951],[-86.16365800028433,39.79716999983495],[-86.16277500054251,39.7979880002988],[-86.1631210002567,39.80094100032762],[-86.16125200001058,39.802279000104186],[-86.15662599990229,39.80348000007022],[-86.15307800023469,39.805597999689375],[-86.15079299962962,39.805707000024015],[-86.15096900002885,39.795816000125555]]]}},{"id":"21","type":"Feature","properties":{"GISJOIN":"G18009700022","pct_black":99.24},"geometry":{"type":"Polygon","coordinates":[[[-86.16928400007174,39.79723299991931],[-86.1684819994265,39.79446499986376],[-86.16839500054708,39.78831999992734],[-86.16571500016579,39.78836400020409],[-86.1656070001796,39.780978999913046],[-86.16617399950009,39.78096499982797],[-86.16513299945672,39.77697100020379],[-86.16507299941047,39.77427700000075],[-86.17051700061116,39.777932999730425],[-86.17055600051229,39.777243999781554],[-86.17317899997605,39.77731700041338],[-86.17328900031265,39.77584500037563],[-86.1757409994167,39.77599299994452],[-86.17588399958359,39.783178999633414],[-86.17510300011243,39.783782000058224],[-86.17444500003417,39.78588500026363],[-86.17517999995982,39.78789500004836],[-86.17639299972106,39.787700999988786],[-86.17791199979656,39.78871700008441],[-86.17880900031228,39.795570999583894],[-86.17822300009115,39.797337000448884],[-86.17489999976512,39.80027300024991],[-86.16928400007174,39.79723299991931]]]}},{"id":"22","type":"Feature","properties":{"GISJOIN":"G18009700023","pct_black":5.16},"geometry":{"type":"Polygon","coordinates":[[[-86.1755529995357,39.78095599963472],[-86.17928200021612,39.780049999874144],[-86.18861099973023,39.779871999973366],[-86.19054201359187,39.78064390073502],[-86.1889984520249,39.78138846992316],[-86.18741853956853,39.78405340100401],[-86.18780074851846,39.784623571567636],[-86.1896220004223,39.78537100020289],[-86.19321399947276,39.78574299973211],[-86.19905800010683,39.78843199972822],[-86.19695199944196,39.789043999883056],[-86.19688799972374,39.791088999715484],[-86.17833400018925,39.79133299990927],[-86.17791199979656,39.78871700008441],[-86.17639299972106,39.787700999988786],[-86.17517999995982,39.78789500004836],[-86.17444500003417,39.78588500026363],[-86.17510300011243,39.783782000058224],[-86.17588399958359,39.783178999633414],[-86.17597599999515,39.78124700009281],[-86.1755529995357,39.78095599963472]]]}},{"id":"23","type":"Feature","properties":{"GISJOIN":"G18009700024","pct_black":3.77},"geometry":{"type":"Polygon","coordinates":[[[-86.17877300011898,39.80071100013967],[-86.17773100034975,39.797829000169436],[-86.17880900031228,39.795570999583894],[-86.17833400018925,39.79133299990927],[-86.19688799972374,39.791088999715484],[-86.19695199944196,39.789043999883056],[-86.19905800010683,39.78843199972822],[-86.20174200027918,39.79265799967325],[-86.20170500002024,39.79419899972486],[-86.20025000026637,39.796157000082204],[-86.1967690001423,39.798146999915346],[-86.19680571933714,39.80055960171399],[-86.17877300011898,39.80071100013967]]]}},{"id":"24","type":"Feature","properties":{"GISJOIN":"G18009700025","pct_black":22.57},"geometry":{"type":"Polygon","coordinates":[[[-86.18668500030644,39.82460199959575],[-86.18970800011324,39.81301400032997],[-86.18832799990246,39.80999900043099],[-86.17862199950872,39.80080399984211],[-86.19680571933714,39.80055960171399],[-86.1967690001423,39.798146999915346],[-86.20025000026637,39.796157000082204],[-86.20170500002024,39.79419899972486],[-86.20174200027918,39.79265799967325],[-86.20102003822016,39.79151502826414],[-86.2019071101466,39.791536393074594],[-86.20313699944111,39.792892999826556],[-86.20314100035719,39.807723000194514],[-86.20038699970219,39.816768999694254],[-86.20202699997294,39.82021299973524],[-86.20197500004825,39.821086000370364],[-86.19752100033439,39.82448400011553],[-86.18668500030644,39.82460199959575]]]}},{"id":"25","type":"Feature","properties":{"GISJOIN":"G18009700026","pct_black":99.69},"geometry":{"type":"Polygon","coordinates":[[[-86.16928400007174,39.79723299991931],[-86.17489999976512,39.80027300024991],[-86.17773100034975,39.797829000169436],[-86.17862199950872,39.80080399984211],[-86.1815399997422,39.80372600033063],[-86.17078399983762,39.803740000240644],[-86.17104100042309,39.80427800008531],[-86.16794299997933,39.804282000105935],[-86.16792699955143,39.79774100004664],[-86.16926600039908,39.797826999800186],[-86.16928400007174,39.79723299991931]]]}},{"id":"26","type":"Feature","properties":{"GISJOIN":"G18009700027","pct_black":46.1},"geometry":{"type":"Polygon","coordinates":[[[-86.16794299997933,39.804282000105935],[-86.17104100042309,39.80427800008531],[-86.17078399983762,39.803740000240644],[-86.1815399997422,39.80372600033063],[-86.18832799990246,39.80999900043099],[-86.16856500009962,39.81011599956143],[-86.16794299997933,39.804282000105935]]]}},{"id":"27","type":"Feature","properties":{"GISJOIN":"G18009700028","pct_black":0.0},"geometry":{"type":"Polygon","coordinates":[[[-86.16908699993301,39.81310699960743],[-86.16905899970743,39.81011499998609],[-86.18832799990246,39.80999900043099],[-86.18972400058635,39.8140139996773],[-86.18951399949212,39.815143000215244],[-86.17627599992234,39.81527499999168],[-86.17528699955321,39.81310200014455],[-86.16908699993301,39.81310699960743]]]}},{"id":"28","type":"Feature","properties":{"GISJOIN":"G18009700029","pct_black":1.5},"geometry":{"type":"Polygon","coordinates":[[[-86.16396299959185,39.82484099981171],[-86.16385800035704,39.813132000151356],[-86.17528699955321,39.81310200014455],[-86.17627599992234,39.81527499999168],[-86.18951399949212,39.815143000215244],[-86.18668500030644,39.82460199959575],[-86.16396299959185,39.82484099981171]]]}},{"id":"29","type":"Feature","properties":{"GISJOIN":"G18009700030","pct_black":86.17},"geometry":{"type":"Polygon","coordinates":[[[-86.16125200001058,39.802279000104186],[-86.1631210002567,39.80094100032762],[-86.16277500054251,39.7979880002988],[-86.16365800028433,39.79716999983495],[-86.16624599977014,39.79663400032951],[-86.16928400007174,39.79723299991931],[-86.16926600039908,39.797826999800186],[-86.16792699955143,39.79774100004664],[-86.16794600029334,39.806507999955926],[-86.16850300023125,39.80650699972723],[-86.16856500009962,39.81011599956143],[-86.16140999995451,39.810131999877456],[-86.16125200001058,39.802279000104186]]]}},{"id":"30","type":"Feature","properties":{"GISJOIN":"G18009700031","pct_black":2.16},"geometry":{"type":"Polygon","coordinates":[[[-86.14955900032648,39.80576600008687],[-86.15307800023469,39.805597999689375],[-86.15662599990229,39.80348000007022],[-86.16125200001058,39.802279000104186],[-86.16140999995451,39.810131999877456],[-86.14960900033361,39.81029399989136],[-86.14955900032648,39.80576600008687]]]}},{"id":"31","type":"Feature","properties":{"GISJOIN":"G18009700032","pct_black":0.86},"geometry":{"type":"Polygon","coordinates":[[[-86.14318000021818,39.812607999927835],[-86.14237699970565,39.80980899995275],[-86.14478099953725,39.80758700007351],[-86.14955900032648,39.80576600008687],[-86.1496929996142,39.81761500006217],[-86.13789399962928,39.81799700013009],[-86.13889099985077,39.81659899959051],[-86.14268400037236,39.81460399987685],[-86.14318000021818,39.812607999927835]]]}},{"id":"32","type":"Feature","properties":{"GISJOIN":"G18009700033","pct_black":0.72},"geometry":{"type":"Polygon","coordinates":[[[-86.14960900033361,39.81029399989136],[-86.16905899970743,39.81011499998609],[-86.16908699993301,39.81310699960743],[-86.16385800035704,39.813132000151356],[-86.1638910003074,39.81731300046204],[-86.1496929996142,39.81761500006217],[-86.14960900033361,39.81029399989136]]]}},{"id":"33","type":"Feature","properties":{"GISJOIN":"G18009700034","pct_black":0.78},"geometry":{"type":"Polygon","coordinates":[[[-86.13789399962928,39.81799700013009],[-86.15442100018726,39.8175419999852],[-86.15448399946774,39.82492999994843],[-86.1308640005472,39.825441000174735],[-86.13766799940029,39.81941400023198],[-86.13789399962928,39.81799700013009]]]}},{"id":"34","type":"Feature","properties":{"GISJOIN":"G18009700035","pct_black":1.54},"geometry":{"type":"Polygon","coordinates":[[[-86.15442100018726,39.8175419999852],[-86.1638910003074,39.81731300046204],[-86.16396299959185,39.82484099981171],[-86.15448399946774,39.82492999994843],[-86.15442100018726,39.8175419999852]]]}},{"id":"35","type":"Feature","properties":{"GISJOIN":"G18009700036","pct_black":0.42},"geometry":{"type":"Polygon","coordinates":[[[-86.14013200016768,39.83239300001533],[-86.14033600030976,39.82534500004716],[-86.15448399946774,39.82492999994843],[-86.15456000026848,39.833738000423196],[-86.14983999951913,39.83379800031362],[-86.14982700004497,39.83227599965174],[-86.14013200016768,39.83239300001533]]]}},{"id":"36","type":"Feature","properties":{"GISJOIN":"G18009700037","pct_black":8.57},"geometry":{"type":"Polygon","coordinates":[[[-86.15448399946774,39.82492999994843],[-86.18078300051388,39.82473599991028],[-86.18292299988197,39.829189000105],[-86.17866300054034,39.83180300032937],[-86.17590800055598,39.83203999988458],[-86.17591700009467,39.833847000006195],[-86.15456000026848,39.833738000423196],[-86.15448399946774,39.82492999994843]]]}},{"id":"37","type":"Feature","properties":{"GISJOIN":"G18009700038","pct_black":2.76},"geometry":{"type":"Polygon","coordinates":[[[-86.12910399985724,39.826895999856156],[-86.1308640005472,39.825441000174735],[-86.14033600030976,39.82534500004716],[-86.14029700041667,39.83969200029271],[-86.13871399988706,39.84017599969455],[-86.12192499979325,39.840258000243765],[-86.12179800033316,39.83495900029672],[-86.1269619996296,39.831669000336944],[-86.13002500019294,39.82746599972177],[-86.12910399985724,39.826895999856156]]]}},{"id":"38","type":"Feature","properties":{"GISJOIN":"G18009700039","pct_black":0.56},"geometry":{"type":"Polygon","coordinates":[[[-86.14013200016768,39.83239300001533],[-86.14982700004497,39.83227599965174],[-86.14983999951913,39.83379800031362],[-86.15456000026848,39.833738000423196],[-86.15462699982365,39.83950900030742],[-86.14029700041667,39.83969200029271],[-86.14013200016768,39.83239300001533]]]}},{"id":"39","type":"Feature","properties":{"GISJOIN":"G18009700040","pct_black":0.0},"geometry":{"type":"Polygon","coordinates":[[[-86.12038339860837,39.84025275710177],[-86.13871399988706,39.84017599969455],[-86.14029700041667,39.83969200029271],[-86.14055199967602,39.84700099978633],[-86.13916400018533,39.84754999984278],[-86.12201600005002,39.847596999713005],[-86.12203528240597,39.84565930620438],[-86.12112097988951,39.84564756238281],[-86.12196499959235,39.84356900035425],[-86.12193634464434,39.84122559575476],[-86.11992041739592,39.841237170913224],[-86.12038339860837,39.84025275710177]]]}},{"id":"40","type":"Feature","properties":{"GISJOIN":"G18009700041","pct_black":0.3},"geometry":{"type":"Polygon","coordinates":[[[-86.14029700041667,39.83969200029271],[-86.15462699982365,39.83950900030742],[-86.15472699974234,39.8468169995754],[-86.14055199967602,39.84700099978633],[-86.14029700041667,39.83969200029271]]]}},{"id":"41","type":"Feature","properties":{"GISJOIN":"G18009700042","pct_black":1.34},"geometry":{"type":"Polygon","coordinates":[[[-86.15472699974234,39.8468169995754],[-86.15456000026848,39.833738000423196],[-86.17591700009467,39.833847000006195],[-86.17590800055598,39.83203999988458],[-86.17806010687943,39.831980227256444],[-86.17823600009268,39.83387200004983],[-86.16976900026098,39.846668999951696],[-86.15472699974234,39.8468169995754]]]}},{"id":"42","type":"Feature","properties":{"GISJOIN":"G18009700043","pct_black":0.86},"geometry":{"type":"Polygon","coordinates":[[[-86.14055199967602,39.84700099978633],[-86.16429399943745,39.8466750001176],[-86.16976900026098,39.846668999951696],[-86.16074800026283,39.85467700042951],[-86.1609909998464,39.85407999990299],[-86.14058400049437,39.854282000009],[-86.14055199967602,39.84700099978633]]]}},{"id":"43","type":"Feature","properties":{"GISJOIN":"G18009700044","pct_black":0.44},"geometry":{"type":"Polygon","coordinates":[[[-86.153703999957,39.87252800037635],[-86.15612800021572,39.871130999929015],[-86.15596400009102,39.87056699999123],[-86.14617899968266,39.87040500016182],[-86.1461359997671,39.86981899966286],[-86.14428000016783,39.870647999683285],[-86.14170999962717,39.87070099994575],[-86.1407949994647,39.86858199969062],[-86.14049899953255,39.863849000323675],[-86.1411150004779,39.85939899990464],[-86.14058400049437,39.854282000009],[-86.1609909998464,39.85407999990299],[-86.1595290002703,39.855898000390305],[-86.15973599951836,39.862106999724425],[-86.16219000052055,39.86220200005359],[-86.15982699994517,39.86840599984589],[-86.16500899946642,39.86826299975164],[-86.1650139995233,39.87313700038678],[-86.15879000034609,39.87355200028405],[-86.153703999957,39.87252800037635]]]}},{"id":"44","type":"Feature","properties":{"GISJOIN":"G18009700045","pct_black":0.26},"geometry":{"type":"Polygon","coordinates":[[[-86.128248000217,39.86864999984753],[-86.12817300046567,39.862333999811256],[-86.14070700034105,39.86226100015018],[-86.1407949994647,39.86858199969062],[-86.14170999962717,39.87070099994575],[-86.14428000016783,39.870647999683285],[-86.1461359997671,39.86981899966286],[-86.14617899968266,39.87040500016182],[-86.15542100058546,39.87030199990806],[-86.15612800021572,39.871130999929015],[-86.153703999957,39.87252800037635],[-86.152274000245,39.874333000433985],[-86.1530359998993,39.87491099958103],[-86.15014300035298,39.87823300022317],[-86.14588199982765,39.87987300009345],[-86.14593599945995,39.87924200029443],[-86.14123799983695,39.878699000161944],[-86.13894799980805,39.8765689996395],[-86.13982700046625,39.87447100016345],[-86.13942799964727,39.87423400023112],[-86.13454866989545,39.871794221781855],[-86.1341380035033,39.87271745725315],[-86.13301410834038,39.87232057486117],[-86.13303299985212,39.8713889997592],[-86.13630599939872,39.86967500018328],[-86.13642100017906,39.86912600012608],[-86.13388999983832,39.86861599986087],[-86.128248000217,39.86864999984753]]]}},{"id":"45","type":"Feature","properties":{"GISJOIN":"G18009700046","pct_black":0.25},"geometry":{"type":"Polygon","coordinates":[[[-86.06415300044102,39.77506499963484],[-86.08312699980456,39.774892999663535],[-86.08325044666545,39.78338269227375],[-86.0779068983268,39.78334267567882],[-86.07789870357534,39.782444579756714],[-86.06424200015738,39.78264399996961],[-86.06415300044102,39.77506499963484]]]}},{"id":"46","type":"Feature","properties":{"GISJOIN":"G18009700047","pct_black":0.13},"geometry":{"type":"Polygon","coordinates":[[[-86.08312699980456,39.774892999663535],[-86.09623500056662,39.77476599976565],[-86.0963840004249,39.781439000408916],[-86.08319600055191,39.78152900022132],[-86.08312699980456,39.774892999663535]]]}},{"id":"47","type":"Feature","properties":{"GISJOIN":"G18009700048","pct_black":0.13},"geometry":{"type":"Polygon","coordinates":[[[-86.09623500056662,39.77476599976565],[-86.10101999969416,39.774712999735385],[-86.10736500004023,39.7746220001835],[-86.10657800044359,39.77659400001878],[-86.103507000276,39.77933099973802],[-86.10255300002589,39.781409999672825],[-86.0963840004249,39.781439000408916],[-86.09623500056662,39.77476599976565]]]}},{"id":"48","type":"Feature","properties":{"GISJOIN":"G18009700049","pct_black":0.0},"geometry":{"type":"Polygon","coordinates":[[[-86.10736500004023,39.7746220001835],[-86.11306800044179,39.77452199990727],[-86.11313000012606,39.781356000086404],[-86.10255300002589,39.781409999672825],[-86.103507000276,39.77933099973802],[-86.10657800044359,39.77659400001878],[-86.10736500004023,39.7746220001835]]]}},{"id":"49","type":"Feature","properties":{"GISJOIN":"G18009700050","pct_black":0.05},"geometry":{"type":"Polygon","coordinates":[[[-86.11306800044179,39.77452199990727],[-86.12135700041445,39.77440000029687],[-86.12137799978247,39.781278999579186],[-86.11313000012606,39.781356000086404],[-86.11306800044179,39.77452199990727]]]}},{"id":"50","type":"Feature","properties":{"GISJOIN":"G18009700051","pct_black":0.05},"geometry":{"type":"Polygon","coordinates":[[[-86.12135700041445,39.77440000029687],[-86.1218889998061,39.77439499955049],[-86.12181999969137,39.76796600000616],[-86.12541999974697,39.76770000041398],[-86.12545099976393,39.77436299988866],[-86.12691600040381,39.774351999794774],[-86.1269149999682,39.78129399991996],[-86.12132199988683,39.781327999654394],[-86.12135700041445,39.77440000029687]]]}},{"id":"51","type":"Feature","properties":{"GISJOIN":"G18009700052","pct_black":1.18},"geometry":{"type":"Polygon","coordinates":[[[-86.12541999974697,39.76770000041398],[-86.13342299969449,39.7671290003625],[-86.13346199965905,39.774301999955846],[-86.12545099976393,39.77436299988866],[-86.12541999974697,39.76770000041398]]]}},{"id":"52","type":"Feature","properties":{"GISJOIN":"G18009700053","pct_black":1.24},"geometry":{"type":"Polygon","coordinates":[[[-86.1306469998648,39.77432099998345],[-86.13346199965905,39.774301999955846],[-86.13342299969449,39.7671290003625],[-86.14080200049655,39.766936999884166],[-86.14077800006915,39.768085000278916],[-86.13949000005302,39.76806199989298],[-86.13999799951415,39.77098099967493],[-86.14103599953648,39.770939000091865],[-86.14050399981633,39.77204800035341],[-86.1400420003872,39.78123900032243],[-86.13072099946609,39.78127700018143],[-86.1306469998648,39.77432099998345]]]}},{"id":"53","type":"Feature","properties":{"GISJOIN":"G18009700054","pct_black":3.24},"geometry":{"type":"Polygon","coordinates":[[[-86.14080200049655,39.766936999884166],[-86.1473300004162,39.76684100024175],[-86.1469519997883,39.776267000029975],[-86.1472400001108,39.777782999746144],[-86.14778199990715,39.77779099972482],[-86.14766399942359,39.78077700019786],[-86.14002699995389,39.78067099965006],[-86.14050399981633,39.77204800035341],[-86.14103599953648,39.770939000091865],[-86.13999799951415,39.77098099967493],[-86.13949000005302,39.76806199989298],[-86.14077800006915,39.768085000278916],[-86.14080200049655,39.766936999884166]]]}},{"id":"54","type":"Feature","properties":{"GISJOIN":"G18009700055","pct_black":4.99},"geometry":{"type":"Polygon","coordinates":[[[-86.14766399942359,39.78077700019786],[-86.14778199990715,39.77779099972482],[-86.1472400001108,39.777782999746144],[-86.1469519997883,39.776267000029975],[-86.1473300004162,39.76684100024175],[-86.15446800015685,39.76699599984545],[-86.15393800007719,39.781047999728926],[-86.14766399942359,39.78077700019786]]]}},{"id":"55","type":"Feature","properties":{"GISJOIN":"G18009700056","pct_black":22.67},"geometry":{"type":"Polygon","coordinates":[[[-86.15397100003125,39.78008899972967],[-86.15446800015685,39.76699599984545],[-86.16513899988489,39.76723599964614],[-86.16558499983805,39.76840999962723],[-86.16468700041735,39.77396300030483],[-86.16617399950009,39.78096499982797],[-86.16143001322845,39.78104029334296],[-86.15397100003125,39.78008899972967]]]}},{"id":"56","type":"Feature","properties":{"GISJOIN":"G18009700057","pct_black":80.52},"geometry":{"type":"Polygon","coordinates":[[[-86.17051700061116,39.777932999730425],[-86.16468700041735,39.77396300030483],[-86.16558499983805,39.76840999962723],[-86.16513899988489,39.76723599964614],[-86.1732792246581,39.76806504253686],[-86.17331199954245,39.771682000187276],[-86.17448599959285,39.771718000310884],[-86.17426300049682,39.77587400013614],[-86.17328900031265,39.77584500037563],[-86.17317899997605,39.77731700041338],[-86.17055600051229,39.777243999781554],[-86.17051700061116,39.777932999730425]]]}},{"id":"57","type":"Feature","properties":{"GISJOIN":"G18009700058","pct_black":42.64},"geometry":{"type":"Polygon","coordinates":[[[-86.17426300049682,39.77587400013614],[-86.17448599959285,39.771718000310884],[-86.17331199954245,39.771682000187276],[-86.1732792246581,39.76806504253686],[-86.16841200025277,39.76734499983018],[-86.17392100018694,39.76698300006137],[-86.17607499951694,39.76806199986482],[-86.18395200033832,39.77011800038585],[-86.18601300010866,39.7717039998578],[-86.18864200045917,39.775079000292905],[-86.1901979998602,39.77844600008754],[-86.18962000058147,39.78027599965448],[-86.1878349993908,39.77972700028899],[-86.17979899971006,39.78001700030022],[-86.1755529995357,39.78095599963472],[-86.1757409994167,39.77599299994452],[-86.17426300049682,39.77587400013614]]]}},{"id":"58","type":"Feature","properties":{"GISJOIN":"G18009700059","pct_black":18.08},"geometry":{"type":"Polygon","coordinates":[[[-86.2019071101466,39.791536393074594],[-86.20102003822016,39.79151502826414],[-86.19905800010683,39.78843199972822],[-86.19700599960346,39.78732299988207],[-86.19321399947276,39.78574299973211],[-86.1896220004223,39.78537100020289],[-86.18780074851846,39.784623571567636],[-86.18741853956853,39.78405340100401],[-86.1889984520249,39.78138846992316],[-86.19054201359187,39.78064390073502],[-86.21060400015766,39.7806140001646],[-86.21073600054086,39.78717900020927],[-86.21103099962912,39.78787899952324],[-86.21363899968611,39.78784299955969],[-86.21349599956783,39.79177899994553],[-86.21109800005615,39.79180300030592],[-86.21114100035108,39.79334900018199],[-86.20638400036648,39.793379000043764],[-86.20633000020979,39.78989699967995],[-86.2009218560206,39.7898768353513],[-86.2019071101466,39.791536393074594]]]}},{"id":"59","type":"Feature","properties":{"GISJOIN":"G18009700060","pct_black":0.0},"geometry":{"type":"Polygon","coordinates":[[[-86.21058800020305,39.78060500035178],[-86.2254230006324,39.780357999650114],[-86.22564893618241,39.78760955994739],[-86.21103099962912,39.78787899952324],[-86.21058800020305,39.78060500035178]]]}},{"id":"60","type":"Feature","properties":{"GISJOIN":"G18009700061","pct_black":0.0},"geometry":{"type":"Polygon","coordinates":[[[-86.2160229994987,39.78051999973068],[-86.2161269999648,39.77214099962471],[-86.22394099995772,39.772044999912566],[-86.22511299992489,39.77376100030804],[-86.225215999627,39.77587000035577],[-86.22765841328513,39.775890643452676],[-86.22763864383651,39.775264443695505],[-86.23426908019607,39.775470477861944],[-86.23389099978337,39.771664999934956],[-86.23778799946008,39.771785999677384],[-86.24430800042596,39.77217100007389],[-86.2446269567798,39.775770892104],[-86.24114300046534,39.776195000255356],[-86.23929099948886,39.77552900005169],[-86.23869470782068,39.776457404023645],[-86.23410104542542,39.77635829534769],[-86.23409000017482,39.77820199991024],[-86.23011599961114,39.77839799969305],[-86.2277290069056,39.77813479476701],[-86.22811400018342,39.776648999712464],[-86.22521200058124,39.776639999647124],[-86.2254230006324,39.780357999650114],[-86.2160229994987,39.78051999973068]]]}},{"id":"61","type":"Feature","properties":{"GISJOIN":"G18009700062","pct_black":0.0},"geometry":{"type":"Polygon","coordinates":[[[-86.20519299964467,39.78067599969703],[-86.20519900053698,39.77429699979442],[-86.21612799952163,39.774223000332995],[-86.2160229994987,39.78051999973068],[-86.20519299964467,39.78067599969703]]]}},{"id":"62","type":"Feature","properties":{"GISJOIN":"G18009700063","pct_black":17.27},"geometry":{"type":"Polygon","coordinates":[[[-86.20519299964467,39.78067599969703],[-86.18962000058147,39.78027599965448],[-86.1901979998602,39.77844600008754],[-86.18864200045917,39.775079000292905],[-86.20520100028635,39.77461199957391],[-86.20519299964467,39.78067599969703]]]}},{"id":"63","type":"Feature","properties":{"GISJOIN":"G18009700064","pct_black":6.25},"geometry":{"type":"Polygon","coordinates":[[[-86.20650599989366,39.76528300031968],[-86.21178200037302,39.764727999595074],[-86.21956899960549,39.76270399990188],[-86.22161699971772,39.765130999648335],[-86.21585000015332,39.76532099998176],[-86.21612799952163,39.774223000332995],[-86.20656999956451,39.774603999842775],[-86.20650599989366,39.76528300031968]]]}},{"id":"64","type":"Feature","properties":{"GISJOIN":"G18009700065","pct_black":0.06},"geometry":{"type":"Polygon","coordinates":[[[-86.19690099968426,39.766238999595124],[-86.20650599989366,39.76528300031968],[-86.20656999956451,39.774603999842775],[-86.1969290001813,39.77469999959786],[-86.19690099968426,39.766238999595124]]]}},{"id":"65","type":"Feature","properties":{"GISJOIN":"G18009700066","pct_black":0.16},"geometry":{"type":"Polygon","coordinates":[[[-86.18601300010866,39.7717039998578],[-86.18879799952624,39.77156200008292],[-86.18826399976136,39.76712100008938],[-86.19690099968426,39.766238999595124],[-86.1969290001813,39.77469999959786],[-86.18864200045917,39.775079000292905],[-86.18601300010866,39.7717039998578]]]}},{"id":"66","type":"Feature","properties":{"GISJOIN":"G18009700067","pct_black":0.07},"geometry":{"type":"Polygon","coordinates":[[[-86.06411900028223,39.771110000437936],[-86.08306999960858,39.77016599975369],[-86.08312699980456,39.774892999663535],[-86.06415300044102,39.77506499963484],[-86.06411900028223,39.771110000437936]]]}},{"id":"67","type":"Feature","properties":{"GISJOIN":"G18009700068","pct_black":0.09},"geometry":{"type":"Polygon","coordinates":[[[-86.08306999960858,39.77016599975369],[-86.096162000216,39.769507999621496],[-86.09623500056662,39.77476599976565],[-86.08312699980456,39.774892999663535],[-86.08306999960858,39.77016599975369]]]}},{"id":"68","type":"Feature","properties":{"GISJOIN":"G18009700069","pct_black":0.0},"geometry":{"type":"Polygon","coordinates":[[[-86.096162000216,39.769507999621496],[-86.10720599998331,39.76894900037869],[-86.10736500004023,39.7746220001835],[-86.09623500056662,39.77476599976565],[-86.096162000216,39.769507999621496]]]}},{"id":"69","type":"Feature","properties":{"GISJOIN":"G18009700070","pct_black":0.04},"geometry":{"type":"Polygon","coordinates":[[[-86.10720599998331,39.76894900037869],[-86.12181999969137,39.76796600000616],[-86.1218889998061,39.77439499955049],[-86.10736500004023,39.7746220001835],[-86.10720599998331,39.76894900037869]]]}},{"id":"70","type":"Feature","properties":{"GISJOIN":"G18009700071","pct_black":1.36},"geometry":{"type":"Polygon","coordinates":[[[-86.06004200028701,39.76856799958502],[-86.05993199992541,39.76105199990303],[-86.06397199948852,39.76093199998995],[-86.0639670001028,39.757914000269075],[-86.07684499943382,39.76070600010693],[-86.07678300062636,39.75686299969687],[-86.08292599999628,39.75666799967706],[-86.08306999960858,39.77016599975369],[-86.06411900028223,39.771110000437936],[-86.06407999959052,39.768388000363906],[-86.06004200028701,39.76856799958502]]]}},{"id":"71","type":"Feature","properties":{"GISJOIN":"G18009700072","pct_black":0.26},"geometry":{"type":"Polygon","coordinates":[[[-86.08306999960858,39.77016599975369],[-86.08287499998667,39.75283899986679],[-86.1019390005133,39.75270399966824],[-86.10214300048311,39.76920300004757],[-86.08306999960858,39.77016599975369]]]}},{"id":"72","type":"Feature","properties":{"GISJOIN":"G18009700073","pct_black":0.25},"geometry":{"type":"Polygon","coordinates":[[[-86.10201900001614,39.760030000338595],[-86.11636199987144,39.75984200038702],[-86.11643699957577,39.768362000194315],[-86.10214300048311,39.76920300004757],[-86.10201900001614,39.760030000338595]]]}},{"id":"73","type":"Feature","properties":{"GISJOIN":"G18009700074","pct_black":51.83},"geometry":{"type":"Polygon","coordinates":[[[-86.10201900001614,39.760030000338595],[-86.10177135165348,39.74533919546647],[-86.10844200036219,39.74529799974623],[-86.10843199955505,39.74164499974206],[-86.11140699959982,39.74141499982419],[-86.1186339998598,39.744362999749725],[-86.11864899960209,39.74515600017366],[-86.1210479994162,39.74512400015048],[-86.12121600031672,39.75745600004656],[-86.11652600057317,39.75757800005826],[-86.11636199987144,39.75984200038702],[-86.10201900001614,39.760030000338595]]]}},{"id":"74","type":"Feature","properties":{"GISJOIN":"G18009700075","pct_black":0.0},"geometry":{"type":"Polygon","coordinates":[[[-86.11642000015705,39.76528900045565],[-86.11664499987197,39.757533999705494],[-86.13068200029764,39.75791399980649],[-86.13061099960726,39.76499099996933],[-86.12271695602449,39.764506773217406],[-86.11642000015705,39.76528900045565]]]}},{"id":"75","type":"Feature","properties":{"GISJOIN":"G18009700076","pct_black":1.8},"geometry":{"type":"Polygon","coordinates":[[[-86.11642000015705,39.76528900045565],[-86.12271695602449,39.764506773217406],[-86.13061099960726,39.76499099996933],[-86.13061399997805,39.759720000300774],[-86.13984100019945,39.75963999969105],[-86.1398090005271,39.763843000212226],[-86.14076800034607,39.764765000172595],[-86.14077700057392,39.7665529996444],[-86.14182199962914,39.7669170003973],[-86.11643699957577,39.768362000194315],[-86.11642000015705,39.76528900045565]]]}},{"id":"76","type":"Feature","properties":{"GISJOIN":"G18009700077","pct_black":4.02},"geometry":{"type":"Polygon","coordinates":[[[-86.13985099995882,39.76138399958101],[-86.1546860004815,39.76135800020151],[-86.15446800015685,39.76699599984545],[-86.14077700057392,39.7665529996444],[-86.14076800034607,39.764765000172595],[-86.1398090005271,39.763843000212226],[-86.13985099995882,39.76138399958101]]]}},{"id":"77","type":"Feature","properties":{"GISJOIN":"G18009700078","pct_black":4.55},"geometry":{"type":"Polygon","coordinates":[[[-86.15446800015685,39.76699599984545],[-86.15489100056965,39.75644400010723],[-86.17105600034945,39.75684900040381],[-86.17240099964715,39.75761100028121],[-86.17345200035986,39.756533000395024],[-86.17463100001387,39.759423999782754],[-86.17319900010689,39.76373499987343],[-86.17321199979058,39.76569899968941],[-86.17392100018694,39.76698300006137],[-86.16922599950941,39.767373000007744],[-86.15446800015685,39.76699599984545]]]}},{"id":"78","type":"Feature","properties":{"GISJOIN":"G18009700079","pct_black":2.85},"geometry":{"type":"Polygon","coordinates":[[[-86.17392100018694,39.76698300006137],[-86.17321199979058,39.76569899968941],[-86.17319900010689,39.76373499987343],[-86.17463100001387,39.759423999782754],[-86.17410799987766,39.75853299965625],[-86.18724499986288,39.7585359999845],[-86.18733199945582,39.767217999770516],[-86.18826399976136,39.76712100008938],[-86.18879799952624,39.77156200008292],[-86.18601300010866,39.7717039998578],[-86.18395200033832,39.77011800038585],[-86.17607499951694,39.76806199986482],[-86.17392100018694,39.76698300006137]]]}},{"id":"79","type":"Feature","properties":{"GISJOIN":"G18009700080","pct_black":0.0},"geometry":{"type":"Polygon","coordinates":[[[-86.18726800016599,39.7626309997417],[-86.21607800036485,39.755608000116595],[-86.21630999991008,39.76015499970388],[-86.21806600046384,39.761887999791945],[-86.22048399978488,39.76211999987584],[-86.21876699959985,39.76300999960698],[-86.21152499957711,39.764775999628945],[-86.18733199945582,39.767217999770516],[-86.18726800016599,39.7626309997417]]]}},{"id":"80","type":"Feature","properties":{"GISJOIN":"G18009700081","pct_black":1.18},"geometry":{"type":"Polygon","coordinates":[[[-86.18726800016599,39.7626309997417],[-86.18720700021582,39.75277399962848],[-86.18773499955284,39.751232000265],[-86.20810599972779,39.75053500027481],[-86.20810499994884,39.7518229997166],[-86.2121159997975,39.75536899996623],[-86.2138400004886,39.756150999895176],[-86.18726800016599,39.7626309997417]]]}},{"id":"81","type":"Feature","properties":{"GISJOIN":"G18009700082","pct_black":8.25},"geometry":{"type":"Polygon","coordinates":[[[-86.12120400037513,39.75747400012779],[-86.1210479994162,39.74512400015048],[-86.12297600038154,39.7451070001648],[-86.12685599969612,39.74251899986421],[-86.13044900042068,39.74151000001674],[-86.13068200029764,39.75791399980649],[-86.12359700009485,39.75797799972572],[-86.12359600042629,39.75744700013527],[-86.12120400037513,39.75747400012779]]]}},{"id":"82","type":"Feature","properties":{"GISJOIN":"G18009700083","pct_black":0.0},"geometry":{"type":"Polygon","coordinates":[[[-86.13065199967964,39.759707000094004],[-86.1306679995445,39.7523999996395],[-86.1397840000219,39.75232799990834],[-86.13984100019945,39.75963999969105],[-86.13065199967964,39.759707000094004]]]}},{"id":"83","type":"Feature","properties":{"GISJOIN":"G18009700084","pct_black":4.67},"geometry":{"type":"Polygon","coordinates":[[[-86.13985099995882,39.76138399958101],[-86.1397829999015,39.7519989998063],[-86.14924900053413,39.761218999618436],[-86.13985099995882,39.76138399958101]]]}},{"id":"84","type":"Feature","properties":{"GISJOIN":"G18009700085","pct_black":1.64},"geometry":{"type":"Polygon","coordinates":[[[-86.1397829999015,39.7519989998063],[-86.13978800035974,39.750612000317204],[-86.14950200033286,39.750521000131634],[-86.14946500035451,39.75631900044996],[-86.14409644710948,39.756187290071416],[-86.1397829999015,39.7519989998063]]]}},{"id":"85","type":"Feature","properties":{"GISJOIN":"G18009700086","pct_black":0.33},"geometry":{"type":"Polygon","coordinates":[[[-86.14924900053413,39.761218999618436],[-86.14409644710948,39.756187290071416],[-86.14946500035451,39.75631900044996],[-86.14951699967706,39.755016999831305],[-86.15493600016879,39.75512900032053],[-86.1546860004815,39.76135800020151],[-86.14924900053413,39.761218999618436]]]}},{"id":"86","type":"Feature","properties":{"GISJOIN":"G18009700087","pct_black":23.0},"geometry":{"type":"Polygon","coordinates":[[[-86.15489100056965,39.75644400010723],[-86.15427399986054,39.75191700021309],[-86.16245399952815,39.751674000087455],[-86.16213300051321,39.75660899979452],[-86.15489100056965,39.75644400010723]]]}},{"id":"87","type":"Feature","properties":{"GISJOIN":"G18009700088","pct_black":9.82},"geometry":{"type":"Polygon","coordinates":[[[-86.16213300051321,39.75660899979452],[-86.16245399952815,39.751674000087455],[-86.17453300039558,39.75149500023046],[-86.17345200035986,39.756533000395024],[-86.17240099964715,39.75761100028121],[-86.17105600034945,39.75684900040381],[-86.16213300051321,39.75660899979452]]]}},{"id":"88","type":"Feature","properties":{"GISJOIN":"G18009700089","pct_black":0.02},"geometry":{"type":"Polygon","coordinates":[[[-86.17345200035986,39.756533000395024],[-86.17453300039558,39.75149500023046],[-86.16916699953104,39.741788999522164],[-86.1733840005332,39.74263400003071],[-86.1832949998422,39.74776399982076],[-86.18528700034881,39.75059299965467],[-86.18713199979736,39.75606600010562],[-86.18724499986288,39.7585359999845],[-86.17410799987766,39.75853299965625],[-86.17345200035986,39.756533000395024]]]}},{"id":"89","type":"Feature","properties":{"GISJOIN":"G18009700090","pct_black":2.65},"geometry":{"type":"Polygon","coordinates":[[[-86.13044900042068,39.74151000001674],[-86.1397840004128,39.74134099984064],[-86.1397840000219,39.75232799990834],[-86.1306679995445,39.7523999996395],[-86.13044900042068,39.74151000001674]]]}},{"id":"90","type":"Feature","properties":{"GISJOIN":"G18009700091","pct_black":0.0},"geometry":{"type":"Polygon","coordinates":[[[-86.1397840004128,39.74134099984064],[-86.14940699948393,39.741083000292],[-86.14950200033286,39.750521000131634],[-86.13978800035974,39.750612000317204],[-86.1397840004128,39.74134099984064]]]}},{"id":"91","type":"Feature","properties":{"GISJOIN":"G18009700092","pct_black":0.05},"geometry":{"type":"Polygon","coordinates":[[[-86.1494810001513,39.748228000278274],[-86.14940699948393,39.741083000292],[-86.15906300004723,39.74112600024033],[-86.15911900035137,39.74876199965298],[-86.15627199939318,39.748796000279576],[-86.15626600005035,39.74814700026704],[-86.1494810001513,39.748228000278274]]]}},{"id":"92","type":"Feature","properties":{"GISJOIN":"G18009700093","pct_black":0.0},"geometry":{"type":"Polygon","coordinates":[[[-86.14951699967706,39.755016999831305],[-86.14952599994315,39.74821900032521],[-86.15626600005035,39.74814700026704],[-86.15627199939318,39.748796000279576],[-86.15911900035137,39.74876199965298],[-86.1591769996246,39.75172299954017],[-86.15427399986054,39.75191700021309],[-86.15493600016879,39.75512900032053],[-86.14951699967706,39.755016999831305]]]}},{"id":"93","type":"Feature","properties":{"GISJOIN":"G18009700094","pct_black":0.87},"geometry":{"type":"Polygon","coordinates":[[[-86.1591769996246,39.75172299954017],[-86.15902100010338,39.73723300016041],[-86.15437300019457,39.737236000229124],[-86.1539260000684,39.72984900001152],[-86.15888999967567,39.72975900025142],[-86.15887493523094,39.728932445728475],[-86.1600549996581,39.728497000196455],[-86.17467790058834,39.728895825908374],[-86.16958600014226,39.73706200017801],[-86.16916299969901,39.74182500001031],[-86.17453300039558,39.75149500023046],[-86.1591769996246,39.75172299954017]]]}},{"id":"94","type":"Feature","properties":{"GISJOIN":"G18009700095","pct_black":6.29},"geometry":{"type":"Polygon","coordinates":[[[-86.16916699953104,39.741788999522164],[-86.16958600014226,39.73706200017801],[-86.17546600035365,39.72778299967544],[-86.17739999984607,39.72671500001696],[-86.1885669997697,39.72645100021616],[-86.18959500050381,39.72565699978964],[-86.1892669997994,39.719514000294524],[-86.19094500004871,39.71824200009409],[-86.19632299953142,39.7163370000936],[-86.1959110002481,39.73513900001473],[-86.19662800010123,39.73921199972974],[-86.19673800008235,39.75099299987095],[-86.18735799971881,39.7512840000782],[-86.18713199979736,39.75606600010562],[-86.18506399987909,39.750091999744676],[-86.182836999878,39.74737300029658],[-86.1733180003273,39.74260699991307],[-86.16916699953104,39.741788999522164]]]}},{"id":"95","type":"Feature","properties":{"GISJOIN":"G18009700096","pct_black":9.5},"geometry":{"type":"Polygon","coordinates":[[[-86.19599400007375,39.73630599977228],[-86.20100749020173,39.735994059478564],[-86.20081225824605,39.73773526948327],[-86.19946499953224,39.73788400016474],[-86.20078800001211,39.74011900020409],[-86.20032800000438,39.742268999987786],[-86.20101399993064,39.74542700043455],[-86.20397900002001,39.74703300044917],[-86.20810599972779,39.75053500027481],[-86.19673800008235,39.75099299987095],[-86.19662800010123,39.73921199972974],[-86.19599400007375,39.73630599977228]]]}},{"id":"96","type":"Feature","properties":{"GISJOIN":"G18009700097","pct_black":49.08},"geometry":{"type":"Polygon","coordinates":[[[-86.11621805767379,39.74344084962512],[-86.11642268127598,39.7377480468178],[-86.13038299966799,39.73764400035973],[-86.13044900042068,39.74151000001674],[-86.12685599969612,39.74251899986421],[-86.12297600038154,39.7451070001648],[-86.11864899960209,39.74515600017366],[-86.1186339998598,39.744362999749725],[-86.11621805767379,39.74344084962512]]]}},{"id":"97","type":"Feature","properties":{"GISJOIN":"G18009700098","pct_black":0.0},"geometry":{"type":"Polygon","coordinates":[[[-86.11130082460714,39.729112775788444],[-86.11128559346498,39.726914635764146],[-86.11600103537678,39.7270279903876],[-86.11579172280133,39.72321764693607],[-86.12077799942402,39.72315100001703],[-86.12085599971594,39.73171100004597],[-86.12752200027958,39.73165800008782],[-86.13031999957732,39.732791999754525],[-86.13038299966799,39.73764400035973],[-86.11874299960107,39.73770499961994],[-86.11180388773562,39.73051019914563],[-86.11435847214823,39.730496916548255],[-86.11450012488892,39.72920234878856],[-86.11130082460714,39.729112775788444]]]}},{"id":"98","type":"Feature","properties":{"GISJOIN":"G18009700099","pct_black":2.84},"geometry":{"type":"Polygon","coordinates":[[[-86.13044900042068,39.74151000001674],[-86.13030899084642,39.73027629048617],[-86.13965499988119,39.73031100006608],[-86.13975400034002,39.738795000035424],[-86.14020419943284,39.7394222086182],[-86.1397840004128,39.74134099984064],[-86.13044900042068,39.74151000001674]]]}},{"id":"99","type":"Feature","properties":{"GISJOIN":"G18009700100","pct_black":0.22},"geometry":{"type":"Polygon","coordinates":[[[-86.13968800053432,39.73371699972961],[-86.14449899953102,39.733648999780364],[-86.1445560002053,39.73727200016045],[-86.15902100010338,39.73723300016041],[-86.15906300004723,39.74112600024033],[-86.1397840004128,39.74134099984064],[-86.14020419943284,39.7394222086182],[-86.13975400034002,39.738795000035424],[-86.13968800053432,39.73371699972961]]]}},{"id":"100","type":"Feature","properties":{"GISJOIN":"G18009700101","pct_black":3.93},"geometry":{"type":"Polygon","coordinates":[[[-86.12831000000111,39.72305500026021],[-86.13081200004603,39.72301499969222],[-86.12988781919952,39.71888568778536],[-86.13949799954915,39.71869600030796],[-86.13965499988119,39.73031100006608],[-86.12847896012919,39.73020970396769],[-86.12831000000111,39.72305500026021]]]}},{"id":"101","type":"Feature","properties":{"GISJOIN":"G18009700102","pct_black":0.0},"geometry":{"type":"Polygon","coordinates":[[[-86.13968800053432,39.73371699972961],[-86.1395419997334,39.722747000012056],[-86.14540200052443,39.72265499966649],[-86.14828499966674,39.72992900002243],[-86.1539260000684,39.72984900001152],[-86.15437300019457,39.737236000229124],[-86.1445560002053,39.73727200016045],[-86.14449899953102,39.733648999780364],[-86.13968800053432,39.73371699972961]]]}},{"id":"102","type":"Feature","properties":{"GISJOIN":"G18009700103","pct_black":0.17},"geometry":{"type":"Polygon","coordinates":[[[-86.13931295956239,39.700743286917415],[-86.1426630003062,39.708282000131575],[-86.13941800023615,39.70832099967671],[-86.13949799954915,39.71869600030796],[-86.13828199951703,39.71870999982049],[-86.1382849998416,39.70831200012054],[-86.13701934766596,39.708309893848366],[-86.13700887541489,39.70918308052396],[-86.13482539609166,39.709167985445355],[-86.1348365065271,39.708312272755656],[-86.13007800032558,39.70833700011992],[-86.12996173223884,39.70083833351909],[-86.13931295956239,39.700743286917415]]]}},{"id":"103","type":"Feature","properties":{"GISJOIN":"G18009700104","pct_black":14.59},"geometry":{"type":"Polygon","coordinates":[[[-86.04993299953384,39.7691200003079],[-86.06407999959052,39.768388000363906],[-86.06424700035383,39.782940999665705],[-86.06331960086398,39.78298568148104],[-86.06316095860485,39.78163637551014],[-86.0580239152665,39.781670514899254],[-86.05800699561723,39.78057690607691],[-86.05649989756488,39.78060782131108],[-86.05645400058505,39.78167899979745],[-86.05546600025724,39.781685000466844],[-86.05556221067033,39.774155029408576],[-86.05469428225574,39.774097873616384],[-86.05470399976706,39.77361500009155],[-86.04997800020386,39.77370699988467],[-86.04993299953384,39.7691200003079]]]}},{"id":"104","type":"Feature","properties":{"GISJOIN":"G18009700105","pct_black":1.2},"geometry":{"type":"Polygon","coordinates":[[[-86.14588199982765,39.87987300009345],[-86.15014300035298,39.87823300022317],[-86.1530359998993,39.87491099958103],[-86.1554440005597,39.8767709996201],[-86.15544599949901,39.88308300029364],[-86.15432799985231,39.883078999578764],[-86.1543229994195,39.882558000166625],[-86.15174600030146,39.882571999936836],[-86.1517330000736,39.88314100001773],[-86.145804999367,39.88319700031355],[-86.14588199982765,39.87987300009345]]]}},{"id":"105","type":"Feature","properties":{"GISJOIN":"G18009700106","pct_black":0.12},"geometry":{"type":"Polygon","coordinates":[[[-86.12691600040381,39.774351999794774],[-86.1306469998648,39.77432099998345],[-86.13072099946609,39.78127700018143],[-86.1269149999682,39.78129399991996],[-86.12691600040381,39.774351999794774]]]}},{"id":"106","type":"Feature","properties":{"GISJOIN":"G18009700107","pct_black":0.09},"geometry":{"type":"Polygon","coordinates":[[[-86.11178999946421,39.8253319996229],[-86.11172500009276,39.81877300044839],[-86.11216399962773,39.818141000017924],[-86.13789399962928,39.81799700013009],[-86.13766799940029,39.81941400023198],[-86.13664600019676,39.820428999946095],[-86.12910399985724,39.826895999856156],[-86.12827500033183,39.82648000037603],[-86.12633600058827,39.82873100002392],[-86.11690513758745,39.8311989496414],[-86.11678500019907,39.82532099990983],[-86.11178999946421,39.8253319996229]]]}},{"id":"107","type":"Feature","properties":{"GISJOIN":"G18009700108","pct_black":0.56},"geometry":{"type":"Polygon","coordinates":[[[-86.08354600018748,39.81467499990279],[-86.0978589997302,39.814520999803236],[-86.09789900038666,39.818214999999675],[-86.11216399962773,39.818141000017924],[-86.11172500009276,39.81877300044839],[-86.11178999946421,39.8253319996229],[-86.083771999633,39.82551499985326],[-86.08354600018748,39.81467499990279]]]}},{"id":"108","type":"Feature","properties":{"GISJOIN":"G18009700109","pct_black":0.0},"geometry":{"type":"Polygon","coordinates":[[[-86.0835019997833,39.8109400000863],[-86.08330700009938,39.79623799990931],[-86.08573178932208,39.79674021170664],[-86.08567500046182,39.7992260001538],[-86.088105000408,39.79877200005946],[-86.08811699974893,39.79992500005458],[-86.09149099991778,39.79997399962069],[-86.09280400044076,39.79974600032178],[-86.09268800027637,39.79791599977286],[-86.10197000051085,39.79608299990293],[-86.09994400034645,39.80075699976714],[-86.09751599968402,39.8040080000018],[-86.09272065196595,39.80359631469313],[-86.09265428817861,39.80643351484365],[-86.0835019997833,39.8109400000863]]]}},{"id":"109","type":"Feature","properties":{"GISJOIN":"G18009700110","pct_black":2.31},"geometry":{"type":"MultiPolygon","coordinates":[[[[-86.11126500021757,39.72328100038642],[-86.11579172280133,39.72321764693607],[-86.11600103537678,39.7270279903876],[-86.11128559346498,39.726914635764146],[-86.11126500021757,39.72328100038642]]],[[[-86.12742600019314,39.731647999945395],[-86.12085599971594,39.73171100004597],[-86.12077799942402,39.72315100001703],[-86.12831000000111,39.72305500026021],[-86.12847896012919,39.73020970396769],[-86.13030899084642,39.73027629048617],[-86.13031999957732,39.732791999754525],[-86.12742600019314,39.731647999945395]]],[[[-86.08287400015418,39.75281199972647],[-86.0822609999997,39.73079099955136],[-86.07969490833257,39.72881941388685],[-86.08337333113286,39.72505359353924],[-86.09167499980877,39.730487999557816],[-86.09190366176092,39.73361902114069],[-86.10176799987016,39.733547000047494],[-86.10174200046733,39.73073600044322],[-86.11130899994293,39.730624999696765],[-86.11130082460714,39.729112775788444],[-86.11450012488892,39.72920234878856],[-86.11435847214823,39.730496916548255],[-86.11180388773562,39.73051019914563],[-86.11874299960107,39.73770499961994],[-86.11642268127598,39.7377480468178],[-86.11621805767379,39.74344084962512],[-86.11140699959982,39.74141499982419],[-86.10843199955505,39.74164499974206],[-86.10844200036219,39.74529799974623],[-86.10177135165348,39.74533919546647],[-86.1019390005133,39.75270399966824],[-86.08287400015418,39.75281199972647]]]]}},{"id":"110","type":"Feature","properties":{"GISJOIN":"G18009700111","pct_black":0.0},"geometry":{"type":"Polygon","coordinates":[[[-86.14540200052443,39.72265499966649],[-86.1890959997754,39.72187799994813],[-86.18959500050381,39.72565699978964],[-86.1885669997697,39.72645100021616],[-86.17739999984607,39.72671500001696],[-86.17546600035365,39.72778299967544],[-86.17467790058834,39.728895825908374],[-86.1600549996581,39.728497000196455],[-86.15887493523094,39.728932445728475],[-86.15877599986487,39.72977599959212],[-86.14828499966674,39.72992900002243],[-86.14540200052443,39.72265499966649]]]}},{"id":"111","type":"Feature","properties":{"GISJOIN":"G18009700112","pct_black":3.47},"geometry":{"type":"Polygon","coordinates":[[[-86.06454000000345,39.803156999586975],[-86.0833449996328,39.79965799988824],[-86.083771999633,39.82551499985326],[-86.0647809996746,39.82552099968631],[-86.06454000000345,39.803156999586975]]]}},{"id":"112","type":"Feature","properties":{"GISJOIN":"G18009700113","pct_black":0.0},"geometry":{"type":"Polygon","coordinates":[[[-86.06424700035383,39.782940999665705],[-86.07789870357534,39.782444579756714],[-86.0779068983268,39.78334267567882],[-86.08325044666545,39.78338269227375],[-86.0833449996328,39.79965799988824],[-86.06454000000345,39.803156999586975],[-86.06424700035383,39.782940999665705]]]}},{"id":"113","type":"Feature","properties":{"GISJOIN":"G18009700114","pct_black":0.0},"geometry":{"type":"Polygon","coordinates":[[[-86.0267510001721,39.81017599988804],[-86.06454000000345,39.803156999586975],[-86.0647809996746,39.82552099968631],[-86.026940000155,39.82578700017613],[-86.0267510001721,39.81017599988804]]]}},{"id":"114","type":"Feature","properties":{"GISJOIN":"G18009700115","pct_black":0.0},"geometry":{"type":"Polygon","coordinates":[[[-86.04566300012114,39.806665999850594],[-86.04540700019206,39.781755999689466],[-86.04064700028533,39.78181099985099],[-86.04050700045255,39.77218699985569],[-86.04048000027282,39.769443999929365],[-86.04520999962902,39.76868099995395],[-86.04993299953384,39.7691200003079],[-86.04997800020386,39.77370699988467],[-86.05470399976706,39.77361500009155],[-86.05469428225574,39.774097873616384],[-86.05556221067033,39.774155029408576],[-86.05546600025724,39.781685000466844],[-86.05645400058505,39.78167899979745],[-86.05649989756488,39.78060782131108],[-86.05800699561723,39.78057690607691],[-86.0580239152665,39.781670514899254],[-86.06316095860485,39.78163637551014],[-86.06331960086398,39.78298568148104],[-86.06424700035383,39.782940999665705],[-86.06454000000345,39.803156999586975],[-86.04566300012114,39.806665999850594]]]}},{"id":"115","type":"Feature","properties":{"GISJOIN":"G18009700116","pct_black":0.24},"geometry":{"type":"Polygon","coordinates":[[[-85.95235099976553,39.7741389998727],[-86.04048000027282,39.769443999929365],[-86.04064700028533,39.78181099985099],[-86.04540700019206,39.781755999689466],[-86.04552999948416,39.79642499982881],[-85.99053799960929,39.796942000352615],[-85.99032699945496,39.78224900033522],[-85.95238199977565,39.7828049999922],[-85.95235099976553,39.7741389998727]]]}},{"id":"116","type":"Feature","properties":{"GISJOIN":"G18009700117","pct_black":0.0},"geometry":{"type":"Polygon","coordinates":[[[-86.00871500007456,39.746191999680384],[-86.05450599998947,39.7559040002428],[-86.05448899998163,39.75457500018067],[-86.06144900006055,39.75548799987924],[-86.08289400021371,39.75428000012078],[-86.08292599999628,39.75666799967706],[-86.07678300062636,39.75686299969687],[-86.07684499943382,39.76070600010693],[-86.0639670001028,39.757914000269075],[-86.06397199948852,39.76093199998995],[-86.05993199992541,39.76105199990303],[-86.06004200028701,39.76856799958502],[-86.05888800011252,39.76880600026572],[-86.04993299953384,39.7691200003079],[-86.04520999962902,39.76868099995395],[-86.04048000027282,39.769443999929365],[-86.0091430004062,39.77122100027083],[-86.00871500007456,39.746191999680384]]]}},{"id":"117","type":"Feature","properties":{"GISJOIN":"G18009700118","pct_black":0.08},"geometry":{"type":"Polygon","coordinates":[[[-86.026018000217,39.74988400043845],[-86.02582899975559,39.737011999976076],[-86.02337999958432,39.73477900039086],[-86.01817600056499,39.73143800006272],[-86.01810800058102,39.72554000004417],[-86.08067099942755,39.72359300001055],[-86.08176100009236,39.72438999962162],[-86.08210200054549,39.725451000184776],[-86.08256200007085,39.72470699995568],[-86.08337333113286,39.72505359353924],[-86.07969490833257,39.72881941388685],[-86.0822609999997,39.73079099955136],[-86.08289400021371,39.75428000012078],[-86.06144900006055,39.75548799987924],[-86.05448899998163,39.75457500018067],[-86.05450599998947,39.7559040002428],[-86.026018000217,39.74988400043845]]]}},{"id":"118","type":"Feature","properties":{"GISJOIN":"G18009700119","pct_black":2.59},"geometry":{"type":"Polygon","coordinates":[[[-86.08241999979857,39.69458999998474],[-86.08264299952555,39.71648600011335],[-86.0700930209758,39.71659615036598],[-86.08067099942755,39.72359300001055],[-86.04529999956372,39.72489799984823],[-86.02571300050265,39.72504999998281],[-86.02548799980627,39.72553500010148],[-85.97536500060397,39.72601799965112],[-85.9751460005455,39.69688699973426],[-86.08241999979857,39.69458999998474]]]}},{"id":"119","type":"Feature","properties":{"GISJOIN":"G18009700120","pct_black":2.42},"geometry":{"type":"Polygon","coordinates":[[[-86.08264299952555,39.71648600011335],[-86.08261153777089,39.71317652937631],[-86.0849017274855,39.71286561441581],[-86.08528163850777,39.71012345023526],[-86.08665703907224,39.70795805809478],[-86.09198884704796,39.704401884912684],[-86.09362827478563,39.70486576127736],[-86.09423418468113,39.706216883344545],[-86.0959180024316,39.706848358372305],[-86.09588963833907,39.706239823552366],[-86.09796209663233,39.70654728674269],[-86.09878184449506,39.70528070652717],[-86.1037467767275,39.70543854058073],[-86.10394699987404,39.70588500005988],[-86.10964599949868,39.70649499973818],[-86.1120840003507,39.703621999715],[-86.11373299991544,39.70260399958032],[-86.11521599994974,39.704218999547656],[-86.11626799953261,39.70448900037337],[-86.12058500026247,39.70377799965734],[-86.12372700047689,39.70440999973227],[-86.1261650004576,39.70294199997743],[-86.12725800003153,39.699259999921125],[-86.12939099944404,39.69868200029398],[-86.13507999963268,39.69851200015895],[-86.13825600033552,39.6976980002808],[-86.13931295956239,39.700743286917415],[-86.12996173223884,39.70083833351909],[-86.13007800032558,39.70833700011992],[-86.1348365065271,39.708312272755656],[-86.13482539609166,39.709167985445355],[-86.13700887541489,39.70918308052396],[-86.13701934766596,39.708309893848366],[-86.1382849998416,39.70831200012054],[-86.13828199951703,39.71870999982049],[-86.12988781919952,39.71888568778536],[-86.13081200004603,39.72301499969222],[-86.11126500021757,39.72328100038642],[-86.11120400029988,39.715947000253905],[-86.08264299952555,39.71648600011335]]]}},{"id":"120","type":"Feature","properties":{"GISJOIN":"G18009700121","pct_black":0.12},"geometry":{"type":"Polygon","coordinates":[[[-86.11316800039138,39.70272199969431],[-86.11085599972498,39.69962200023103],[-86.11078200029236,39.69403100023609],[-86.11231499951765,39.693993000008334],[-86.1110380005086,39.687082000297615],[-86.11092399962398,39.65037399999952],[-86.13939600061848,39.64990299972662],[-86.13948099995577,39.665346999674014],[-86.14189000057279,39.666364999922834],[-86.14422900058595,39.66654899996599],[-86.14829000032316,39.66937199984618],[-86.1477969999452,39.67172000009465],[-86.14809400010711,39.67340699979265],[-86.14546500026955,39.67841599995271],[-86.14463900020398,39.679066999742254],[-86.14901800055468,39.679035999781796],[-86.14883000058173,39.686323999888955],[-86.15853400001308,39.686251000447946],[-86.15894000047206,39.688340000400665],[-86.1579290001251,39.692944999758055],[-86.15074500009905,39.69273099989208],[-86.14878799948562,39.69321199967503],[-86.1488150004079,39.69908200005877],[-86.13825600033552,39.6976980002808],[-86.13507999963268,39.69851200015895],[-86.12939099944404,39.69868200029398],[-86.12725800003153,39.699259999921125],[-86.1261650004576,39.70294199997743],[-86.12372700047689,39.70440999973227],[-86.12058500026247,39.70377799965734],[-86.11626799953261,39.70448900037337],[-86.11521599994974,39.704218999547656],[-86.11373299991544,39.70260399958032],[-86.11316800039138,39.70272199969431]]]}},{"id":"121","type":"Feature","properties":{"GISJOIN":"G18009700122","pct_black":0.08},"geometry":{"type":"Polygon","coordinates":[[[-86.09167499980877,39.730487999557816],[-86.08256200007085,39.72470699995568],[-86.08210200054549,39.725451000184776],[-86.08152300046086,39.72414899961917],[-86.0700930209758,39.71659615036598],[-86.11120400029988,39.715947000253905],[-86.11130899994293,39.730624999696765],[-86.10174200046733,39.73073600044322],[-86.10176799987016,39.733547000047494],[-86.09190366176092,39.73361902114069],[-86.09167499980877,39.730487999557816]]]}},{"id":"122","type":"Feature","properties":{"GISJOIN":"G18009700123","pct_black":0.06},"geometry":{"type":"Polygon","coordinates":[[[-86.1395419997334,39.722747000012056],[-86.13941800023615,39.70832099967671],[-86.1426630003062,39.708282000131575],[-86.14056000041437,39.70419299995252],[-86.13825600033552,39.6976980002808],[-86.1488150004079,39.69908200005877],[-86.14878799948562,39.69321199967503],[-86.15074500009905,39.69273099989208],[-86.1579290001251,39.692944999758055],[-86.15894000047206,39.688340000400665],[-86.15853400001308,39.686251000447946],[-86.18706000011079,39.68579600016003],[-86.1873160003762,39.69040700017508],[-86.18662199966995,39.693807999934954],[-86.18719100014083,39.70909699973044],[-86.18812600040216,39.71004500003595],[-86.19201900055647,39.70933799984123],[-86.19235900054784,39.71192599987542],[-86.19439099959746,39.71379199957767],[-86.19698399982893,39.71466199974019],[-86.19751000017271,39.715935999647996],[-86.19094500004871,39.71824200009409],[-86.1892669997994,39.719514000294524],[-86.1890959997754,39.72187799994813],[-86.1395419997334,39.722747000012056]]]}},{"id":"123","type":"Feature","properties":{"GISJOIN":"G18009700124","pct_black":0.0},"geometry":{"type":"Polygon","coordinates":[[[-86.19632299953142,39.7163370000936],[-86.19751000017271,39.715935999647996],[-86.1973880006037,39.715046999608255],[-86.19439099959746,39.71379199957767],[-86.19203900027495,39.71113500040475],[-86.19189799956666,39.70828299985995],[-86.19253800043063,39.70724300042518],[-86.19387899944981,39.70671699980024],[-86.19660200007091,39.70703100014121],[-86.20357200059095,39.710040999605674],[-86.20575199986664,39.71154100036608],[-86.20893699989062,39.71087299990964],[-86.20926999945692,39.70871500030227],[-86.20845299960867,39.70844799960645],[-86.20948999972455,39.7073720003356],[-86.21446800017189,39.70988300015856],[-86.21928000032213,39.71010900011384],[-86.21984399962032,39.70853599983797],[-86.21859400028616,39.706629999810566],[-86.21393099962293,39.70550799977877],[-86.212979999424,39.70482900005765],[-86.21591299944862,39.70133900008305],[-86.22211499954926,39.69760999997637],[-86.22307900003906,39.69546299979051],[-86.22262500002502,39.692094999593536],[-86.26937500042419,39.6913849999913],[-86.26922000012642,39.67247099969637],[-86.27045400033643,39.66955499965097],[-86.2883420003289,39.669310000448476],[-86.28827599976731,39.69846699956827],[-86.29304599988114,39.6983920004246],[-86.29310036066452,39.705478838375996],[-86.26956299974897,39.706058999916166],[-86.26996100032592,39.72026100046857],[-86.24357000048823,39.7205900001088],[-86.23454999996179,39.72021800009857],[-86.19618099971052,39.721585000282396],[-86.19632299953142,39.7163370000936]]]}},{"id":"124","type":"Feature","properties":{"GISJOIN":"G18009700125","pct_black":0.28},"geometry":{"type":"Polygon","coordinates":[[[-86.20810599972779,39.75053500027481],[-86.20397900002001,39.74703300044917],[-86.20101399993064,39.74542700043455],[-86.20032800000438,39.742268999987786],[-86.20078800001211,39.74011900020409],[-86.19946499953224,39.73788400016474],[-86.20081225824605,39.73773526948327],[-86.20100749020173,39.735994059478564],[-86.19599400007375,39.73630599977228],[-86.19618099971052,39.721585000282396],[-86.23454999996179,39.72021800009857],[-86.25033999965547,39.7203889997846],[-86.25019800032209,39.74730999963205],[-86.2138400004886,39.756150999895176],[-86.2121159997975,39.75536899996623],[-86.20810499994884,39.7518229997166],[-86.20810599972779,39.75053500027481]]]}},{"id":"125","type":"Feature","properties":{"GISJOIN":"G18009700126","pct_black":0.4},"geometry":{"type":"Polygon","coordinates":[[[-86.24457800020193,39.7773349996292],[-86.24430800042596,39.77217100007389],[-86.23436199958944,39.77161000008965],[-86.23405299999074,39.76903999987093],[-86.23203099982774,39.76848199955104],[-86.23088700006394,39.769312000162564],[-86.2298260000312,39.769133999891736],[-86.22933299973842,39.76689099959913],[-86.22990200034238,39.764539000137994],[-86.22787000034447,39.76463800013405],[-86.22586199965886,39.76599000013975],[-86.22105600045224,39.76546199978054],[-86.2208040004186,39.76517600034377],[-86.22161699971772,39.765130999648335],[-86.21956899960549,39.76270399990188],[-86.22048399978488,39.76211999987584],[-86.21806600046384,39.761887999791945],[-86.21622099969558,39.760005999884555],[-86.21607800036485,39.755608000116595],[-86.25019800032209,39.74730999963205],[-86.2504569997385,39.772521000417264],[-86.26969699970768,39.77186899964765],[-86.27044800026279,39.77954100026597],[-86.25895999968382,39.779811000153074],[-86.25777199965016,39.77900599992248],[-86.25330399959667,39.779194000098734],[-86.2476179997132,39.77750800005345],[-86.24545499975795,39.77793999955704],[-86.24457800020193,39.7773349996292]]]}},{"id":"126","type":"Feature","properties":{"GISJOIN":"G18009700127","pct_black":1.43},"geometry":{"type":"Polygon","coordinates":[[[-86.2504569997385,39.772521000417264],[-86.25028300017425,39.73697999993081],[-86.25517700032262,39.73574100010772],[-86.28213898043482,39.73616803608377],[-86.28259099998,39.73909900021557],[-86.28882399939992,39.737570000180455],[-86.28900100019598,39.749590000206325],[-86.30276600025206,39.749484000042855],[-86.30306799960364,39.77901699996574],[-86.27044800026279,39.77954100026597],[-86.26969699970768,39.77186899964765],[-86.2504569997385,39.772521000417264]]]}},{"id":"127","type":"Feature","properties":{"GISJOIN":"G18009700128","pct_black":0.6},"geometry":{"type":"MultiPolygon","coordinates":[[[[-86.22395629255193,39.77206739079315],[-86.2161269999648,39.77214099962471],[-86.21585000015332,39.76532099998176],[-86.2208040004186,39.76517600034377],[-86.22193700054119,39.7657289999661],[-86.22586199965886,39.76599000013975],[-86.22787000034447,39.76463800013405],[-86.22990200034238,39.764539000137994],[-86.22933299973842,39.76689099959913],[-86.2298260000312,39.769133999891736],[-86.23088700006394,39.769312000162564],[-86.23203099982774,39.76848199955104],[-86.23405299999074,39.76903999987093],[-86.23426908019607,39.775470477861944],[-86.22763864383651,39.775264443695505],[-86.22765841328513,39.775890643452676],[-86.225215999627,39.77587000035577],[-86.22511299992489,39.77376100030804],[-86.22395629255193,39.77206739079315]]],[[[-86.23008985067273,39.7997085515101],[-86.23009051111869,39.794798348378926],[-86.2255330005024,39.79472099988678],[-86.22521200058124,39.776639999647124],[-86.22811400018342,39.776648999712464],[-86.2277290069056,39.77813479476701],[-86.23011599961114,39.77839799969305],[-86.23409000017482,39.77820199991024],[-86.23410104542542,39.77635829534769],[-86.23869470782068,39.776457404023645],[-86.23929099948886,39.77552900005169],[-86.24114300046534,39.776195000255356],[-86.2446269567798,39.775770892104],[-86.24457800020193,39.7773349996292],[-86.24545499975795,39.77793999955704],[-86.2476179997132,39.77750800005345],[-86.25330399959667,39.779194000098734],[-86.25777199965016,39.77900599992248],[-86.26206799984692,39.781385000414296],[-86.2674639999157,39.787050999989724],[-86.26657400040467,39.79109500044148],[-86.26866599947905,39.79542399962979],[-86.2753640005394,39.79992600024578],[-86.27746700010778,39.79949699992231],[-86.28110200014714,39.80021799994543],[-86.28548099938084,39.80238500024751],[-86.2863480002973,39.80367499988034],[-86.27970999994824,39.80219199971221],[-86.26402899991989,39.79694399993249],[-86.25658700001499,39.79370700016535],[-86.25527699972429,39.79563600005741],[-86.25609300024473,39.801822000410176],[-86.22538902670695,39.80196234093931],[-86.2253583804196,39.799725851416355],[-86.23008985067273,39.7997085515101]]]]}},{"id":"128","type":"Feature","properties":{"GISJOIN":"G18009700129","pct_black":0.32},"geometry":{"type":"Polygon","coordinates":[[[-86.20313699944111,39.792892999826556],[-86.2009218560206,39.7898768353513],[-86.20633000020979,39.78989699967995],[-86.20638400036648,39.793379000043764],[-86.21114100035108,39.79334900018199],[-86.21109800005615,39.79180300030592],[-86.21349599956783,39.79177899994553],[-86.21363899968611,39.78784299955969],[-86.22542100021137,39.787614999753075],[-86.2255330005024,39.79472099988678],[-86.23009051111869,39.794798348378926],[-86.23008985067273,39.7997085515101],[-86.2253583804196,39.799725851416355],[-86.22538902670695,39.80196234093931],[-86.25098499949789,39.80191499994935],[-86.25102900014015,39.804248999967555],[-86.2557119995122,39.804234000279585],[-86.25617299953137,39.82380699977875],[-86.20203999942714,39.82379400008045],[-86.19752100033439,39.82448400011553],[-86.202095000532,39.820682000379485],[-86.20038699970219,39.816768999694254],[-86.20314100035719,39.807723000194514],[-86.20313699944111,39.792892999826556]]]}},{"id":"129","type":"Feature","properties":{"GISJOIN":"G18009700130","pct_black":7.84},"geometry":{"type":"Polygon","coordinates":[[[-86.2164840001231,39.85354800003469],[-86.21637899957754,39.82384700029878],[-86.25617299953137,39.82380699977875],[-86.2564499996413,39.838414000306386],[-86.27063900039568,39.83821999966999],[-86.27100730258567,39.852716286626624],[-86.2544160005652,39.853068999797955],[-86.2546909996489,39.867207000121006],[-86.2170819995238,39.867863000014964],[-86.2164840001231,39.85354800003469]]]}},{"id":"130","type":"Feature","properties":{"GISJOIN":"G18009700131","pct_black":2.91},"geometry":{"type":"Polygon","coordinates":[[[-86.17398100042212,39.863957999681254],[-86.16660899994518,39.86235099964607],[-86.15973599951836,39.862106999724425],[-86.1595290002703,39.855898000390305],[-86.16890100031318,39.847613000416935],[-86.17137400031741,39.844775000176135],[-86.17823600009268,39.83387200004983],[-86.17806010687943,39.831980227256444],[-86.18292299988197,39.829189000105],[-86.18080700014636,39.82474099982902],[-86.19752100033439,39.82448400011553],[-86.20203999942714,39.82379400008045],[-86.21637899957754,39.82384700029878],[-86.2164840001231,39.85354800003469],[-86.19988700018942,39.853719000001654],[-86.19563200035707,39.85547399974538],[-86.20026200003748,39.86502000016104],[-86.18152699946558,39.864741000279004],[-86.17398100042212,39.863957999681254]]]}},{"id":"131","type":"Feature","properties":{"GISJOIN":"G18009700132","pct_black":0.35},"geometry":{"type":"Polygon","coordinates":[[[-86.17398100042212,39.863957999681254],[-86.18152699946558,39.864741000279004],[-86.20026200003748,39.86502000016104],[-86.19563200035707,39.85547399974538],[-86.19988700018942,39.853719000001654],[-86.2164840001231,39.85354800003469],[-86.2170819995238,39.867863000014964],[-86.2031389996483,39.868053999556],[-86.20261999997125,39.88632699969986],[-86.20298500043786,39.89732599959111],[-86.17450500037148,39.89760799987685],[-86.17453899995003,39.86827299988377],[-86.17400500011273,39.867264000398535],[-86.17398100042212,39.863957999681254]]]}},{"id":"132","type":"Feature","properties":{"GISJOIN":"G18009700133","pct_black":0.0},"geometry":{"type":"Polygon","coordinates":[[[-86.2031389996483,39.868053999556],[-86.25989199952518,39.86715899991473],[-86.25984500039374,39.896157000137514],[-86.20298500043786,39.89732599959111],[-86.20261999997125,39.88632699969986],[-86.2031389996483,39.868053999556]]]}},{"id":"133","type":"Feature","properties":{"GISJOIN":"G18009700134","pct_black":3.7},"geometry":{"type":"Polygon","coordinates":[[[-86.145804999367,39.88319700031355],[-86.1517330000736,39.88314100001773],[-86.15174600030146,39.882571999936836],[-86.1543229994195,39.882558000166625],[-86.15432799985231,39.883078999578764],[-86.15544599949901,39.88308300029364],[-86.1554440005597,39.8767709996201],[-86.152274000245,39.874333000433985],[-86.153703999957,39.87252800037635],[-86.15879000034609,39.87355200028405],[-86.1650139995233,39.87313700038678],[-86.16500899946642,39.86826299975164],[-86.15982699994517,39.86840599984589],[-86.16219000052055,39.86220200005359],[-86.16660899994518,39.86235099964607],[-86.17398100042212,39.863957999681254],[-86.17400500011273,39.867264000398535],[-86.17453899995003,39.86827299988377],[-86.17450500037148,39.89760799987685],[-86.15547403579511,39.89774597396595],[-86.15546600038162,39.91247700031097],[-86.14582500038007,39.91254599966681],[-86.145804999367,39.88319700031355]]]}},{"id":"134","type":"Feature","properties":{"GISJOIN":"G18009700135","pct_black":0.46},"geometry":{"type":"Polygon","coordinates":[[[-86.10491499953208,39.910182999612346],[-86.106013999748,39.907519999616184],[-86.1124460001143,39.90590800025801],[-86.11485799957644,39.904714000412184],[-86.11617399952435,39.90272399998677],[-86.11714100037888,39.897794000207625],[-86.11629899971132,39.89502200023031],[-86.11697800045414,39.89363500000888],[-86.11795900041545,39.89264699962399],[-86.12191399979355,39.891775999845436],[-86.12223600016972,39.868676999912005],[-86.13388999983832,39.86861599986087],[-86.13642100017906,39.86912600012608],[-86.13630599939872,39.86967500018328],[-86.13303299985212,39.8713889997592],[-86.13301410834038,39.87232057486117],[-86.1341380035033,39.87271745725315],[-86.13454866989545,39.871794221781855],[-86.13982700046625,39.87447100016345],[-86.13894799980805,39.8765689996395],[-86.14123799983695,39.878699000161944],[-86.14593599945995,39.87924200029443],[-86.14583699961774,39.91248799956298],[-86.13624500057254,39.91251599968632],[-86.13636700040063,39.9270689999137],[-86.11730799978403,39.92690100033289],[-86.11732400055318,39.912386999859265],[-86.11096200036792,39.91222600027257],[-86.10491499953208,39.910182999612346]]]}},{"id":"135","type":"Feature","properties":{"GISJOIN":"G18009700136","pct_black":0.26},"geometry":{"type":"Polygon","coordinates":[[[-86.06974100043087,39.876097000022874],[-86.12214700022696,39.8759700002703],[-86.12191399979355,39.891775999845436],[-86.11795900041545,39.89264699962399],[-86.11697800045414,39.89363500000888],[-86.11629899971132,39.89502200023031],[-86.11714100037888,39.897794000207625],[-86.11617399952435,39.90272399998677],[-86.11485799957644,39.904714000412184],[-86.1124460001143,39.90590800025801],[-86.106013999748,39.907519999616184],[-86.1038670000428,39.9118290003901],[-86.10179000052433,39.91338500009948],[-86.0988920005578,39.914541999976855],[-86.09543000036557,39.91407899988737],[-86.09483700004445,39.91286199992717],[-86.09525099995304,39.91032899972357],[-86.09465800024931,39.90930200005673],[-86.0929650003519,39.9086939999856],[-86.09117199973964,39.90928399971024],[-86.09059200022284,39.91331499966273],[-86.08871099942942,39.91692699998777],[-86.0837930002586,39.91817699959934],[-86.07616100019548,39.91884100045336],[-86.07443499998836,39.92020599973306],[-86.07408500034033,39.921391999703935],[-86.0761829997083,39.926949999729054],[-86.06919899947918,39.926984999934916],[-86.0693020001788,39.92114500025555],[-86.0698669994128,39.91938600024928],[-86.06927099966906,39.91573199970694],[-86.06974100043087,39.876097000022874]]]}},{"id":"136","type":"Feature","properties":{"GISJOIN":"G18009700137","pct_black":1.91},"geometry":{"type":"Polygon","coordinates":[[[-86.08391600018268,39.85182500017085],[-86.0856310004786,39.851325000482035],[-86.08725799995246,39.85167600005403],[-86.09020999976647,39.8506400003511],[-86.09509800006391,39.8464979997932],[-86.10167800044225,39.84713899973692],[-86.10365199964671,39.84617299983399],[-86.10322100003452,39.844596999611895],[-86.1053260001187,39.8417259995788],[-86.10761599989783,39.84127500011444],[-86.1100260004808,39.83782399971805],[-86.11434799951353,39.835290000263115],[-86.11776299973582,39.83496900034506],[-86.11997199974554,39.83535000021749],[-86.12730799988242,39.83043200010518],[-86.12786000055637,39.82836899999338],[-86.12910399985724,39.826895999856156],[-86.13002500019294,39.82746599972177],[-86.1269619996296,39.831669000336944],[-86.12179800033316,39.83495900029672],[-86.12192499979325,39.840258000243765],[-86.12038339860837,39.84025275710177],[-86.11992041739592,39.841237170913224],[-86.12193634464434,39.84122559575476],[-86.12196499959235,39.84356900035425],[-86.12112097988951,39.84564756238281],[-86.12203528240597,39.84565930620438],[-86.12201600005002,39.847596999713005],[-86.13916400018533,39.84754999984278],[-86.14055199967602,39.84700099978633],[-86.1411150004779,39.85939899990464],[-86.14070700034105,39.86226100015018],[-86.12817300046567,39.862333999811256],[-86.128248000217,39.86864999984753],[-86.12223600016972,39.868676999912005],[-86.12214700022696,39.8759700002703],[-86.06974100043087,39.876097000022874],[-86.06958500035324,39.86872400025665],[-86.08426800019451,39.868681000455325],[-86.08394499965495,39.856158999839955],[-86.08445499945579,39.85607300027158],[-86.08376699986607,39.854635000272836],[-86.08391600018268,39.85182500017085]]]}},{"id":"137","type":"Feature","properties":{"GISJOIN":"G18009700138","pct_black":0.25},"geometry":{"type":"Polygon","coordinates":[[[-86.083771999633,39.82551499985326],[-86.11678500019907,39.82532099990983],[-86.11690513758745,39.8311989496414],[-86.12633600058827,39.82873100002392],[-86.12827500033183,39.82648000037603],[-86.12910399985724,39.826895999856156],[-86.12786000055637,39.82836899999338],[-86.12730799988242,39.83043200010518],[-86.11997199974554,39.83535000021749],[-86.11776299973582,39.83496900034506],[-86.11434799951353,39.835290000263115],[-86.1100260004808,39.83782399971805],[-86.10761599989783,39.84127500011444],[-86.1053260001187,39.8417259995788],[-86.10322100003452,39.844596999611895],[-86.10365199964671,39.84617299983399],[-86.10167800044225,39.84713899973692],[-86.09509800006391,39.8464979997932],[-86.09020999976647,39.8506400003511],[-86.08725799995246,39.85167600005403],[-86.0856310004786,39.851325000482035],[-86.08391600018268,39.85182500017085],[-86.083771999633,39.82551499985326]]]}},{"id":"138","type":"Feature","properties":{"GISJOIN":"G18009700139","pct_black":2.35},"geometry":{"type":"Polygon","coordinates":[[[-86.0380859999927,39.86918100028337],[-86.03890700025535,39.867422000332034],[-86.04446200001517,39.865071000213334],[-86.04597499956574,39.86493499974677],[-86.04560243007097,39.85583886647477],[-86.04609960774368,39.85503362893169],[-86.06525200038152,39.85504999981307],[-86.0647809996746,39.82552099968631],[-86.083771999633,39.82551499985326],[-86.08426800019451,39.868681000455325],[-86.06958500035324,39.86872400025665],[-86.06974100043087,39.876097000022874],[-86.03547700034059,39.876217999669386],[-86.03795800024508,39.874415000422815],[-86.03920000020032,39.87279900039963],[-86.03852400050528,39.87039599962681],[-86.0388970001377,39.86938099972238],[-86.0380859999927,39.86918100028337]]]}},{"id":"139","type":"Feature","properties":{"GISJOIN":"G18009700140","pct_black":0.13},"geometry":{"type":"Polygon","coordinates":[[[-85.99866399951489,39.8555849998462],[-85.99154999993014,39.85569899982339],[-85.99106899999623,39.82628199977465],[-86.0647809996746,39.82552099968631],[-86.06525200038152,39.85504999981307],[-86.04609960774368,39.85503362893169],[-86.04560243007097,39.85583886647477],[-86.04597499956574,39.86493499974677],[-86.04446200001517,39.865071000213334],[-86.03890700025535,39.867422000332034],[-86.0380859999927,39.86918100028337],[-86.03702200022735,39.86878900031615],[-86.03422500049084,39.86916199959762],[-86.03677399964813,39.86243999980231],[-86.03222600036509,39.86212700038426],[-86.03174299968303,39.85497400011239],[-86.02714400019818,39.854935000191276],[-86.02722499976322,39.84785000041283],[-86.01959600009222,39.847636999829554],[-86.01947800003661,39.84473000001184],[-85.99866399951489,39.8555849998462]]]}},{"id":"140","type":"Feature","properties":{"GISJOIN":"G18009700141","pct_black":0.39},"geometry":{"type":"Polygon","coordinates":[[[-85.99361130500843,39.855657029566096],[-85.99866399951489,39.8555849998462],[-86.01947800003661,39.84473000001184],[-86.01959600009222,39.847636999829554],[-86.02722499976322,39.84785000041283],[-86.02714400019818,39.854935000191276],[-86.03174299968303,39.85497400011239],[-86.03222600036509,39.86212700038426],[-86.03677399964813,39.86243999980231],[-86.03422500049084,39.86916199959762],[-86.03702200022735,39.86878900031615],[-86.0388970001377,39.86938099972238],[-86.03852400050528,39.87039599962681],[-86.03920000020032,39.87279900039963],[-86.03795800024508,39.874415000422815],[-86.03547700034059,39.876217999669386],[-86.01382400018849,39.876283999775765],[-86.01390499972226,39.87731599968652],[-86.01170599998581,39.87902100004677],[-86.00582799972999,39.879329000387486],[-86.0043148711008,39.89087888380871],[-85.99043900013382,39.89103500017129],[-85.99023000019903,39.88737000008877],[-85.99492199967588,39.88720800035507],[-85.99521399942708,39.88385000005193],[-86.00005299984844,39.88371199966035],[-86.00005221450778,39.88155633507381],[-85.99541778992328,39.881496386925406],[-85.99556434369374,39.87657694044438],[-86.00004602753575,39.87659580129782],[-85.99992496658534,39.86886990842361],[-85.99650496413597,39.86883093875676],[-85.99648854118551,39.866571375412846],[-85.99476373787006,39.85895600293272],[-85.99360784583908,39.85892997076883],[-85.99361130500843,39.855657029566096]]]}}]}