{"type":"FeatureCollection","features":[{"id":"645","type":"Feature","properties":{"GISJOIN":"G37011900001","pct_black":57.76},"geometry":{"type":"Polygon","coordinates":[[[-80.83342900020304,35.230813000215726],[-80.83659600031636,35.228430000475775],[-80.83466900002568,35.22681500034923],[-80.83682100006428,35.22530699970452],[-80.83584399961325,35.22447000039821],[-80.84028400046084,35.22130400047632],[-80.84127200026983,35.22215900043317],[-80.84444400008665,35.2199509996282],[-80.84831500016875,35.21888899986836],[-80.85055200012964,35.21767499970005],[-80.85518699970801,35.22278499992585],[-80.8532089994478,35.224162000220915],[-80.85158299968664,35.22457499981711],[-80.84893700000497,35.22714200001428],[-80.85122399951089,35.22918800018735],[-80.84539299965499,35.23434199992775],[-80.84182900015077,35.23125800000629],[-80.8407520000603,35.23201699997296],[-80.83979600037817,35.23116299984699],[-80.83657700012553,35.23344700044908],[-80.83342900020304,35.230813000215726]]]}},{"id":"646","type":"Feature","properties":{"GISJOIN":"G37011900002","pct_black":96.92},"geometry":{"type":"Polygon","coordinates":[[[-80.83250700040585,35.21640800031732],[-80.83393900020799,35.21334899998999],[-80.83647100033475,35.213888000387314],[-80.83859600055409,35.21490600002387],[-80.84452400034193,35.21991799966267],[-80.84127200026983,35.22215900043317],[-80.84028400046084,35.22130400047632],[-80.83921000020028,35.22210000016833],[-80.83250700040585,35.21640800031732]]]}},{"id":"647","type":"Feature","properties":{"GISJOIN":"G37011900003","pct_black":80.85},"geometry":{"type":"Polygon","coordinates":[[[-80.83393900020799,35.21334899998999],[-80.83605199954322,35.210302000087836],[-80.83590200044657,35.20488999981226],[-80.84890299978306,35.218652999652356],[-80.84452400034193,35.21991799966267],[-80.83859600055409,35.21490600002387],[-80.83393900020799,35.21334899998999]]]}},{"id":"648","type":"Feature","properties":{"GISJOIN":"G37011900004","pct_black":77.01},"geometry":{"type":"Polygon","coordinates":[[[-80.85122399951089,35.22918800018735],[-80.84893700000497,35.22714200001428],[-80.85158299968664,35.22457499981711],[-80.8532089994478,35.224162000220915],[-80.85518699970801,35.22278499992585],[-80.85055200012964,35.21767499970005],[-80.84890299978306,35.218652999652356],[-80.84667200042522,35.21604099974167],[-80.85328099971305,35.21193699982909],[-80.85709900027632,35.214762000262525],[-80.86069199976062,35.216433999623135],[-80.85929400012272,35.21845399978454],[-80.86392700019076,35.22315099962384],[-80.8643830003256,35.22531699980055],[-80.85949499985495,35.22905700023471],[-80.85863300019052,35.23080499977298],[-80.85279299948782,35.22784200006408],[-80.85122399951089,35.22918800018735]]]}},{"id":"649","type":"Feature","properties":{"GISJOIN":"G37011900005","pct_black":28.99},"geometry":{"type":"Polygon","coordinates":[[[-80.84839299978202,35.23944199991515],[-80.83519299972404,35.23564200012315],[-80.83059299958951,35.23294200026933],[-80.83342900020304,35.230813000215726],[-80.83657700012553,35.23344700044908],[-80.83979600037817,35.23116299984699],[-80.8407520000603,35.23201699997296],[-80.84182900015077,35.23125800000629],[-80.84539299965499,35.23434199992775],[-80.85279299948782,35.22784200006408],[-80.85863300019052,35.23080499977298],[-80.85318400002632,35.237248999575314],[-80.85237199976376,35.23929699997039],[-80.85049699954811,35.241045999796754],[-80.84839299978202,35.23944199991515]]]}},{"id":"650","type":"Feature","properties":{"GISJOIN":"G37011900006","pct_black":91.17},"geometry":{"type":"Polygon","coordinates":[[[-80.82485700046057,35.22787999995231],[-80.82760299954208,35.22693299954353],[-80.82890300013717,35.222256999936704],[-80.83217500033166,35.21828800027434],[-80.83250700040585,35.21640800031732],[-80.83921000020028,35.22210000016833],[-80.83584399961325,35.22447000039821],[-80.83682100006428,35.22530699970452],[-80.83466900002568,35.22681500034923],[-80.83659600031636,35.228430000475775],[-80.83059299958951,35.23294200026933],[-80.82485700046057,35.22787999995231]]]}},{"id":"651","type":"Feature","properties":{"GISJOIN":"G37011900007","pct_black":2.1},"geometry":{"type":"Polygon","coordinates":[[[-80.81137099955815,35.242317999964705],[-80.82287700002816,35.23308199983821],[-80.8231960004946,35.23225700017567],[-80.82226899976436,35.231310999785066],[-80.82237400020894,35.22989300033335],[-80.82347000023886,35.22981000000128],[-80.82358400032382,35.22869500016364],[-80.82485700046057,35.22787999995231],[-80.83059299958951,35.23294200026933],[-80.8133920003037,35.24614199961069],[-80.81169200032666,35.2472419998612],[-80.80591900008123,35.249153999644754],[-80.8045590000103,35.24768799968753],[-80.8104519997781,35.24424300013801],[-80.81137099955815,35.242317999964705]]]}},{"id":"652","type":"Feature","properties":{"GISJOIN":"G37011900008","pct_black":1.0},"geometry":{"type":"Polygon","coordinates":[[[-80.81106699986462,35.23290099998595],[-80.8129299997022,35.22765900005588],[-80.81775499977815,35.22342400018342],[-80.818551000333,35.22132100037257],[-80.82572000019765,35.22307099993232],[-80.82848499966855,35.224795999627624],[-80.82730800032427,35.22734600027652],[-80.82529399965347,35.22756399952555],[-80.82362600008277,35.22863699977336],[-80.82347000023886,35.22981000000128],[-80.82246799982332,35.229742999748524],[-80.82226899976436,35.231310999785066],[-80.82311800016302,35.23271000026238],[-80.82013600034641,35.23499200042092],[-80.81844999985388,35.23485999970967],[-80.81540199987577,35.233523999786925],[-80.81106699986462,35.23290099998595]]]}},{"id":"653","type":"Feature","properties":{"GISJOIN":"G37011900009","pct_black":0.0},"geometry":{"type":"Polygon","coordinates":[[[-80.80263500003228,35.23637999955341],[-80.80862000045438,35.23263600008319],[-80.81540199987577,35.233523999786925],[-80.81844999985388,35.23485999970967],[-80.82013600034641,35.23499200042092],[-80.8176409998432,35.23767700038648],[-80.81137099955815,35.242317999964705],[-80.80313499967107,35.24071400003245],[-80.80263500003228,35.23637999955341]]]}},{"id":"654","type":"Feature","properties":{"GISJOIN":"G37011900010","pct_black":0.06},"geometry":{"type":"Polygon","coordinates":[[[-80.80184299980323,35.23159599995197],[-80.80081100020084,35.2295520003902],[-80.80271100026008,35.22379800009147],[-80.8019940000377,35.22359000020541],[-80.80162700017172,35.21952699969725],[-80.81386900027653,35.22041500012111],[-80.818551000333,35.22132100037257],[-80.81775499977815,35.22342400018342],[-80.8129299997022,35.22765900005588],[-80.81106699986462,35.23290099998595],[-80.80777100043251,35.23282200033395],[-80.80785300033116,35.2324500000496],[-80.80184299980323,35.23159599995197]]]}},{"id":"655","type":"Feature","properties":{"GISJOIN":"G37011900011","pct_black":0.05},"geometry":{"type":"Polygon","coordinates":[[[-80.79551500057426,35.218373999725635],[-80.79791899971868,35.21434399996313],[-80.80060199978469,35.212353000028585],[-80.80091799991234,35.210811000389874],[-80.80257900047835,35.20917999982636],[-80.80285999996622,35.20783299986386],[-80.80361899969556,35.20745199963953],[-80.80401899967329,35.207957999793415],[-80.80453600060568,35.207496999711175],[-80.80409599994127,35.20719900025011],[-80.80799199957366,35.205186999766944],[-80.81449299962853,35.21384299988744],[-80.81664399947566,35.220928000279756],[-80.79812800028304,35.21920000000148],[-80.79551500057426,35.218373999725635]]]}},{"id":"656","type":"Feature","properties":{"GISJOIN":"G37011900012","pct_black":0.0},"geometry":{"type":"Polygon","coordinates":[[[-80.7745170002152,35.23381200004262],[-80.77475599984173,35.228990999789055],[-80.78041499976995,35.22070200033133],[-80.78072499960271,35.21561300032401],[-80.79192700042049,35.217125000293],[-80.79767199937059,35.219108000360336],[-80.80162700017172,35.21952699969725],[-80.8019940000377,35.22359000020541],[-80.80271100026008,35.22379800009147],[-80.80081100020084,35.2295520003902],[-80.80184299980323,35.23159599995197],[-80.79890000052774,35.23257199990175],[-80.79928699972542,35.233352999861076],[-80.79656799984093,35.23494699962425],[-80.7952490002832,35.23359899996479],[-80.79080599982514,35.23537500029795],[-80.78841500024913,35.23468799994167],[-80.78599800009515,35.23546800016637],[-80.77660600043691,35.233561000060405],[-80.7745170002152,35.23381200004262]]]}},{"id":"657","type":"Feature","properties":{"GISJOIN":"G37011900013","pct_black":0.04},"geometry":{"type":"Polygon","coordinates":[[[-80.78069099977233,35.24467899975856],[-80.77937400030046,35.241632000353675],[-80.77558699979389,35.23667599955329],[-80.7745170002152,35.23381200004262],[-80.77660600043691,35.233561000060405],[-80.78443900012694,35.23544300045245],[-80.78841500024913,35.23468799994167],[-80.79080599982514,35.23537500029795],[-80.7952490002832,35.23359899996479],[-80.79656799984093,35.23494699962425],[-80.79928699972542,35.233352999861076],[-80.79890000052774,35.23257199990175],[-80.80184299980323,35.23159599995197],[-80.80785300033116,35.2324500000496],[-80.80540199976558,35.23479999975795],[-80.79998499992674,35.2377370000481],[-80.7919510001665,35.2453930003512],[-80.7810269997463,35.249517000157034],[-80.78069099977233,35.24467899975856]]]}},{"id":"658","type":"Feature","properties":{"GISJOIN":"G37011900014","pct_black":5.99},"geometry":{"type":"Polygon","coordinates":[[[-80.7810269997463,35.249517000157034],[-80.79229299978525,35.245219000337016],[-80.7998420005559,35.2378589996228],[-80.80263500003228,35.23637999955341],[-80.80313499967107,35.24071400003245],[-80.81137099955815,35.242317999964705],[-80.8104519997781,35.24424300013801],[-80.8045590000103,35.24768799968753],[-80.80591900008123,35.249153999644754],[-80.79119199977326,35.25144199960437],[-80.7800089998934,35.253838000390274],[-80.7810269997463,35.249517000157034]]]}},{"id":"659","type":"Feature","properties":{"GISJOIN":"G37011900015","pct_black":4.89},"geometry":{"type":"Polygon","coordinates":[[[-80.7214909997723,35.22774299954112],[-80.7262910002265,35.22764300031288],[-80.72939100013099,35.228343000059056],[-80.78069099977233,35.24467899975856],[-80.78117899964113,35.24818800013027],[-80.7800089998934,35.253838000390274],[-80.76869200041394,35.26044200035478],[-80.76240699968399,35.26226500034789],[-80.76908800050298,35.26603600026699],[-80.76829800005126,35.26772699957973],[-80.76557400058643,35.28062299981901],[-80.76123299996082,35.286257000023085],[-80.75779499973665,35.28908099986239],[-80.75543899968011,35.287906999779565],[-80.75396200035863,35.28487699964718],[-80.75261100021788,35.283861999745035],[-80.74569200044583,35.28327800029595],[-80.74214699954499,35.28104799990337],[-80.73637900021282,35.2785059999888],[-80.74072899962502,35.272064000028124],[-80.73988499983136,35.27154700030712],[-80.73474999995992,35.26366699975354],[-80.73485600060829,35.26083099963376],[-80.7362159996099,35.2582780002255],[-80.72718500037568,35.2585999997456],[-80.72097800022968,35.255772999601774],[-80.71771799981045,35.25540799971782],[-80.7187259995585,35.24983299978845],[-80.71708199950226,35.24722500025398],[-80.7162539999602,35.237330000359],[-80.7176659996345,35.23390200021238],[-80.7214909997723,35.22774299954112]]]}},{"id":"660","type":"Feature","properties":{"GISJOIN":"G37011900016","pct_black":1.61},"geometry":{"type":"Polygon","coordinates":[[[-80.73264499947763,35.22942400010664],[-80.73211800010829,35.22827900027559],[-80.73258200052268,35.22690700015314],[-80.73383000039851,35.22526600017022],[-80.73549600014134,35.22421099981535],[-80.73682199953451,35.221056999973406],[-80.73744399969686,35.2187640000876],[-80.73649000048157,35.21460300035386],[-80.73723500036209,35.21293200047804],[-80.73713500056944,35.21118799974079],[-80.73855700060084,35.21010099963861],[-80.73899199962781,35.20842999969471],[-80.74039000052052,35.20776999981974],[-80.74066000037,35.205819999980726],[-80.74155500012105,35.20559199995773],[-80.74115199992882,35.20309900014499],[-80.74732100014302,35.20370300008441],[-80.76056900030153,35.211573000156015],[-80.77572000014474,35.21513199962043],[-80.78072499960271,35.21561300032401],[-80.78041499976995,35.22070200033133],[-80.77484899971542,35.22881499990361],[-80.77451599994642,35.23031400025572],[-80.77470700021716,35.23489599974467],[-80.77956199984776,35.24192900002644],[-80.78069099977233,35.24467899975856],[-80.73264499947763,35.22942400010664]]]}},{"id":"661","type":"Feature","properties":{"GISJOIN":"G37011900017","pct_black":0.08},"geometry":{"type":"Polygon","coordinates":[[[-80.79192700042049,35.217125000293],[-80.77572000014474,35.21513199962043],[-80.76056900030153,35.211573000156015],[-80.7552929999238,35.208827000230094],[-80.7483539999183,35.20413799988639],[-80.74625999999716,35.20340999998564],[-80.75103899953982,35.20399799968393],[-80.75442299969146,35.203755999615105],[-80.76985500012854,35.19856499998557],[-80.77427600052145,35.20069699997587],[-80.78661287692287,35.20201354114658],[-80.79021199969753,35.20788900013414],[-80.80029200026944,35.2126019998437],[-80.79791899971868,35.21434399996313],[-80.79551500057426,35.218373999725635],[-80.79192700042049,35.217125000293]]]}},{"id":"662","type":"Feature","properties":{"GISJOIN":"G37011900018","pct_black":0.09},"geometry":{"type":"Polygon","coordinates":[[[-80.76985500012854,35.19856499998557],[-80.76632699953596,35.1947320001529],[-80.7678530003094,35.19300699969104],[-80.77150300032524,35.19092999985555],[-80.77510800034857,35.18527000031961],[-80.77640199972231,35.18215199958661],[-80.78049199964045,35.18574400014654],[-80.78459199967206,35.19104399996182],[-80.79651100045989,35.196798000254944],[-80.80111800019364,35.200953999888625],[-80.80569199988255,35.20324300010344],[-80.80799199957366,35.205186999766944],[-80.80409599994127,35.20719900025011],[-80.80453600060568,35.207496999711175],[-80.80401899967329,35.207957999793415],[-80.80361899969556,35.20745199963953],[-80.80288699972598,35.20780500037862],[-80.80257900047835,35.20917999982636],[-80.80103499951578,35.210615999627386],[-80.80029200026944,35.2126019998437],[-80.79021199969753,35.20788900013414],[-80.78661287692287,35.20201354114658],[-80.77427600052145,35.20069699997587],[-80.76985500012854,35.19856499998557]]]}},{"id":"663","type":"Feature","properties":{"GISJOIN":"G37011900019","pct_black":7.15},"geometry":{"type":"Polygon","coordinates":[[[-80.67135800008421,35.20897400043951],[-80.67145500027013,35.20857900035464],[-80.67010399984163,35.20839199993244],[-80.6702369998067,35.20541299953066],[-80.67339900009219,35.20396300032434],[-80.67671599982707,35.200051999979685],[-80.68502000014001,35.19419800024165],[-80.68905799956995,35.18703399964988],[-80.69540599998928,35.18913399998957],[-80.70160199946403,35.19033800021981],[-80.70517399963528,35.19264100020651],[-80.70880900044867,35.18707800050941],[-80.71007900023181,35.18664299980888],[-80.71027200023231,35.18581300002346],[-80.71149599992539,35.185256000161765],[-80.71290699953919,35.18359500036908],[-80.71583700028073,35.1825470001982],[-80.71594699984338,35.17971599983937],[-80.71837499950612,35.17874500019052],[-80.71894300010088,35.17616399967732],[-80.72201099954664,35.174236000292645],[-80.72506900006118,35.174334999575045],[-80.72583700030248,35.172778000428586],[-80.72464899945923,35.17200100023802],[-80.7248039995749,35.17139600038078],[-80.72416999989424,35.170855999983154],[-80.7249229995961,35.169151000096974],[-80.72577500038466,35.1683039999612],[-80.72714300033721,35.168438999745604],[-80.72591199944021,35.16816600013384],[-80.7275980002303,35.16642699999414],[-80.72896900023426,35.166231000321055],[-80.73106599997952,35.16326900001475],[-80.73599299942138,35.160357000371384],[-80.74324699957795,35.14892299996714],[-80.74639100010431,35.1510450004339],[-80.75016299943482,35.15816000032599],[-80.76368699974086,35.16927299975933],[-80.76499199946,35.173444000291575],[-80.77640199972231,35.18215199958661],[-80.77510800034857,35.18527000031961],[-80.77150300032524,35.19092999985555],[-80.7678530003094,35.19300699969104],[-80.76632699953596,35.1947320001529],[-80.76985500012854,35.19856499998557],[-80.75346200013581,35.20392300044198],[-80.74115199992882,35.20309900014499],[-80.74155500012105,35.20559199995773],[-80.74066000037,35.205819999980726],[-80.74039000052052,35.20776999981974],[-80.73899199962781,35.20842999969471],[-80.73855700060084,35.21010099963861],[-80.73713500056944,35.21118799974079],[-80.73723500036209,35.21293200047804],[-80.73649000048157,35.21460300035386],[-80.73744399969686,35.2187640000876],[-80.73682199953451,35.221056999973406],[-80.73549600014134,35.22421099981535],[-80.73383000039851,35.22526600017022],[-80.73258200052268,35.22690700015314],[-80.73211800010829,35.22827900027559],[-80.73264499947763,35.22942400010664],[-80.7262910002265,35.22764300031288],[-80.70979100029501,35.22744300010434],[-80.69399099949977,35.217243000055305],[-80.6820259999855,35.21366899968954],[-80.67135800008421,35.20897400043951]]]}},{"id":"664","type":"Feature","properties":{"GISJOIN":"G37011900020","pct_black":0.76},"geometry":{"type":"Polygon","coordinates":[[[-80.74324699957795,35.14892299996714],[-80.74545199971696,35.14823299979437],[-80.7498699994605,35.1488470000403],[-80.75324900003638,35.148142000115904],[-80.76065100029291,35.14377800017184],[-80.76139000047051,35.142627999665294],[-80.77456399991478,35.13146400002171],[-80.77811299986594,35.13057099968485],[-80.78122999975939,35.1284170003039],[-80.78187800013154,35.1333430001578],[-80.785759000112,35.142249999987094],[-80.79093399948853,35.14817600016342],[-80.79623900017982,35.1560830001873],[-80.79893299989578,35.158684000377974],[-80.80456199979402,35.16817199964986],[-80.80823500013437,35.171247000150714],[-80.80045800036115,35.17532100019291],[-80.79424699971165,35.177052000019756],[-80.78994200045054,35.179089000412986],[-80.78798399964852,35.179140000077034],[-80.78342600038195,35.17706700001973],[-80.7819139997589,35.17700600031599],[-80.77718600053203,35.18047599985186],[-80.77640199972231,35.18215199958661],[-80.76499199946,35.173444000291575],[-80.76368699974086,35.16927299975933],[-80.75016299943482,35.15816000032599],[-80.74639100010431,35.1510450004339],[-80.74324699957795,35.14892299996714]]]}},{"id":"665","type":"Feature","properties":{"GISJOIN":"G37011900021","pct_black":0.68},"geometry":{"type":"Polygon","coordinates":[[[-80.77640199972231,35.18215199958661],[-80.77728799976347,35.18038199975722],[-80.78204299992593,35.176973999550505],[-80.78884099983357,35.17920399996748],[-80.78907099983657,35.181750999937506],[-80.79177300009843,35.18602799968674],[-80.7937879995142,35.19093999980281],[-80.79049200024122,35.19424300014368],[-80.78459199967206,35.19104399996182],[-80.78049199964045,35.18574400014654],[-80.77640199972231,35.18215199958661]]]}},{"id":"666","type":"Feature","properties":{"GISJOIN":"G37011900022","pct_black":2.6},"geometry":{"type":"Polygon","coordinates":[[[-80.7936770000448,35.19109299959056],[-80.79329099970425,35.18901599989031],[-80.78907099983657,35.181750999937506],[-80.78884099983357,35.17920399996748],[-80.80045800036115,35.17532100019291],[-80.80823500013437,35.171247000150714],[-80.81751300037965,35.17737199967314],[-80.82007000045857,35.18279499998958],[-80.81580000028849,35.186751000213675],[-80.81202599944898,35.19702800024607],[-80.81252199983574,35.19951000005076],[-80.81122699985114,35.198490000071246],[-80.8106069995394,35.19715000006692],[-80.8108740000212,35.19062299985259],[-80.80709700011468,35.19036500039904],[-80.8015960003894,35.19103700036859],[-80.80098899996533,35.18938299979303],[-80.79710099968658,35.19066499979605],[-80.7936770000448,35.19109299959056]]]}},{"id":"667","type":"Feature","properties":{"GISJOIN":"G37011900023","pct_black":96.83},"geometry":{"type":"Polygon","coordinates":[[[-80.7905980002068,35.19428899968937],[-80.7936770000448,35.19109299959056],[-80.79710099968658,35.19066499979605],[-80.80098899996533,35.18938299979303],[-80.8015960003894,35.19103700036859],[-80.80709700011468,35.19036500039904],[-80.8108740000212,35.19062299985259],[-80.8106069995394,35.19715000006692],[-80.81251400055024,35.199655999993695],[-80.81155099987029,35.20219799998846],[-80.80799199957366,35.205186999766944],[-80.80569199988255,35.20324300010344],[-80.80111800019364,35.200953999888625],[-80.79651100045989,35.196798000254944],[-80.7905980002068,35.19428899968937]]]}},{"id":"668","type":"Feature","properties":{"GISJOIN":"G37011900024","pct_black":0.03},"geometry":{"type":"Polygon","coordinates":[[[-80.80799199957366,35.205186999766944],[-80.81155099987029,35.20219799998846],[-80.81252199983574,35.19951000005076],[-80.81576299946519,35.20170400013875],[-80.81860000016003,35.20453000044979],[-80.81977699967042,35.20450499979117],[-80.82210699976469,35.20294399954425],[-80.82485599958017,35.202472000320036],[-80.82414000013125,35.207284999578526],[-80.82587499973283,35.20964499979792],[-80.82383800029515,35.211218000368405],[-80.82220399985432,35.21112700004758],[-80.81788300041868,35.212225999707194],[-80.81509299961925,35.21554299966559],[-80.812991999728,35.211542999963996],[-80.80799199957366,35.205186999766944]]]}},{"id":"669","type":"Feature","properties":{"GISJOIN":"G37011900025","pct_black":4.77},"geometry":{"type":"Polygon","coordinates":[[[-80.82572000019765,35.22307099993232],[-80.81664399947566,35.220928000279756],[-80.81509299961925,35.21554299966559],[-80.81788300041868,35.212225999707194],[-80.82460799989934,35.21078600043194],[-80.83250700040585,35.21640800031732],[-80.83217500033166,35.21828800027434],[-80.82890300013717,35.222256999936704],[-80.82848499966855,35.224795999627624],[-80.82572000019765,35.22307099993232]]]}},{"id":"670","type":"Feature","properties":{"GISJOIN":"G37011900026","pct_black":72.76},"geometry":{"type":"Polygon","coordinates":[[[-80.82648999993626,35.2121670002205],[-80.82778700027848,35.21048100025582],[-80.82737199986335,35.207676999727134],[-80.82806000010181,35.206518000364014],[-80.8306209997147,35.20550500014928],[-80.8329319995895,35.20585399990132],[-80.83594400003321,35.205079000008176],[-80.83602600056297,35.21040699986834],[-80.8343099995487,35.212245000050494],[-80.83250700040585,35.21640800031732],[-80.82648999993626,35.2121670002205]]]}},{"id":"671","type":"Feature","properties":{"GISJOIN":"G37011900027","pct_black":0.22},"geometry":{"type":"Polygon","coordinates":[[[-80.82460799989934,35.21078600043194],[-80.82587499973283,35.20964499979792],[-80.82412599989748,35.20717900025914],[-80.82511700030275,35.201145999604556],[-80.83035200033599,35.18921499959692],[-80.8300009998576,35.18748799968372],[-80.82806500003836,35.18558999990197],[-80.8283169999146,35.18188499986513],[-80.82968899979412,35.179383000209846],[-80.83285900047969,35.1776500001441],[-80.8320930002861,35.17722600048598],[-80.83122200049037,35.17524700011039],[-80.83430199978793,35.17261100040717],[-80.83831700027513,35.17247699978912],[-80.83748499941882,35.16994000033863],[-80.8379560000659,35.1681720001994],[-80.8417420000169,35.16882000032249],[-80.84118200032091,35.170966000390905],[-80.8452210005815,35.17107199964557],[-80.84659400038443,35.17235499976256],[-80.84615999990113,35.180068999960305],[-80.84444900025522,35.18845500014224],[-80.84147599996517,35.19339099960683],[-80.83816000042061,35.19645199986123],[-80.83685799994252,35.20564500019027],[-80.83590200044657,35.20488999981226],[-80.83378699982927,35.20574500023952],[-80.8306209997147,35.20550500014928],[-80.82886699998602,35.20607199966271],[-80.82743999960486,35.20738399971883],[-80.82781500036762,35.210310999622635],[-80.8267899997056,35.21189199978476],[-80.82648999993626,35.2121670002205],[-80.82460799989934,35.21078600043194]]]}},{"id":"672","type":"Feature","properties":{"GISJOIN":"G37011900028","pct_black":0.34},"geometry":{"type":"Polygon","coordinates":[[[-80.81252199983574,35.19951000005076],[-80.81202599944898,35.19702800024607],[-80.81613999952093,35.186251000052216],[-80.81979099971852,35.18284300006147],[-80.8291930002344,35.1798999996176],[-80.82826799973427,35.18203799954873],[-80.82806500003836,35.18558999990197],[-80.8300009998576,35.18748799968372],[-80.83035200033599,35.18921499959692],[-80.82485599958017,35.202472000320036],[-80.82210699976469,35.20294399954425],[-80.81977699967042,35.20450499979117],[-80.81860000016003,35.20453000044979],[-80.81576299946519,35.20170400013875],[-80.81252199983574,35.19951000005076]]]}},{"id":"673","type":"Feature","properties":{"GISJOIN":"G37011900029","pct_black":0.6},"geometry":{"type":"Polygon","coordinates":[[[-80.80823500013437,35.171247000150714],[-80.80456199979402,35.16817199964986],[-80.79893299989578,35.158684000377974],[-80.79623900017982,35.1560830001873],[-80.79296900037481,35.15087999990493],[-80.78523400003579,35.14132699972889],[-80.78187800013154,35.1333430001578],[-80.78122999975939,35.1284170003039],[-80.78298899971004,35.12709099977666],[-80.78375599966195,35.12536599998804],[-80.78479800005881,35.12466700010899],[-80.78561399980386,35.12458199967212],[-80.78718199950369,35.12556100028948],[-80.78841599946317,35.12511100035032],[-80.78825000008345,35.12658599996115],[-80.7929620001186,35.12689000000378],[-80.79604200010083,35.128670000253976],[-80.80096899997297,35.13371199993444],[-80.80175299981565,35.13757000003343],[-80.8030790005787,35.13853299989078],[-80.80787599992091,35.13924099993357],[-80.81250200013636,35.140871000049344],[-80.81655699981917,35.1403049996989],[-80.82123099959217,35.14132800014896],[-80.82281199997455,35.142188000251274],[-80.8262410000538,35.1419579996795],[-80.82883200023436,35.14369499972653],[-80.83283099991937,35.14415300009446],[-80.83089299954901,35.148420999564465],[-80.83722100029732,35.150909000341834],[-80.84628000052913,35.15242200000034],[-80.84818299987882,35.15375099983327],[-80.84878200028854,35.16003999989517],[-80.84722100024867,35.162559999709686],[-80.84753100022077,35.164287999667],[-80.84449599984072,35.16719099983361],[-80.84670699949562,35.16803800021279],[-80.84703300000673,35.16915600002764],[-80.8453719999044,35.171113999650565],[-80.84231499981256,35.17113199970486],[-80.84118200032091,35.170966000390905],[-80.8417420000169,35.16882000032249],[-80.8379560000659,35.1681720001994],[-80.83748499941882,35.16994000033863],[-80.83831700027513,35.17247699978912],[-80.83394899992108,35.172750000351435],[-80.8310879996317,35.17543499998864],[-80.83271800053777,35.1779239998658],[-80.82906799978402,35.18000699965275],[-80.82007000045857,35.18279499998958],[-80.81751300037965,35.17737199967314],[-80.80823500013437,35.171247000150714]]]}},{"id":"674","type":"Feature","properties":{"GISJOIN":"G37011900030","pct_black":10.81},"geometry":{"type":"Polygon","coordinates":[[[-80.78298899971004,35.12709099977666],[-80.77811299986594,35.13057099968485],[-80.77456399991478,35.13146400002171],[-80.7680500000207,35.13735100026703],[-80.75449799961075,35.12748800013589],[-80.7512729995351,35.12698799956967],[-80.74912100002179,35.125869999684156],[-80.74673000025076,35.12228799980911],[-80.74019900047699,35.11778400024017],[-80.74512000000485,35.11501299977464],[-80.75261399954785,35.1145599998734],[-80.7565420001776,35.113266999751154],[-80.76890100037609,35.10491399963045],[-80.7773910004251,35.10044299985794],[-80.7821849999015,35.09905800043495],[-80.79219400028477,35.094095000016615],[-80.8032779997624,35.0916080000562],[-80.80801199961142,35.08812099977625],[-80.81458100019273,35.08687400020684],[-80.826652000371,35.08290000037267],[-80.83084099994387,35.083278000329656],[-80.83691900028259,35.086844999630564],[-80.84349099966835,35.08774300028205],[-80.85292299981445,35.087660999536546],[-80.85346599991138,35.089196999745695],[-80.85790300030273,35.093565999903724],[-80.85953899962787,35.09654300036348],[-80.85966800050176,35.09778100022469],[-80.85732300022251,35.105218999738526],[-80.85839299991648,35.109159000104576],[-80.85450000042835,35.12167500049009],[-80.85465099957007,35.125719000171834],[-80.85312899984979,35.136614000149414],[-80.85250200029549,35.13765299973205],[-80.847353999638,35.14064099959727],[-80.84166900014526,35.1515930003868],[-80.83722100029732,35.150909000341834],[-80.83089299954901,35.148420999564465],[-80.83297800040164,35.14420299995005],[-80.82883200023436,35.14369499972653],[-80.8262410000538,35.1419579996795],[-80.82281199997455,35.142188000251274],[-80.82123099959217,35.14132800014896],[-80.81655699981917,35.1403049996989],[-80.81250200013636,35.140871000049344],[-80.80808000003,35.139293999835765],[-80.80248300034863,35.13824799974286],[-80.80168799971558,35.13739499977253],[-80.80110300043978,35.13390799996096],[-80.79638800055804,35.12895499978166],[-80.7929620001186,35.12689000000378],[-80.78825000008345,35.12658599996115],[-80.78841599946317,35.12511100035032],[-80.78718199950369,35.12556100028948],[-80.78561399980386,35.12458199967212],[-80.78479800005881,35.12466700010899],[-80.78375599966195,35.12536599998804],[-80.78298899971004,35.12709099977666]]]}},{"id":"675","type":"Feature","properties":{"GISJOIN":"G37011900031","pct_black":0.29},"geometry":{"type":"Polygon","coordinates":[[[-80.84652399995502,35.17275000029757],[-80.84537399974596,35.17107900000159],[-80.84703300000673,35.16915600002764],[-80.84682900034477,35.16817600032979],[-80.84449599984072,35.16719099983361],[-80.84753100022077,35.164287999667],[-80.84722100024867,35.162559999709686],[-80.84878200028854,35.16003999989517],[-80.84840700017426,35.15449600017788],[-80.8470459995558,35.15274099997545],[-80.84166900014526,35.1515930003868],[-80.84739699953197,35.14058499972947],[-80.85297100050529,35.13705000025461],[-80.85465099957007,35.125719000171834],[-80.85450000042835,35.12167500049009],[-80.85555799960851,35.118146000146545],[-80.8615170004303,35.117066000289],[-80.86463900018309,35.118012000083304],[-80.86994899957983,35.11845599988462],[-80.87563899999662,35.1175199995634],[-80.8811650005699,35.11962699963469],[-80.87610099967382,35.12922100017456],[-80.87526199972173,35.13208399982061],[-80.87633500011187,35.13771900027263],[-80.8789169999791,35.14629900026156],[-80.87785400002322,35.15292599961579],[-80.87729599991059,35.152833999819514],[-80.87689400010973,35.15784299969757],[-80.8777599996508,35.166921999737085],[-80.87753800007401,35.16931699978826],[-80.87957999978416,35.1779909995383],[-80.86947700029475,35.173933000230775],[-80.8628270003287,35.17255499996699],[-80.85069200047495,35.17207100036651],[-80.84652399995502,35.17275000029757]]]}},{"id":"676","type":"Feature","properties":{"GISJOIN":"G37011900032","pct_black":0.97},"geometry":{"type":"Polygon","coordinates":[[[-80.85309000022538,35.188795999735525],[-80.84850499991325,35.18818599976843],[-80.8448470002578,35.186510999593736],[-80.84615999990113,35.180068999960305],[-80.84651800006166,35.17277200023841],[-80.84741799971957,35.17237500005104],[-80.86237200032994,35.17251400043495],[-80.86657399973306,35.173169000252926],[-80.87957999978416,35.1779909995383],[-80.87701100003972,35.186959000104636],[-80.87562399968208,35.18881899965419],[-80.872810000153,35.19489100016873],[-80.86551400033154,35.19027000030819],[-80.86149000033265,35.19278299974269],[-80.86064600022657,35.18893599973025],[-80.8558399995495,35.186176000204064],[-80.8529699996294,35.18733200002924],[-80.85309000022538,35.188795999735525]]]}},{"id":"677","type":"Feature","properties":{"GISJOIN":"G37011900033","pct_black":0.03},"geometry":{"type":"Polygon","coordinates":[[[-80.85326499965697,35.19116199953535],[-80.8529699996294,35.18733200002924],[-80.8558399995495,35.186176000204064],[-80.86064600022657,35.18893599973025],[-80.86149000033265,35.19278299974269],[-80.86551400033154,35.19027000030819],[-80.87287199964311,35.1948589995766],[-80.86633500014034,35.203114999965905],[-80.86203399975757,35.200790999823084],[-80.8567070002337,35.19971000044044],[-80.85463600037156,35.2001909998225],[-80.85420500003019,35.19787400038463],[-80.85152799998096,35.19664000012018],[-80.85105800011603,35.19577500042336],[-80.85326499965697,35.19116199953535]]]}},{"id":"678","type":"Feature","properties":{"GISJOIN":"G37011900034","pct_black":0.05},"geometry":{"type":"Polygon","coordinates":[[[-80.83839300026712,35.19627599988034],[-80.84298000042624,35.19144900018164],[-80.8448470002578,35.186510999593736],[-80.84558200035418,35.18665599967389],[-80.84850499991325,35.18818599976843],[-80.85309000022538,35.188795999735525],[-80.85326499965697,35.19116199953535],[-80.85105800011603,35.19577500042336],[-80.85152799998096,35.19664000012018],[-80.85420500003019,35.19787400038463],[-80.85463600037156,35.2001909998225],[-80.8567070002337,35.19971000044044],[-80.86203399975757,35.200790999823084],[-80.86633500014034,35.203114999965905],[-80.85866399983051,35.212477000008676],[-80.84039899987303,35.19884699992151],[-80.83839300026712,35.19627599988034]]]}},{"id":"679","type":"Feature","properties":{"GISJOIN":"G37011900035","pct_black":0.41},"geometry":{"type":"Polygon","coordinates":[[[-80.83685799994252,35.20564500019027],[-80.83839300026712,35.19627599988034],[-80.84039899987303,35.19884699992151],[-80.85866399983051,35.212477000008676],[-80.85678500038854,35.21454800030534],[-80.85328099971305,35.21193699982909],[-80.84667200042522,35.21604099974167],[-80.83685799994252,35.20564500019027]]]}},{"id":"680","type":"Feature","properties":{"GISJOIN":"G37011900036","pct_black":5.64},"geometry":{"type":"Polygon","coordinates":[[[-80.85678500038854,35.21454800030534],[-80.86038300031566,35.21035400047306],[-80.86801100018553,35.211287000361445],[-80.87205899960037,35.21105999979019],[-80.8752169996792,35.21195500000828],[-80.87651699974352,35.21336300019085],[-80.88298499953314,35.20783600027418],[-80.88335900041744,35.20922999976333],[-80.88522299957265,35.2096490003926],[-80.8853599997851,35.21169699961506],[-80.88636100009082,35.21278699978988],[-80.88711000035461,35.215025999856515],[-80.88372699961033,35.216165999525565],[-80.88323299943707,35.22224200013792],[-80.8690170004995,35.22214199970821],[-80.86951599959627,35.22111899986698],[-80.86769299953313,35.222142000308004],[-80.86298499971973,35.222043000145],[-80.85929400012272,35.21845399978454],[-80.86069199976062,35.216433999623135],[-80.85678500038854,35.21454800030534]]]}},{"id":"681","type":"Feature","properties":{"GISJOIN":"G37011900037","pct_black":95.97},"geometry":{"type":"Polygon","coordinates":[[[-80.86038300031566,35.21035400047306],[-80.87309400004649,35.194342999795204],[-80.88649500016508,35.19921000031124],[-80.88233300017598,35.201123000231625],[-80.88183299985263,35.204856000399815],[-80.88298499953314,35.20783600027418],[-80.87651699974352,35.21336300019085],[-80.8752169996792,35.21195500000828],[-80.87205899960037,35.21105999979019],[-80.86801100018553,35.211287000361445],[-80.86038300031566,35.21035400047306]]]}},{"id":"682","type":"Feature","properties":{"GISJOIN":"G37011900038","pct_black":4.62},"geometry":{"type":"Polygon","coordinates":[[[-80.87309400004649,35.194342999795204],[-80.87562399968208,35.18881899965419],[-80.87701100003972,35.186959000104636],[-80.87959399969564,35.1779429996236],[-80.87753800007401,35.16931699978826],[-80.8777599996508,35.166921999737085],[-80.87689400010973,35.15784299969757],[-80.87729599991059,35.152833999819514],[-80.87785400002322,35.15292599961579],[-80.87893500016152,35.146596000063006],[-80.877531000339,35.140322000026806],[-80.88114299959649,35.14119999954172],[-80.88337000025527,35.139440000369895],[-80.88432199992742,35.137279000179056],[-80.89505199977732,35.13493500041453],[-80.8981850001929,35.1336960003668],[-80.91756899994952,35.14242999991804],[-80.92616300043713,35.14703600022351],[-80.92249200027155,35.15646899982693],[-80.92059200031208,35.1595070001308],[-80.92107100009744,35.160302999791085],[-80.92062099977791,35.16225599971656],[-80.92129599994969,35.16390700015547],[-80.92439299994635,35.16753900034877],[-80.93251199978694,35.18622200016511],[-80.93213900027274,35.187730999828446],[-80.92917100005745,35.1898370000106],[-80.92392099967893,35.190216999877194],[-80.92157599952239,35.18970300020379],[-80.91812200001097,35.19434400018773],[-80.91570599989913,35.19437199981361],[-80.91497699959145,35.19336400038554],[-80.91038400014698,35.19377000003626],[-80.90991399988498,35.193419000289005],[-80.90835999994283,35.194023999742114],[-80.90746199994483,35.19571499976037],[-80.90425499994717,35.1981599998551],[-80.89770599991013,35.20062800025252],[-80.89396300023272,35.204509000369015],[-80.88929499964573,35.20822699967346],[-80.88687800005154,35.2076309996957],[-80.88499700015994,35.206414000206266],[-80.88298499953314,35.20783600027418],[-80.88186299995739,35.20495799991918],[-80.88241100048883,35.20101999961372],[-80.88649500016508,35.19921000031124],[-80.87309400004649,35.194342999795204]]]}},{"id":"683","type":"Feature","properties":{"GISJOIN":"G37011900039","pct_black":42.75},"geometry":{"type":"Polygon","coordinates":[[[-80.94621099961486,35.2285749996466],[-80.92643599963739,35.224941999846855],[-80.91589399961278,35.225840999553554],[-80.90879399948078,35.22274100037661],[-80.88323299943707,35.22224200013792],[-80.88372699961033,35.216165999525565],[-80.88711000035461,35.215025999856515],[-80.88636100009082,35.21278699978988],[-80.8853599997851,35.21169699961506],[-80.88522299957265,35.2096490003926],[-80.88335900041744,35.20922999976333],[-80.88298499953314,35.20783600027418],[-80.88499700015994,35.206414000206266],[-80.88687800005154,35.2076309996957],[-80.88954899953815,35.20813900022204],[-80.89770599991013,35.20062800025252],[-80.90425499994717,35.1981599998551],[-80.90746199994483,35.19571499976037],[-80.90835999994283,35.194023999742114],[-80.90991399988498,35.193419000289005],[-80.91038400014698,35.19377000003626],[-80.91497699959145,35.19336400038554],[-80.91570599989913,35.19437199981361],[-80.91812200001097,35.19434400018773],[-80.92157599952239,35.18970300020379],[-80.92410299969964,35.190218000357525],[-80.92888700010897,35.189705000059256],[-80.93331699956535,35.193883000320845],[-80.94719200049809,35.192580000207045],[-80.95796700006677,35.18961400026518],[-80.95903400034774,35.19362599991461],[-80.96242200015871,35.20099700038948],[-80.96171099975507,35.20656999976908],[-80.95883599967549,35.20969099961928],[-80.95824200002899,35.211712999551615],[-80.95874100052168,35.21642800015915],[-80.96126599991366,35.22380599975123],[-80.95641700045034,35.225660000371064],[-80.95617300009576,35.2267389998008],[-80.95709100038187,35.23005700037964],[-80.95638599996241,35.23125799981722],[-80.9551039999227,35.23201700020936],[-80.9519919999306,35.231692000395775],[-80.94850399995447,35.228185000383036],[-80.94621099961486,35.2285749996466]]]}},{"id":"684","type":"Feature","properties":{"GISJOIN":"G37011900040","pct_black":0.82},"geometry":{"type":"Polygon","coordinates":[[[-80.88056200039433,35.23592700028802],[-80.88176200029746,35.23500800013884],[-80.88411900014039,35.23111000024758],[-80.88451400027466,35.2240670004158],[-80.88323899967875,35.22399200021974],[-80.88323299943707,35.22224200013792],[-80.90879399948078,35.22274100037661],[-80.91589399961278,35.225840999553554],[-80.92643599963739,35.224941999846855],[-80.94621099961486,35.2285749996466],[-80.94373499974606,35.23462000034017],[-80.94169399944262,35.23710600016454],[-80.94041300023565,35.237295000089446],[-80.9388870002937,35.24116599971128],[-80.9316810002447,35.24151200031001],[-80.91888199998782,35.238149999728456],[-80.91476300009688,35.23803599996317],[-80.90011900033966,35.24237099986877],[-80.89807799998009,35.24406600041649],[-80.8961809998382,35.247801000205925],[-80.88056200039433,35.23592700028802]]]}},{"id":"685","type":"Feature","properties":{"GISJOIN":"G37011900041","pct_black":1.11},"geometry":{"type":"Polygon","coordinates":[[[-80.85449599971052,35.2356529997836],[-80.85911300023027,35.23034500038624],[-80.85940900024596,35.22914300018855],[-80.8643830003256,35.22531699980055],[-80.86392700019076,35.22315099962384],[-80.86298499971973,35.222043000145],[-80.86820800025338,35.22214200033893],[-80.86951599959627,35.22111899986698],[-80.8690170004995,35.22214199970821],[-80.88323299943707,35.22224200013792],[-80.88323899967875,35.22399200021974],[-80.88451400027466,35.2240670004158],[-80.88408399962208,35.23126500031165],[-80.88163300036325,35.235174000377185],[-80.88056200039433,35.23592700028802],[-80.87625500029735,35.233102000060114],[-80.87565400004921,35.23525600006116],[-80.87149799959025,35.239938999803556],[-80.8690259998317,35.23991199984345],[-80.8671679998407,35.24059600017055],[-80.85871300043473,35.241732999681915],[-80.85870800039173,35.237090000049236],[-80.85758000048865,35.23633199977869],[-80.85449599971052,35.2356529997836]]]}},{"id":"686","type":"Feature","properties":{"GISJOIN":"G37011900042","pct_black":0.0},"geometry":{"type":"Polygon","coordinates":[[[-80.86780500001505,35.24035300023181],[-80.87149799959025,35.239938999803556],[-80.87565400004921,35.23525600006116],[-80.87625500029735,35.233102000060114],[-80.8961809998382,35.247801000205925],[-80.89384500027906,35.2515290001359],[-80.88895799988879,35.25420000033525],[-80.88521200004072,35.25746800041614],[-80.88349400009744,35.25434100013897],[-80.88179399952203,35.24884100006519],[-80.87299299948607,35.24484100023752],[-80.87079299990623,35.24194100013102],[-80.86780500001505,35.24035300023181]]]}},{"id":"687","type":"Feature","properties":{"GISJOIN":"G37011900043","pct_black":0.52},"geometry":{"type":"Polygon","coordinates":[[[-80.90009399962831,35.27313999958218],[-80.89589400031478,35.27164000017228],[-80.8935740000484,35.269931999808314],[-80.88521200004072,35.25746800041614],[-80.88895799988879,35.25420000033525],[-80.8943120004182,35.25109399998145],[-80.89780399976641,35.24447300032691],[-80.89909899999918,35.243031999640976],[-80.90522500053046,35.24067000006401],[-80.91588800008138,35.23793099983409],[-80.91922099975838,35.23821999958064],[-80.9316810002447,35.24151200031001],[-80.9388870002937,35.24116599971128],[-80.9369880004971,35.24624799993429],[-80.93862099958055,35.248577000224664],[-80.9412499996218,35.25067000029848],[-80.94162300051755,35.251760000009114],[-80.93975299955359,35.25873799991624],[-80.94046400008276,35.26763100023266],[-80.93666200052878,35.27509199976424],[-80.9367609995164,35.2757860000776],[-80.90009399962831,35.27313999958218]]]}},{"id":"688","type":"Feature","properties":{"GISJOIN":"G37011900044","pct_black":18.82},"geometry":{"type":"Polygon","coordinates":[[[-80.86571899976532,35.26893699957394],[-80.87022600005994,35.26803299973218],[-80.8728960000962,35.26689500041684],[-80.8795889997471,35.261114999709754],[-80.88521200004072,35.25746800041614],[-80.8935740000484,35.269931999808314],[-80.89589400031478,35.27164000017228],[-80.89828700057456,35.272506999876946],[-80.89543400043439,35.27679399979076],[-80.89548899960717,35.27925399963037],[-80.89661199968364,35.28057200009768],[-80.89672899990116,35.28182999988371],[-80.89359400019153,35.285755999754564],[-80.89171899982676,35.288965000253526],[-80.89134100020782,35.29075600035765],[-80.8893059994678,35.2921060003316],[-80.88767700034846,35.294752000204745],[-80.87815799943009,35.30129400020897],[-80.87281600045263,35.293197999978204],[-80.86678700014166,35.289487999627966],[-80.8663870004962,35.28716299986179],[-80.86819799953926,35.2853709995801],[-80.8680449994542,35.28461300034454],[-80.86888799989612,35.2831470000005],[-80.86758200032249,35.28109000033346],[-80.8681800004763,35.27835900017522],[-80.86528600032032,35.2730059998469],[-80.86571899976532,35.26893699957394]]]}},{"id":"689","type":"Feature","properties":{"GISJOIN":"G37011900045","pct_black":10.13},"geometry":{"type":"Polygon","coordinates":[[[-80.86525300040832,35.25272900008596],[-80.8662510002942,35.25047600039177],[-80.85871300043473,35.241732999681915],[-80.86780500001505,35.24035300023181],[-80.87079299990623,35.24194100013102],[-80.87299299948607,35.24484100023752],[-80.88179399952203,35.24884100006519],[-80.88349400009744,35.25434100013897],[-80.88521200004072,35.25746800041614],[-80.8795889997471,35.261114999709754],[-80.8728960000962,35.26689500041684],[-80.87022600005994,35.26803299973218],[-80.86571899976532,35.26893699957394],[-80.86666399975672,35.266316999626504],[-80.86879499958032,35.26525199979978],[-80.86884900008405,35.2636360004015],[-80.86804300028396,35.26118000030669],[-80.86845799966827,35.2587789995536],[-80.86499199977806,35.257133999530694],[-80.86525300040832,35.25272900008596]]]}},{"id":"690","type":"Feature","properties":{"GISJOIN":"G37011900046","pct_black":99.85},"geometry":{"type":"Polygon","coordinates":[[[-80.8565049994991,35.24934900011163],[-80.85989300020422,35.25110599968493],[-80.86525300040832,35.25272900008596],[-80.86496399994344,35.257047000112614],[-80.86848999981113,35.258837999780994],[-80.86804300028396,35.26118000030669],[-80.8688220004952,35.26514900010103],[-80.86666399975672,35.266316999626504],[-80.86571899976532,35.26893699957394],[-80.85418700012944,35.27114099970178],[-80.85393800047638,35.266766000135924],[-80.8565049994991,35.24934900011163]]]}},{"id":"691","type":"Feature","properties":{"GISJOIN":"G37011900047","pct_black":81.26},"geometry":{"type":"Polygon","coordinates":[[[-80.8565049994991,35.24934900011163],[-80.85049699954811,35.241045999796754],[-80.85237199976376,35.23929699997039],[-80.85449599971052,35.2356529997836],[-80.85862699961584,35.23697899979499],[-80.85846800017008,35.24055299997121],[-80.85924000028272,35.24268100025951],[-80.8662510002942,35.25047600039177],[-80.86525300040832,35.25272900008596],[-80.85989300020422,35.25110599968493],[-80.8565049994991,35.24934900011163]]]}},{"id":"692","type":"Feature","properties":{"GISJOIN":"G37011900048","pct_black":98.93},"geometry":{"type":"Polygon","coordinates":[[[-80.84065300004151,35.261027999941376],[-80.84086699992518,35.25882099984273],[-80.84703500043504,35.245739999957856],[-80.85049699954811,35.241045999796754],[-80.8565049994991,35.24934900011163],[-80.85393800047638,35.266766000135924],[-80.85418700012944,35.27114099970178],[-80.84674200058174,35.27256599969009],[-80.84608400002143,35.26952100042074],[-80.84124799969607,35.26263099993859],[-80.84065300004151,35.261027999941376]]]}},{"id":"693","type":"Feature","properties":{"GISJOIN":"G37011900049","pct_black":99.98},"geometry":{"type":"Polygon","coordinates":[[[-80.83634800011153,35.245464000412454],[-80.83674199984061,35.24190700027003],[-80.84179300045442,35.237641999819225],[-80.84839299978202,35.23944199991515],[-80.85062500025423,35.24121499995418],[-80.84784399998232,35.244408000425594],[-80.84592100043285,35.24806400044476],[-80.83634800011153,35.245464000412454]]]}},{"id":"694","type":"Feature","properties":{"GISJOIN":"G37011900050","pct_black":99.14},"geometry":{"type":"Polygon","coordinates":[[[-80.83634800011153,35.245464000412454],[-80.84592100043285,35.24806400044476],[-80.84086699992518,35.25882099984273],[-80.84065300004151,35.261027999941376],[-80.83705300004964,35.261253999808645],[-80.83605500026414,35.25636200047209],[-80.83582499970606,35.24867300037699],[-80.83634800011153,35.245464000412454]]]}},{"id":"695","type":"Feature","properties":{"GISJOIN":"G37011900051","pct_black":82.5},"geometry":{"type":"Polygon","coordinates":[[[-80.81989299984383,35.26094099982526],[-80.82949300014054,35.24884200045329],[-80.83674199984061,35.24190700027003],[-80.83582599968847,35.24890900025705],[-80.83607399994607,35.25656299963584],[-80.83705300004964,35.261253999808645],[-80.84065300004151,35.261027999941376],[-80.84124799969607,35.26263099993859],[-80.84608400002143,35.26952100042074],[-80.84674200058174,35.27256599969009],[-80.84316200041822,35.27307600011484],[-80.83371400039194,35.27273700023934],[-80.8141030005033,35.276837000099604],[-80.80906699947174,35.27665900034292],[-80.81499200029897,35.26874099996698],[-80.81989299984383,35.26094099982526]]]}},{"id":"696","type":"Feature","properties":{"GISJOIN":"G37011900052","pct_black":25.52},"geometry":{"type":"Polygon","coordinates":[[[-80.81169200032666,35.2472419998612],[-80.83059299958951,35.23294200026933],[-80.83519299972404,35.23564200012315],[-80.84179300045442,35.237641999819225],[-80.8359930005471,35.242441999697284],[-80.82949300014054,35.24884200045329],[-80.81989299984383,35.26094099982526],[-80.81889200020461,35.25904199980858],[-80.81639200033247,35.256841999919146],[-80.81069600010338,35.249748000452186],[-80.81169200032666,35.2472419998612]]]}},{"id":"697","type":"Feature","properties":{"GISJOIN":"G37011900053","pct_black":2.67},"geometry":{"type":"Polygon","coordinates":[[[-80.7800089998934,35.253838000390274],[-80.79119199977326,35.25144199960437],[-80.80599199954028,35.24914200026679],[-80.81169200032666,35.2472419998612],[-80.81069600010338,35.249748000452186],[-80.81639200033247,35.256841999919146],[-80.81889200020461,35.25904199980858],[-80.81989299984383,35.26094099982526],[-80.81499200029897,35.26874099996698],[-80.80906699947174,35.27665900034292],[-80.802119999901,35.276428999740176],[-80.77366999950021,35.284030000299936],[-80.76371499973419,35.28457899971629],[-80.76123299996082,35.286257000023085],[-80.76557400058643,35.28062299981901],[-80.76829800005126,35.26772699957973],[-80.76908800050298,35.26603600026699],[-80.76240699968399,35.26226500034789],[-80.76869200041394,35.26044200035478],[-80.7800089998934,35.253838000390274]]]}},{"id":"698","type":"Feature","properties":{"GISJOIN":"G37011900054","pct_black":4.91},"geometry":{"type":"Polygon","coordinates":[[[-80.80906699947174,35.27665900034292],[-80.8141030005033,35.276837000099604],[-80.83371400039194,35.27273700023934],[-80.84450000044767,35.27297299988195],[-80.86571899976532,35.26893699957394],[-80.86528600032032,35.2730059998469],[-80.8681800004763,35.27835900017522],[-80.86758200032249,35.28109000033346],[-80.86888799989612,35.2831470000005],[-80.8680449994542,35.28461300034454],[-80.86819799953926,35.2853709995801],[-80.8663870004962,35.28716299986179],[-80.86678700014166,35.289487999627966],[-80.87281600045263,35.293197999978204],[-80.87815799943009,35.30129400020897],[-80.87102800001588,35.30716300028345],[-80.86581400047329,35.305352000404056],[-80.85846700031323,35.30495300009793],[-80.85449599973,35.30627599996472],[-80.84069599975003,35.30875699968266],[-80.83807699977368,35.31065600033291],[-80.83145900033351,35.31746800032699],[-80.83056244351548,35.316730054080196],[-80.83023600038783,35.31430200010053],[-80.829076000396,35.31263999993316],[-80.81919300039532,35.305840000137074],[-80.80237699986536,35.30021400020795],[-80.7989920004562,35.29688700045365],[-80.79851100006283,35.293522999564885],[-80.79964299969978,35.28902800010455],[-80.80906699947174,35.27665900034292]]]}},{"id":"699","type":"Feature","properties":{"GISJOIN":"G37011900055","pct_black":22.88},"geometry":{"type":"Polygon","coordinates":[[[-80.69362000019758,35.34680600018875],[-80.7077619999818,35.33722799958834],[-80.71916300033863,35.33435400006619],[-80.72249300034436,35.33243799985284],[-80.74881099969879,35.30716699958691],[-80.7538629998699,35.299428999776005],[-80.7565829995254,35.290799999772155],[-80.76270099951127,35.284956999953295],[-80.77366999950021,35.284030000299936],[-80.80277499943153,35.27631700016038],[-80.80906699947174,35.27665900034292],[-80.79964299969978,35.28902800010455],[-80.79851100006283,35.293522999564885],[-80.7989920004562,35.29688700045365],[-80.80237699986536,35.30021400020795],[-80.81919300039532,35.305840000137074],[-80.829076000396,35.31263999993316],[-80.83023600038783,35.31430200010053],[-80.83056244351548,35.316730054080196],[-80.83145900033351,35.31746800032699],[-80.83886699979752,35.30997400002729],[-80.84339999983565,35.32526700014858],[-80.839790999935,35.36259200013211],[-80.84092200000028,35.36905599956842],[-80.83726200060964,35.370379999759095],[-80.82752700007215,35.369722999678096],[-80.82144399999171,35.367524999648204],[-80.81972200025493,35.363869000341815],[-80.81507900054399,35.367793000089726],[-80.80366499950107,35.374129999955414],[-80.79438899963183,35.38041400015669],[-80.78904699992334,35.38233400002462],[-80.7794299996764,35.390428999686534],[-80.77438500030082,35.39275200015537],[-80.76940400035221,35.39734899967336],[-80.76425500031522,35.40022599980008],[-80.75528399986646,35.39492699990563],[-80.74439500015802,35.38074699990666],[-80.73372999936947,35.37265100034626],[-80.70900399994181,35.355473999657455],[-80.69362000019758,35.34680600018875]]]}},{"id":"700","type":"Feature","properties":{"GISJOIN":"G37011900056","pct_black":25.2},"geometry":{"type":"Polygon","coordinates":[[[-80.5996339997016,35.23396299981412],[-80.60475400012258,35.23162800042981],[-80.61150800014512,35.22663100034202],[-80.61721599978095,35.224222000235656],[-80.62887800038163,35.22231900042314],[-80.6400460003022,35.222191000424296],[-80.65090999957646,35.218398999743506],[-80.65734199982172,35.2135510004043],[-80.66639800025372,35.20923199995956],[-80.67129000052456,35.20894399998156],[-80.6820259999855,35.21366899968954],[-80.69399099949977,35.217243000055305],[-80.70979100029501,35.22744300010434],[-80.7214909997723,35.22774299954112],[-80.7176659996345,35.23390200021238],[-80.7162539999602,35.237330000359],[-80.71708199950226,35.24722500025398],[-80.7187259995585,35.24983299978845],[-80.71771799981045,35.25540799971782],[-80.72097800022968,35.255772999601774],[-80.72718500037568,35.2585999997456],[-80.7362159996099,35.2582780002255],[-80.73485600060829,35.26083099963376],[-80.73474999995992,35.26366699975354],[-80.73988499983136,35.27154700030712],[-80.74072899962502,35.272064000028124],[-80.73637900021282,35.2785059999888],[-80.74214699954499,35.28104799990337],[-80.74569200044583,35.28327800029595],[-80.75254099979428,35.28382999985048],[-80.75388600030087,35.28476899979838],[-80.75553300054487,35.28799399993124],[-80.75757599971737,35.28914000020315],[-80.75895200032447,35.28837900009663],[-80.7565829995254,35.290799999772155],[-80.7538629998699,35.299428999776005],[-80.74881099969879,35.30716699958691],[-80.72249300034436,35.33243799985284],[-80.71916300033863,35.33435400006619],[-80.7077619999818,35.33722799958834],[-80.69362000019758,35.34680600018875],[-80.66727399946215,35.26901400037409],[-80.66583499965297,35.26818100013117],[-80.66621399962789,35.26754900021112],[-80.63167100036857,35.2505530004375],[-80.5996339997016,35.23396299981412]]]}},{"id":"701","type":"Feature","properties":{"GISJOIN":"G37011900057","pct_black":9.07},"geometry":{"type":"Polygon","coordinates":[[[-80.68139299955293,35.10340499968801],[-80.70648800021601,35.12693800047819],[-80.73128800016967,35.155031999999935],[-80.73636599967283,35.15976499983235],[-80.73106599997952,35.16326900001475],[-80.72896900023426,35.166231000321055],[-80.7275980002303,35.16642699999414],[-80.72624800020202,35.16763599988453],[-80.72591199944021,35.16816600013384],[-80.72714300033721,35.168438999745604],[-80.72577500038466,35.1683039999612],[-80.72417499997567,35.17022200000241],[-80.72464899945923,35.17200100023802],[-80.72583700030248,35.172778000428586],[-80.72506900006118,35.174334999575045],[-80.72201099954664,35.174236000292645],[-80.71894300010088,35.17616399967732],[-80.71837499950612,35.17874500019052],[-80.71594699984338,35.17971599983937],[-80.71583700028073,35.1825470001982],[-80.71290699953919,35.18359500036908],[-80.71149599992539,35.185256000161765],[-80.71027200023231,35.18581300002346],[-80.71007900023181,35.18664299980888],[-80.70880900044867,35.18707800050941],[-80.70517399963528,35.19264100020651],[-80.70160199946403,35.19033800021981],[-80.69540599998928,35.18913399998957],[-80.68905799956995,35.18703399964988],[-80.68502000014001,35.19419800024165],[-80.67671599982707,35.200051999979685],[-80.67339900009219,35.20396300032434],[-80.6702369998067,35.20541299953066],[-80.67010399984163,35.20839199993244],[-80.67145500027013,35.20857900035464],[-80.67135800008421,35.20897400043951],[-80.66639800025372,35.20923199995956],[-80.65734199982172,35.2135510004043],[-80.65090999957646,35.218398999743506],[-80.6400460003022,35.222191000424296],[-80.62887800038163,35.22231900042314],[-80.61721599978095,35.224222000235656],[-80.61150800014512,35.22663100034202],[-80.60475400012258,35.23162800042981],[-80.5996339997016,35.23396299981412],[-80.55029700035475,35.20838100036503],[-80.62412600046959,35.14913300018541],[-80.62751400016445,35.14529500039936],[-80.63152699967812,35.14327900028497],[-80.68139299955293,35.10340499968801]]]}},{"id":"702","type":"Feature","properties":{"GISJOIN":"G37011900058","pct_black":31.0},"geometry":{"type":"Polygon","coordinates":[[[-80.68139299955293,35.10340499968801],[-80.70523000052339,35.08422700008685],[-80.77017599978029,35.03431900040265],[-80.77108899960417,35.03438199993695],[-80.77397100001737,35.03277800020103],[-80.7771849995731,35.03317500024353],[-80.77902500034642,35.03235000006537],[-80.78115500033205,35.03354700008214],[-80.78240299980959,35.03348000014512],[-80.78301100038168,35.032712000238675],[-80.78502700053305,35.03278700006649],[-80.79003299957385,35.031328999867625],[-80.79011600047065,35.03074800011868],[-80.79131600030263,35.030168999832874],[-80.79414799951797,35.02966100022925],[-80.79500800025835,35.03018600018184],[-80.7966360003332,35.03010999983267],[-80.79790199952458,35.0289940000147],[-80.7989720003338,35.029103000337344],[-80.80114299987363,35.02789999955022],[-80.80443800032857,35.02794100004712],[-80.80576200026006,35.02745199977783],[-80.80593899994199,35.02677899962706],[-80.80514400050347,35.02608099969044],[-80.80641800044846,35.02480799996943],[-80.80656300027319,35.02373500008309],[-80.80810999972681,35.02360499968463],[-80.80859000056282,35.02261199974828],[-80.8102170005371,35.02220599995682],[-80.81258099981986,35.02034800025046],[-80.8144629995898,35.020860999726665],[-80.81625700006832,35.01922299962813],[-80.81892599966483,35.018673000020236],[-80.81960600022745,35.017474000082174],[-80.82140700000829,35.01731400009837],[-80.82245500048876,35.016388999793655],[-80.82240799989083,35.014597000035344],[-80.8228679997648,35.01465400017044],[-80.8228029997639,35.01404899959922],[-80.82499200017625,35.01200100024721],[-80.83014999956843,35.009576999825946],[-80.83115399972884,35.00785199985482],[-80.83386700049556,35.00768199974705],[-80.83623800025354,35.006367999707706],[-80.83729200021367,35.00504499965379],[-80.83783600017702,35.00523699960243],[-80.83873399987827,35.00444099979411],[-80.84030030026712,35.00171383069347],[-80.8872730005655,35.05619599965633],[-80.9199480005357,35.091234999671485],[-80.91540000009857,35.105661000127554],[-80.91604599989772,35.11002099975142],[-80.91551299966491,35.111216999679414],[-80.91290900044662,35.11381799975352],[-80.90445300039502,35.11864200045627],[-80.90217900029536,35.12275699979397],[-80.89991500011092,35.12544900032867],[-80.89317000038334,35.128076999614635],[-80.89177499972388,35.13119400009499],[-80.89184799958453,35.135540000247055],[-80.88432199992742,35.137279000179056],[-80.88337000025527,35.139440000369895],[-80.8812610005377,35.14116099973227],[-80.87758900009986,35.14027499983925],[-80.87767600050321,35.14278499964687],[-80.8753239998961,35.13145600017643],[-80.8811650005699,35.11962699963469],[-80.87563899999662,35.1175199995634],[-80.86994899957983,35.11845599988462],[-80.86463900018309,35.118012000083304],[-80.8615170004303,35.117066000289],[-80.85555799960851,35.118146000146545],[-80.85839299991648,35.109159000104576],[-80.85734300044182,35.105028000418464],[-80.85967599994235,35.096989999777925],[-80.85806899994482,35.093777000086476],[-80.85502300009091,35.09118899994925],[-80.85310999975864,35.08867699958825],[-80.85292299981445,35.087660999536546],[-80.84349099966835,35.08774300028205],[-80.83661099974097,35.08678499994575],[-80.83084099994387,35.083278000329656],[-80.82806599997299,35.08277300012807],[-80.81340099951389,35.08719300036569],[-80.80801199961142,35.08812099977625],[-80.8034980003521,35.091528000148145],[-80.79399199970311,35.09341799967424],[-80.7821849999015,35.09905800043495],[-80.7773910004251,35.10044299985794],[-80.7684629995853,35.10515900013663],[-80.7595750001724,35.11163800002049],[-80.7565420001776,35.113266999751154],[-80.75261399954785,35.1145599998734],[-80.74512000000485,35.11501299977464],[-80.74019900047699,35.11778400024017],[-80.74673000025076,35.12228799980911],[-80.74912100002179,35.125869999684156],[-80.7512729995351,35.12698799956967],[-80.75449799961075,35.12748800013589],[-80.7680500000207,35.13735100026703],[-80.76139000047051,35.142627999665294],[-80.76056299975912,35.14384399983439],[-80.75324900003638,35.148142000115904],[-80.75001699971277,35.14884499997006],[-80.74562499978833,35.148231000116986],[-80.74340000021724,35.148721999929485],[-80.73636599967283,35.15976499983235],[-80.73128800016967,35.155031999999935],[-80.70648800021601,35.12693800047819],[-80.68139299955293,35.10340499968801]]]}},{"id":"703","type":"Feature","properties":{"GISJOIN":"G37011900059","pct_black":17.39},"geometry":{"type":"Polygon","coordinates":[[[-80.9388870002937,35.24116599971128],[-80.94041300023565,35.237295000089446],[-80.94169399944262,35.23710600016454],[-80.94373499974606,35.23462000034017],[-80.9455350004947,35.22949799999554],[-80.94636099952861,35.228452000138994],[-80.94850399995447,35.228185000383036],[-80.9519919999306,35.231692000395775],[-80.9551039999227,35.23201700020936],[-80.95638599996241,35.23125799981722],[-80.95709100038187,35.23005700037964],[-80.95617300009576,35.2267389998008],[-80.95641700045034,35.225660000371064],[-80.96126599991366,35.22380599975123],[-80.95874100052168,35.21642800015915],[-80.95824200002899,35.211712999551615],[-80.95883599967549,35.20969099961928],[-80.96171099975507,35.20656999976908],[-80.96242200015871,35.20099700038948],[-80.95903400034774,35.19362599991461],[-80.95796700006677,35.18961400026518],[-80.94719200049809,35.192580000207045],[-80.93331699956535,35.193883000320845],[-80.92917100005745,35.1898370000106],[-80.93223500021247,35.18764099962003],[-80.93255799982015,35.1863550001202],[-80.92422600000273,35.16717799969488],[-80.92129599994969,35.16390700015547],[-80.92062099977791,35.16225599971656],[-80.92107100009744,35.160302999791085],[-80.92059200031208,35.1595070001308],[-80.92249200027155,35.15646899982693],[-80.92616300043713,35.14703600022351],[-80.91756899994952,35.14242999991804],[-80.89881199982366,35.133843999986055],[-80.89747199938951,35.133766000281184],[-80.89531000000862,35.13486099968574],[-80.89184799958453,35.135540000247055],[-80.89177499972388,35.13119400009499],[-80.8927790001375,35.12861700039957],[-80.89380700026486,35.12767999980631],[-80.89991500011092,35.12544900032867],[-80.90217900029536,35.12275699979397],[-80.90445300039502,35.11864200045627],[-80.91290900044662,35.11381799975352],[-80.91570100046297,35.11096699970384],[-80.91604599989772,35.11002099975142],[-80.91540000009857,35.105661000127554],[-80.9199480005357,35.091234999671485],[-80.93495000045762,35.107409000411764],[-80.95787399979851,35.092635999555654],[-81.04148900047423,35.04470299984499],[-81.05001800037556,35.05524599977425],[-81.05764800044467,35.06243300034722],[-81.05802899951235,35.07450199974457],[-81.05670199997799,35.079902999868075],[-81.05723600018587,35.08612900040818],[-81.05342100001114,35.092149000074706],[-81.05207699973728,35.09627600041203],[-81.05007799950171,35.09881699980779],[-81.04652200044752,35.10061799978324],[-81.0386310005908,35.10215899979677],[-81.03616000019544,35.10320600009008],[-81.03381199973659,35.105578000028814],[-81.03254599998348,35.10910200032727],[-81.0325469995092,35.11137500018848],[-81.03334099987171,35.114625000396934],[-81.03507999964731,35.117371000313454],[-81.03675900009459,35.12255199987894],[-81.0389679995005,35.12629900030839],[-81.05042000032311,35.13104800015888],[-81.05103699958858,35.131653999924346],[-81.05104399965415,35.13468499977075],[-81.047825999752,35.143743000001095],[-81.0443909994582,35.147918000000715],[-81.04340700026316,35.148390000030545],[-81.03413799985748,35.148691999747044],[-81.02399299989403,35.14797800040464],[-81.01805600038178,35.153431999835156],[-81.0166129998155,35.153865000272745],[-81.01388699961072,35.1527209998734],[-81.01119999964389,35.15231999965875],[-81.00806300034064,35.153789000194514],[-81.00585100026385,35.15656199962914],[-81.00540800015526,35.1610069995858],[-81.00668699980785,35.16464399979524],[-81.00378299950629,35.16908800015678],[-81.00255800033212,35.172252999697406],[-81.00196500013023,35.184172000455504],[-81.00449600012053,35.18764100004289],[-81.0062450004603,35.195293000129105],[-81.00648400000037,35.200428999841385],[-81.00526800048945,35.20588500029273],[-81.0053640002181,35.20820500036681],[-81.00619599997181,35.210301000178646],[-81.01395600021836,35.220588000212786],[-81.0145160003769,35.22263600020831],[-81.01103799986303,35.23406700020448],[-81.0106919995081,35.241483999706],[-81.00834000049765,35.24698700000948],[-81.008176192067,35.2491400013357],[-81.0055473360492,35.25039240730418],[-81.0005696088079,35.251675726730575],[-80.99487509347966,35.258808480949334],[-80.9918241472959,35.260309960996814],[-80.98829785430962,35.26096402288243],[-80.9851699659463,35.2607540043539],[-80.98337147813851,35.25974555013855],[-80.98188899952657,35.25403499968658],[-80.94977899974302,35.24182000015568],[-80.94441199962947,35.24089500007982],[-80.9388870002937,35.24116599971128]]]}},{"id":"704","type":"Feature","properties":{"GISJOIN":"G37011900060","pct_black":15.76},"geometry":{"type":"Polygon","coordinates":[[[-80.90629400003719,35.28566899964348],[-80.89548899960717,35.27925399963037],[-80.89547200051283,35.276634000013814],[-80.89828700057456,35.272506999876946],[-80.90009399962831,35.27313999958218],[-80.9367609995164,35.2757860000776],[-80.93666200052878,35.27509199976424],[-80.94046400008276,35.26763100023266],[-80.93975299955359,35.25873799991624],[-80.94162300051755,35.251760000009114],[-80.9412499996218,35.25067000029848],[-80.93862099958055,35.248577000224664],[-80.9369880004971,35.24624799993429],[-80.9388870002937,35.24116599971128],[-80.94441199962947,35.24089500007982],[-80.94977899974302,35.24182000015568],[-80.98188899952657,35.25403499968658],[-80.98337147813851,35.25974555013855],[-80.9851699659463,35.2607540043539],[-80.98829785430962,35.26096402288243],[-80.9918241472959,35.260309960996814],[-80.99487509347966,35.258808480949334],[-81.0005696088079,35.251675726730575],[-81.0055473360492,35.25039240730418],[-81.008176192067,35.2491400013357],[-81.00883599986375,35.250763000210966],[-81.01122000043165,35.252475000226],[-81.01425999983528,35.25925899980669],[-81.01494800009182,35.26975500045488],[-81.0134439996137,35.27410699984164],[-81.00881999951694,35.28173899969554],[-81.00632199974334,35.29233400008327],[-81.00197199954769,35.30087399959429],[-81.00141200030063,35.304521999874964],[-81.00053200014267,35.305721999957925],[-80.99648399963077,35.308138000034965],[-80.99534800034378,35.30936999968328],[-80.99360399954156,35.31221800017195],[-80.99206800057092,35.31647899972733],[-80.98959599977186,35.32028400016719],[-80.98439200031363,35.324029000449066],[-80.98146299992028,35.3275490004017],[-80.98099099953598,35.331396999869746],[-80.9825799999589,35.33442599958872],[-80.98532599956434,35.33723299994736],[-80.98496400044203,35.33994500021811],[-80.98191599969391,35.34240999963358],[-80.9771579998533,35.3436659996467],[-80.97487699941681,35.34487700027412],[-80.97263299988987,35.35040000000086],[-80.96908200039358,35.34668699993345],[-80.96585600049315,35.3406919999637],[-80.96297900047955,35.33827299987227],[-80.96297400004103,35.33672900011683],[-80.95224199959353,35.3204669997919],[-80.94999799956717,35.31868200025737],[-80.94476799966083,35.31647400031408],[-80.93978300032484,35.31022199992594],[-80.93662400031457,35.30272199959818],[-80.93467799963261,35.301603999535146],[-80.92520100008305,35.29948700002173],[-80.92117800023921,35.297528000458605],[-80.91978600023882,35.29738299980875],[-80.91822500037915,35.29494599978293],[-80.90629400003719,35.28566899964348]]]}},{"id":"705","type":"Feature","properties":{"GISJOIN":"G37011900061","pct_black":7.23},"geometry":{"type":"Polygon","coordinates":[[[-80.83886699979752,35.30997400002729],[-80.84087299993234,35.308696999783045],[-80.85449599973,35.30627599996472],[-80.85826000042155,35.304964000334074],[-80.86502000022679,35.3052150001758],[-80.87102800001588,35.30716300028345],[-80.87690000051232,35.301995999931144],[-80.88767700034846,35.294752000204745],[-80.8893059994678,35.2921060003316],[-80.89134100020782,35.29075600035765],[-80.89171899982676,35.288965000253526],[-80.89359400019153,35.285755999754564],[-80.89669999953551,35.28190299967194],[-80.89685899971543,35.28117300024197],[-80.89604800013437,35.27962400033808],[-80.90629400003719,35.28566899964348],[-80.91822500037915,35.29494599978293],[-80.91978600023882,35.29738299980875],[-80.92117800023921,35.297528000458605],[-80.92520100008305,35.29948700002173],[-80.93467799963261,35.301603999535146],[-80.93662400031457,35.30272199959818],[-80.93978300032484,35.31022199992594],[-80.94476799966083,35.31647400031408],[-80.94999799956717,35.31868200025737],[-80.95224199959353,35.3204669997919],[-80.96297400004103,35.33672900011683],[-80.96297900047955,35.33827299987227],[-80.96585600049315,35.3406919999637],[-80.96908200039358,35.34668699993345],[-80.97263299988987,35.35040000000086],[-80.9702959997237,35.351102999958414],[-80.96844700051314,35.3507140000069],[-80.96622699955462,35.349432999809856],[-80.96382900045201,35.34691200021364],[-80.96278400025277,35.346767999586504],[-80.9568709995087,35.35006400028069],[-80.95243000026039,35.35076500000087],[-80.94417800016299,35.35028399981949],[-80.94058899984834,35.35229799985832],[-80.93618200034757,35.34988900001904],[-80.93277800038585,35.34872099988449],[-80.93090100009944,35.348329999584344],[-80.9254179999626,35.34857700034475],[-80.92088399987638,35.34524499976928],[-80.91493000013915,35.34346700031139],[-80.9143319995062,35.34372499999355],[-80.91417300019975,35.3449189997469],[-80.9132149994606,35.34614100028935],[-80.91018499979161,35.348136999990324],[-80.90896900024339,35.35067699983436],[-80.9066149996264,35.3501340002582],[-80.90511500056473,35.350538999847885],[-80.90235499961301,35.354853999902865],[-80.90079899988031,35.35863700022613],[-80.89751099958437,35.36151900030024],[-80.89707399951588,35.36020500022684],[-80.88897199991663,35.3534119996714],[-80.88773399961981,35.348111999593094],[-80.8854369999999,35.3465579996177],[-80.88184799980154,35.348238000074275],[-80.85879800019033,35.365628999905],[-80.8558219996196,35.36683100005408],[-80.84906499958512,35.36615399956606],[-80.84541699948521,35.36677200036649],[-80.84092200000028,35.36905599956842],[-80.839790999935,35.36259200013211],[-80.84350499977383,35.32642199967114],[-80.83886699979752,35.30997400002729]]]}},{"id":"706","type":"Feature","properties":{"GISJOIN":"G37011900062","pct_black":34.68},"geometry":{"type":"Polygon","coordinates":[[[-80.86548900033397,35.44222600016379],[-80.86530399996668,35.436957999889636],[-80.8643970000969,35.43230599974113],[-80.85733899962007,35.41773700035519],[-80.85060300016956,35.39632999978379],[-80.84422999999681,35.38064899984033],[-80.84092200000028,35.36905599956842],[-80.84541699948521,35.36677200036649],[-80.84906499958512,35.36615399956606],[-80.8558219996196,35.36683100005408],[-80.85879800019033,35.365628999905],[-80.88184799980154,35.348238000074275],[-80.8854369999999,35.3465579996177],[-80.88773399961981,35.348111999593094],[-80.88897199991663,35.3534119996714],[-80.89707399951588,35.36020500022684],[-80.89751099958437,35.36151900030024],[-80.90079899988031,35.35863700022613],[-80.90235499961301,35.354853999902865],[-80.90511500056473,35.350538999847885],[-80.9066149996264,35.3501340002582],[-80.90896900024339,35.35067699983436],[-80.91018499979161,35.348136999990324],[-80.9132149994606,35.34614100028935],[-80.91417300019975,35.3449189997469],[-80.9143319995062,35.34372499999355],[-80.91516600007428,35.343447999908065],[-80.92088399987638,35.34524499976928],[-80.9254179999626,35.34857700034475],[-80.93090100009944,35.348329999584344],[-80.93277800038585,35.34872099988449],[-80.93618200034757,35.34988900001904],[-80.94058899984834,35.35229799985832],[-80.93392800047631,35.3570859997279],[-80.9270079998736,35.35763499981535],[-80.92338099974958,35.35917999970007],[-80.92288200031044,35.36033400000757],[-80.92421099953198,35.36165600019332],[-80.93059100026431,35.36305799990194],[-80.93675899991996,35.36221300030899],[-80.94227300023171,35.36511800029568],[-80.95093899970665,35.366875999686975],[-80.95435099956858,35.36927600026968],[-80.95643699980899,35.373286999789585],[-80.95819500041934,35.374893999743335],[-80.96206899988317,35.37571099965685],[-80.96384399963034,35.374978999881165],[-80.96624700053603,35.37245699974786],[-80.9674929997071,35.36921100024847],[-80.9693389995778,35.36709200007622],[-80.97460099960117,35.36430399977303],[-80.97622600059799,35.36421899975608],[-80.98046000017146,35.36563899963182],[-80.98407800037485,35.368771999979614],[-80.98620099984895,35.37329199976561],[-80.98701799948003,35.37841199981988],[-80.98633800046831,35.3801319997828],[-80.9851260006134,35.381359999718626],[-80.97971800005318,35.381404000373244],[-80.97772300045507,35.381952999813535],[-80.9673359996078,35.3878640003081],[-80.95816900008629,35.39068400004879],[-80.95646400052283,35.39176700008206],[-80.95472599954317,35.39393999992876],[-80.95443900012907,35.39900499967011],[-80.95722699957949,35.404867000113214],[-80.95876200006164,35.41211400042956],[-80.95838000004443,35.41416200011529],[-80.95563900008156,35.41891700027762],[-80.95520800030947,35.42144700034148],[-80.95599699958343,35.42576999963496],[-80.95869100025558,35.432634000133625],[-80.95602999994583,35.43807499966758],[-80.95306700050456,35.44127500009724],[-80.95250600025007,35.44364600025483],[-80.95058299955991,35.447101999625616],[-80.94964399976774,35.448127999633705],[-80.94588000028517,35.44996699979833],[-80.9427400000068,35.45341700030778],[-80.94233399978359,35.45556199992157],[-80.94248900007851,35.457727999722316],[-80.94325099955111,35.45937300029892],[-80.95051799999574,35.465024999916245],[-80.9517469998123,35.468450000068955],[-80.95142200030618,35.4708930003899],[-80.9487899995535,35.47662399996706],[-80.94814299980504,35.480043999700406],[-80.94521100018302,35.48390200045798],[-80.94703000055617,35.4876989999534],[-80.90982499966964,35.51510299998024],[-80.86588200012835,35.51181599997703],[-80.86675700025602,35.5025270000074],[-80.87456400050726,35.48662400007802],[-80.87495800016985,35.48349499962904],[-80.87253999977693,35.483755000381514],[-80.87428400006095,35.47674800022144],[-80.87433800032414,35.473054000275354],[-80.86782500037403,35.4560690000593],[-80.86548900033397,35.44222600016379]]]}},{"id":"707","type":"Feature","properties":{"GISJOIN":"G37011900063","pct_black":26.69},"geometry":{"type":"Polygon","coordinates":[[[-80.7649089999582,35.440968000110495],[-80.752506999644,35.41437999954232],[-80.76369399978928,35.41224399959921],[-80.76637300044982,35.401316000210024],[-80.76425500031522,35.40022599980008],[-80.76940400035221,35.39734899967336],[-80.77438500030082,35.39275200015537],[-80.7794299996764,35.390428999686534],[-80.78904699992334,35.38233400002462],[-80.79438899963183,35.38041400015669],[-80.80366499950107,35.374129999955414],[-80.81507900054399,35.367793000089726],[-80.81972200025493,35.363869000341815],[-80.82144399999171,35.367524999648204],[-80.82752700007215,35.369722999678096],[-80.83726200060964,35.370379999759095],[-80.84092200000028,35.36905599956842],[-80.84422999999681,35.38064899984033],[-80.85060300016956,35.39632999978379],[-80.85733899962007,35.41773700035519],[-80.8643970000969,35.43230599974113],[-80.86530399996668,35.436957999889636],[-80.86548900033397,35.44222600016379],[-80.84452099952347,35.44077300029087],[-80.84283700049684,35.45366799980603],[-80.83818400026541,35.45365599995415],[-80.83390999989909,35.45490899964994],[-80.82837599985655,35.45402599954099],[-80.8216790003572,35.45737499967871],[-80.8173869999753,35.45599299987425],[-80.81364199998507,35.45714100041051],[-80.80639600000727,35.455349000165356],[-80.80341299970328,35.45514199954686],[-80.79484699972895,35.44970400033479],[-80.78603699989873,35.446657000431316],[-80.78251600015136,35.44600899990671],[-80.7793089999483,35.44409300008692],[-80.77018300014794,35.441049000158465],[-80.7649089999582,35.440968000110495]]]}},{"id":"708","type":"Feature","properties":{"GISJOIN":"G37011900064","pct_black":23.84},"geometry":{"type":"Polygon","coordinates":[[[-80.7649089999582,35.440968000110495],[-80.77018300014794,35.441049000158465],[-80.7793089999483,35.44409300008692],[-80.78251600015136,35.44600899990671],[-80.78603699989873,35.446657000431316],[-80.79484699972895,35.44970400033479],[-80.80341299970328,35.45514199954686],[-80.80639600000727,35.455349000165356],[-80.81364199998507,35.45714100041051],[-80.8173869999753,35.45599299987425],[-80.8216790003572,35.45737499967871],[-80.82837599985655,35.45402599954099],[-80.83390999989909,35.45490899964994],[-80.83818400026541,35.45365599995415],[-80.84283700049684,35.45366799980603],[-80.84452099952347,35.44077300029087],[-80.86548900033397,35.44222600016379],[-80.86782500037403,35.4560690000593],[-80.87433800032414,35.473054000275354],[-80.87428400006095,35.47674800022144],[-80.87253999977693,35.483755000381514],[-80.87495800016985,35.48349499962904],[-80.87456400050726,35.48662400007802],[-80.86675700025602,35.5025270000074],[-80.86588200012835,35.51181599997703],[-80.80110799967187,35.50708699993134],[-80.78785899990193,35.50709300028289],[-80.78433899980209,35.505839999667245],[-80.78478600051952,35.50416900017031],[-80.78772499988241,35.49999700012483],[-80.78849399951459,35.4964549998697],[-80.78794199985394,35.49313499990438],[-80.7824980005653,35.48447399990488],[-80.78242600046887,35.4817629999683],[-80.77937600035528,35.47222300031097],[-80.77357200046595,35.46338100030206],[-80.77338500028108,35.45752800014626],[-80.77285699996311,35.4573379999686],[-80.7649089999582,35.440968000110495]]]}}]}