{"type":"FeatureCollection","features":[{"id":"730","type":"Feature","properties":{"GISJOIN":"G36006700001","pct_black":0.0},"geometry":{"type":"Polygon","coordinates":[[[-76.15756799998947,43.082740999987244],[-76.16513500010765,43.072609000152376],[-76.17052500007395,43.06692100045225],[-76.18192199962245,43.058013999513065],[-76.18877299937284,43.061046000337036],[-76.1923779999317,43.06139499954025],[-76.19876499954167,43.063671000210206],[-76.19467299982593,43.06507699998088],[-76.17840900032614,43.07767700000811],[-76.17706299997057,43.08001299986871],[-76.17091900023881,43.078010999646544],[-76.16928400055201,43.078668000018006],[-76.16245500016942,43.08610199962106],[-76.15756799998947,43.082740999987244]]]}},{"id":"731","type":"Feature","properties":{"GISJOIN":"G36006700002","pct_black":0.48},"geometry":{"type":"Polygon","coordinates":[[[-76.15756799998947,43.082740999987244],[-76.14909399952772,43.07686999957445],[-76.15324600044757,43.075061000049075],[-76.15902900001866,43.06730600012033],[-76.16706699952569,43.070652999925194],[-76.15756799998947,43.082740999987244]]]}},{"id":"732","type":"Feature","properties":{"GISJOIN":"G36006700003","pct_black":0.0},"geometry":{"type":"Polygon","coordinates":[[[-76.13895499936032,43.08245200026452],[-76.14909399952772,43.07686999957445],[-76.15606900021203,43.08171200011252],[-76.15527800005535,43.082601999573036],[-76.15385199935744,43.081640000121865],[-76.15144600014752,43.08436600004015],[-76.15014700014106,43.084065999571926],[-76.1474779997234,43.084604000330216],[-76.1440459993609,43.083366000318954],[-76.14232599955044,43.08134899965365],[-76.13944799976045,43.08292699994273],[-76.13895499936032,43.08245200026452]]]}},{"id":"733","type":"Feature","properties":{"GISJOIN":"G36006700004","pct_black":0.04},"geometry":{"type":"Polygon","coordinates":[[[-76.12499900044342,43.07295900019261],[-76.1419459997194,43.07213800032649],[-76.15349899937215,43.07472400001984],[-76.13895499936032,43.08245200026452],[-76.13678000023944,43.081079999638185],[-76.13664499984989,43.07895000038283],[-76.12649399978606,43.079644999799676],[-76.12602199988035,43.07360800031483],[-76.1250270002971,43.07360400001678],[-76.12499900044342,43.07295900019261]]]}},{"id":"734","type":"Feature","properties":{"GISJOIN":"G36006700005","pct_black":0.0},"geometry":{"type":"Polygon","coordinates":[[[-76.16706699952569,43.070652999925194],[-76.15240899956831,43.06469699971499],[-76.15340499994092,43.06335899998295],[-76.15688610231015,43.06212362733154],[-76.15783915516063,43.06283942060449],[-76.15856819706191,43.06241419779602],[-76.16032099971807,43.06467899964739],[-76.16526899987132,43.06691500032259],[-76.16820699994283,43.069490999783625],[-76.16706699952569,43.070652999925194]]]}},{"id":"735","type":"Feature","properties":{"GISJOIN":"G36006700006","pct_black":0.0},"geometry":{"type":"Polygon","coordinates":[[[-76.14602700001672,43.073269000450104],[-76.15240899956831,43.06469699971499],[-76.15902900001866,43.06730600012033],[-76.15349899937215,43.07472400001984],[-76.14602700001672,43.073269000450104]]]}},{"id":"736","type":"Feature","properties":{"GISJOIN":"G36006700007","pct_black":0.05},"geometry":{"type":"Polygon","coordinates":[[[-76.1419459997194,43.07213800032649],[-76.14272700059465,43.07210599995551],[-76.14328300023777,43.07025699978492],[-76.1433419996096,43.06504699983939],[-76.15010400002727,43.067786999686994],[-76.14602700001672,43.073269000450104],[-76.1419459997194,43.07213800032649]]]}},{"id":"737","type":"Feature","properties":{"GISJOIN":"G36006700008","pct_black":0.0},"geometry":{"type":"Polygon","coordinates":[[[-76.13394000022434,43.064421999638455],[-76.13851800044087,43.06424600036038],[-76.13849199981757,43.06311999983996],[-76.13949200012048,43.06307500015706],[-76.13958399991444,43.06413800024274],[-76.14335299974104,43.06397999957841],[-76.14328300023777,43.07025699978492],[-76.14272700059465,43.07210599995551],[-76.1344729994459,43.07249700012985],[-76.13394000022434,43.064421999638455]]]}},{"id":"738","type":"Feature","properties":{"GISJOIN":"G36006700009","pct_black":0.21},"geometry":{"type":"Polygon","coordinates":[[[-76.11476400027249,43.06843500037014],[-76.11615000014874,43.06820499969382],[-76.13134700040304,43.06075899992591],[-76.13385300015788,43.06349599969355],[-76.1344729994459,43.07249700012985],[-76.12482999955643,43.07294000006333],[-76.11476400027249,43.06843500037014]]]}},{"id":"739","type":"Feature","properties":{"GISJOIN":"G36006700010","pct_black":1.02},"geometry":{"type":"Polygon","coordinates":[[[-76.09646600066625,43.069311999719616],[-76.11476400027249,43.06843500037014],[-76.12499900044342,43.07295900019261],[-76.11562800018714,43.07357799980442],[-76.11496899981942,43.07571699972902],[-76.10261900026036,43.076425000310586],[-76.10094599996357,43.07542900004791],[-76.10006399991475,43.07080999980705],[-76.09918500065493,43.07085699974818],[-76.09912900043432,43.07027500007214],[-76.0964650000423,43.07031400024438],[-76.09646600066625,43.069311999719616]]]}},{"id":"740","type":"Feature","properties":{"GISJOIN":"G36006700011","pct_black":0.0},"geometry":{"type":"Polygon","coordinates":[[[-76.15856819706191,43.06241419779602],[-76.16429900029283,43.059343999791],[-76.17037499962925,43.05723900038278],[-76.17042899952109,43.05585299961911],[-76.17679599967927,43.05616900007667],[-76.18192199962245,43.058013999513065],[-76.1707839998315,43.066683999617716],[-76.16820699994283,43.069490999783625],[-76.16526899987132,43.06691500032259],[-76.16032099971807,43.06467899964739],[-76.15856819706191,43.06241419779602]]]}},{"id":"741","type":"Feature","properties":{"GISJOIN":"G36006700012","pct_black":0.0},"geometry":{"type":"Polygon","coordinates":[[[-76.15463400018632,43.05889499965438],[-76.15237899975259,43.05455200026475],[-76.1578399993692,43.054533000195796],[-76.16297999943366,43.05542500012911],[-76.17042899952109,43.05585299961911],[-76.17037499962925,43.05723900038278],[-76.16429900029283,43.059343999791],[-76.15856819706191,43.06241419779602],[-76.15463400018632,43.05889499965438]]]}},{"id":"742","type":"Feature","properties":{"GISJOIN":"G36006700013","pct_black":0.0},"geometry":{"type":"Polygon","coordinates":[[[-76.15340499994092,43.06335899998295],[-76.15206999956837,43.06262899977158],[-76.14694799960483,43.059871000001216],[-76.15255599971438,43.0574619996394],[-76.15357600051539,43.05636099970968],[-76.15463400018632,43.05889499965438],[-76.15856819706191,43.06241419779602],[-76.15783915516063,43.06283942060449],[-76.15688610231015,43.06212362733154],[-76.15340499994092,43.06335899998295]]]}},{"id":"743","type":"Feature","properties":{"GISJOIN":"G36006700014","pct_black":0.03},"geometry":{"type":"Polygon","coordinates":[[[-76.1433419996096,43.06504699983939],[-76.14345699983399,43.06360400020934],[-76.14588599958277,43.06035999984022],[-76.14694799960483,43.059871000001216],[-76.15340499994092,43.06335899998295],[-76.15010400002727,43.067786999686994],[-76.1433419996096,43.06504699983939]]]}},{"id":"744","type":"Feature","properties":{"GISJOIN":"G36006700015","pct_black":0.0},"geometry":{"type":"Polygon","coordinates":[[[-76.13277700005887,43.062314999971115],[-76.14003099941999,43.05871700010414],[-76.13935900023179,43.057986000278284],[-76.14150100004753,43.05692799963791],[-76.14694799960483,43.059871000001216],[-76.14588599958277,43.06035999984022],[-76.14335299974104,43.06397999957841],[-76.13958399991444,43.06413800024274],[-76.13949200012048,43.06307500015706],[-76.13849199981757,43.06311999983996],[-76.13851800044087,43.06424600036038],[-76.13394000022434,43.064421999638455],[-76.13385300015788,43.06349599969355],[-76.13277700005887,43.062314999971115]]]}},{"id":"745","type":"Feature","properties":{"GISJOIN":"G36006700016","pct_black":0.07},"geometry":{"type":"Polygon","coordinates":[[[-76.13053000001945,43.061161999711636],[-76.12784900047295,43.05806500031843],[-76.13346299984985,43.05776700031988],[-76.14203900040262,43.05331000037027],[-76.14208899965361,43.05223899972217],[-76.14558900010952,43.052274999836655],[-76.14597199962367,43.053589000122045],[-76.14454799980417,43.05428800011971],[-76.14521699969177,43.055110999692424],[-76.13935900023179,43.057986000278284],[-76.14003099941999,43.05871700010414],[-76.13277700005887,43.062314999971115],[-76.13134700040304,43.06075899992591],[-76.13053000001945,43.061161999711636]]]}},{"id":"746","type":"Feature","properties":{"GISJOIN":"G36006700017","pct_black":0.02},"geometry":{"type":"Polygon","coordinates":[[[-76.11322200008239,43.058734999843374],[-76.11404365619406,43.058709073346044],[-76.11402565238066,43.05797856868167],[-76.11504310870463,43.05753837224718],[-76.11949303479838,43.05680522848919],[-76.11947800009129,43.05640500010287],[-76.12206999961471,43.05633999993502],[-76.12219300026761,43.05823099978748],[-76.12779900013896,43.058011000118974],[-76.13053000001945,43.061161999711636],[-76.11615000014874,43.06820499969382],[-76.11410400021477,43.06847400033493],[-76.11322200008239,43.058734999843374]]]}},{"id":"747","type":"Feature","properties":{"GISJOIN":"G36006700018","pct_black":0.13},"geometry":{"type":"Polygon","coordinates":[[[-76.10637700038627,43.06884099993823],[-76.10538499972711,43.058236000026184],[-76.11303400039816,43.05668099975417],[-76.11410400021477,43.06847400033493],[-76.10637700038627,43.06884099993823]]]}},{"id":"748","type":"Feature","properties":{"GISJOIN":"G36006700019","pct_black":0.0},"geometry":{"type":"Polygon","coordinates":[[[-76.09060699996324,43.068062999681565],[-76.0876279999955,43.06346600010627],[-76.09476299976924,43.06224800000724],[-76.1057250004981,43.06183400006462],[-76.10637700038627,43.06884099993823],[-76.09401299985491,43.06942500033059],[-76.09395500052263,43.06796200025392],[-76.09060699996324,43.068062999681565]]]}},{"id":"749","type":"Feature","properties":{"GISJOIN":"G36006700020","pct_black":0.14},"geometry":{"type":"Polygon","coordinates":[[[-76.18192199962245,43.058013999513065],[-76.18537700000073,43.05534300037167],[-76.182209000093,43.05211199972772],[-76.18782600064432,43.05244399975164],[-76.18772199977623,43.05346100010309],[-76.18859300045756,43.054688000258615],[-76.19714958925832,43.05157970176866],[-76.19792799970547,43.052627999626445],[-76.19962999991155,43.052252999965276],[-76.20001199967771,43.05286699952199],[-76.20061599996858,43.05989700000191],[-76.19980999977986,43.059677999853655],[-76.20003999949161,43.060427999949106],[-76.19730099991021,43.059630000047974],[-76.19940700040553,43.0625299999032],[-76.19941399942347,43.063671000255255],[-76.1923779999317,43.06139499954025],[-76.18877299937284,43.061046000337036],[-76.18192199962245,43.058013999513065]]]}},{"id":"750","type":"Feature","properties":{"GISJOIN":"G36006700021","pct_black":0.0},"geometry":{"type":"Polygon","coordinates":[[[-76.17042899952109,43.05585299961911],[-76.17082400044993,43.04810700029145],[-76.1765020003979,43.0483990000191],[-76.18192599955538,43.051867999675714],[-76.18537700000073,43.05534300037167],[-76.18192199962245,43.058013999513065],[-76.17679599967927,43.05616900007667],[-76.17042899952109,43.05585299961911]]]}},{"id":"751","type":"Feature","properties":{"GISJOIN":"G36006700022","pct_black":0.63},"geometry":{"type":"Polygon","coordinates":[[[-76.15766999971414,43.05070399990024],[-76.16782600031013,43.04833199974978],[-76.17082400044993,43.04810700029145],[-76.17042899952109,43.05585299961911],[-76.15658499985243,43.05468299955734],[-76.15648900020858,43.05385199964772],[-76.15812699962585,43.05222800032636],[-76.15766999971414,43.05070399990024]]]}},{"id":"752","type":"Feature","properties":{"GISJOIN":"G36006700023","pct_black":0.77},"geometry":{"type":"Polygon","coordinates":[[[-76.14150100004753,43.05692799963791],[-76.14521699969177,43.055110999692424],[-76.14454799980417,43.05428800011971],[-76.14597199962367,43.053589000122045],[-76.14558900010952,43.052274999836655],[-76.14208899965361,43.05223899972217],[-76.14211399963982,43.05080700017301],[-76.14932599935509,43.0509120001545],[-76.15357600051539,43.05636099970968],[-76.15255599971438,43.0574619996394],[-76.14694799960483,43.059871000001216],[-76.14150100004753,43.05692799963791]]]}},{"id":"753","type":"Feature","properties":{"GISJOIN":"G36006700024","pct_black":3.85},"geometry":{"type":"Polygon","coordinates":[[[-76.1305970003701,43.050612999610465],[-76.14211399963982,43.05080700017301],[-76.14203900040262,43.05331000037027],[-76.13346299984985,43.05776700031988],[-76.13053200023359,43.05788100016466],[-76.13008099971888,43.05206000039829],[-76.1305970003701,43.050612999610465]]]}},{"id":"754","type":"Feature","properties":{"GISJOIN":"G36006700025","pct_black":1.12},"geometry":{"type":"Polygon","coordinates":[[[-76.11183006878164,43.05690611892753],[-76.11167117351171,43.05245305097849],[-76.11343899959246,43.05181700014434],[-76.1223980003616,43.04942200006273],[-76.12790803201875,43.05065552511504],[-76.1305970003701,43.050612999610465],[-76.13008099971888,43.05206000039829],[-76.13053200023359,43.05788100016466],[-76.12219300026761,43.05823099978748],[-76.12206999961471,43.05633999993502],[-76.11947800009129,43.05640500010287],[-76.11949303479838,43.05680522848919],[-76.11502792602583,43.05754248409095],[-76.11402565238066,43.05797856868167],[-76.11404365619406,43.058709073346044],[-76.11322200008239,43.058734999843374],[-76.11303400039816,43.05668099975417],[-76.11183006878164,43.05690611892753]]]}},{"id":"755","type":"Feature","properties":{"GISJOIN":"G36006700026","pct_black":0.0},"geometry":{"type":"Polygon","coordinates":[[[-76.0842379996246,43.05928599988511],[-76.08327099946297,43.05566599974371],[-76.09353300044489,43.05504500045543],[-76.10868899972131,43.05323500037401],[-76.11167117351171,43.05245305097849],[-76.11183006878164,43.05690611892753],[-76.10538499972711,43.058236000026184],[-76.1057250004981,43.06183400006462],[-76.09476299976924,43.06224800000724],[-76.08767999974192,43.06373900019869],[-76.0842379996246,43.05928599988511]]]}},{"id":"756","type":"Feature","properties":{"GISJOIN":"G36006700027","pct_black":0.53},"geometry":{"type":"Polygon","coordinates":[[[-76.18648200057184,43.05236200001831],[-76.18422400022736,43.04859699966886],[-76.19238100021556,43.045497000101676],[-76.19323899955069,43.04670899954592],[-76.19424800021608,43.04656600114446],[-76.19541500050035,43.04834399970269],[-76.19599199997656,43.048294000295975],[-76.1955630001681,43.04940900007266],[-76.19714958925832,43.05157970176866],[-76.18859300045756,43.054688000258615],[-76.18772199977623,43.05346100010309],[-76.18782600064432,43.05244399975164],[-76.18648200057184,43.05236200001831]]]}},{"id":"757","type":"Feature","properties":{"GISJOIN":"G36006700028","pct_black":0.0},"geometry":{"type":"Polygon","coordinates":[[[-76.1798919996623,43.04553999989935],[-76.18065099950196,43.044694000016946],[-76.18735200014817,43.0421539999842],[-76.18793499997142,43.042726999658136],[-76.19649100051018,43.04182299992055],[-76.20398900031074,43.04156600003427],[-76.20447399956709,43.0449979999619],[-76.20414900034324,43.04703499972193],[-76.20052399996479,43.047190999898],[-76.20085799973572,43.045583999591635],[-76.19955799978912,43.04442500014556],[-76.199118999715,43.04180400007643],[-76.19223499952726,43.04241599996717],[-76.19484799966867,43.0462660003358],[-76.19424800021608,43.04656600114446],[-76.19323899955069,43.04670899954592],[-76.19238100021556,43.045497000101676],[-76.18422400022736,43.04859699966886],[-76.18337000004718,43.047381000319746],[-76.18164600014268,43.04803099980216],[-76.1798919996623,43.04553999989935]]]}},{"id":"758","type":"Feature","properties":{"GISJOIN":"G36006700029","pct_black":0.0},"geometry":{"type":"Polygon","coordinates":[[[-76.17082400044993,43.04810700029145],[-76.17128299966875,43.042828999674235],[-76.17426299967974,43.042645999679074],[-76.17743699948186,43.04591799993279],[-76.1798919996623,43.04553999989935],[-76.18164600014268,43.04803099980216],[-76.18337000004718,43.047381000319746],[-76.18648200057184,43.05236200001831],[-76.182209000093,43.05211199972772],[-76.17600999960317,43.04820700032185],[-76.17082400044993,43.04810700029145]]]}},{"id":"759","type":"Feature","properties":{"GISJOIN":"G36006700030","pct_black":5.49},"geometry":{"type":"Polygon","coordinates":[[[-76.15392000002845,43.043649999784385],[-76.17128299966875,43.042828999674235],[-76.17082400044993,43.04810700029145],[-76.16782600031013,43.04833199974978],[-76.15766999971414,43.05070399990024],[-76.15679100031846,43.047667000241],[-76.15711900040456,43.04606699989398],[-76.15466800012622,43.044727000081544],[-76.15392000002845,43.043649999784385]]]}},{"id":"760","type":"Feature","properties":{"GISJOIN":"G36006700031","pct_black":3.3},"geometry":{"type":"Polygon","coordinates":[[[-76.14932599935509,43.0509120001545],[-76.14927300006198,43.04702699986624],[-76.14871999968733,43.04701900011537],[-76.148866999835,43.04275100000101],[-76.15417400027677,43.04247400028099],[-76.15418499990967,43.04419400008561],[-76.15711900040456,43.04606699989398],[-76.15679100031846,43.047667000241],[-76.15808600005157,43.0523279996992],[-76.15648900020858,43.05385199964772],[-76.15658499985243,43.05468299955734],[-76.15237899975259,43.05455200026475],[-76.14932599935509,43.0509120001545]]]}},{"id":"761","type":"Feature","properties":{"GISJOIN":"G36006700032","pct_black":73.19},"geometry":{"type":"Polygon","coordinates":[[[-76.14226999953813,43.042705999882344],[-76.148866999835,43.04275100000101],[-76.14871999968733,43.04701900011537],[-76.14927300006198,43.04702699986624],[-76.14932599935509,43.0509120001545],[-76.14211399963982,43.05080700017301],[-76.14226999953813,43.042705999882344]]]}},{"id":"762","type":"Feature","properties":{"GISJOIN":"G36006700033","pct_black":56.96},"geometry":{"type":"Polygon","coordinates":[[[-76.13441600045172,43.042641999983104],[-76.14226999953813,43.042705999882344],[-76.14211399963982,43.05080700017301],[-76.1342359994428,43.050670999957056],[-76.13441600045172,43.042641999983104]]]}},{"id":"763","type":"Feature","properties":{"GISJOIN":"G36006700034","pct_black":24.45},"geometry":{"type":"Polygon","coordinates":[[[-76.12562599997966,43.049902999619526],[-76.12543700007512,43.04535199991956],[-76.12901200004988,43.045291999853085],[-76.12874600029983,43.04261000022516],[-76.13441600045172,43.042641999983104],[-76.1342359994428,43.050670999957056],[-76.12790803201875,43.05065552511504],[-76.12562599997966,43.049902999619526]]]}},{"id":"764","type":"Feature","properties":{"GISJOIN":"G36006700035","pct_black":6.05},"geometry":{"type":"Polygon","coordinates":[[[-76.11369400026666,43.04819200034399],[-76.11307472242608,43.04172409362023],[-76.12113999978025,43.04179799975968],[-76.12542499980472,43.045301000116645],[-76.12562599997966,43.049902999619526],[-76.12201300029403,43.04945999992169],[-76.11509600032161,43.051337999717504],[-76.11475300039992,43.04820899968768],[-76.11369400026666,43.04819200034399]]]}},{"id":"765","type":"Feature","properties":{"GISJOIN":"G36006700036","pct_black":3.83},"geometry":{"type":"Polygon","coordinates":[[[-76.0832009994594,43.055519999973264],[-76.08261400031394,43.05478100044973],[-76.08959100038187,43.05479000034849],[-76.0898230001965,43.05125899994663],[-76.09058699984934,43.05121300018856],[-76.09413499989118,43.04771700031506],[-76.11234800036624,43.044875000268334],[-76.1133990006268,43.04506800000685],[-76.11369400026666,43.04819200034399],[-76.11475300039992,43.04820899968768],[-76.11509600032161,43.051337999717504],[-76.1097419996567,43.053082999847426],[-76.0926310002453,43.05514000025476],[-76.0832009994594,43.055519999973264]]]}},{"id":"766","type":"Feature","properties":{"GISJOIN":"G36006700037","pct_black":12.33},"geometry":{"type":"Polygon","coordinates":[[[-76.17743699948186,43.04591799993279],[-76.1739310003516,43.04179499996778],[-76.1746370002691,43.040412000162085],[-76.17395499958748,43.03961399990519],[-76.18276699984992,43.03818699955125],[-76.18683299981987,43.03652900042081],[-76.18922300028973,43.036386000082864],[-76.1890280003044,43.037427000375835],[-76.1880329995063,43.03742799967434],[-76.18968999970137,43.04259600018533],[-76.18793499997142,43.042726999658136],[-76.18735200014817,43.0421539999842],[-76.18065099950196,43.044694000016946],[-76.17977700030461,43.045585000455304],[-76.17743699948186,43.04591799993279]]]}},{"id":"767","type":"Feature","properties":{"GISJOIN":"G36006700038","pct_black":0.09},"geometry":{"type":"Polygon","coordinates":[[[-76.17128299966875,43.042828999674235],[-76.17520999960068,43.03283600039457],[-76.18684599970413,43.032048999553325],[-76.1881199999531,43.03642600013318],[-76.18276699984992,43.03818699955125],[-76.17385999983682,43.03965800011488],[-76.1746370002691,43.040412000162085],[-76.1739310003516,43.04179499996778],[-76.17402299960932,43.04295800019671],[-76.17128299966875,43.042828999674235]]]}},{"id":"768","type":"Feature","properties":{"GISJOIN":"G36006700039","pct_black":1.49},"geometry":{"type":"Polygon","coordinates":[[[-76.1551539997545,43.038472000075934],[-76.15466000039127,43.036379000354735],[-76.1643389998336,43.035444999662126],[-76.16477599993995,43.03321500021714],[-76.17520999960068,43.03283600039457],[-76.17239599956463,43.040011999785406],[-76.161311999379,43.04080300010946],[-76.15918499970432,43.0392600002729],[-76.15818499963021,43.03998000036655],[-76.15605299966549,43.03833299988085],[-76.1551539997545,43.038472000075934]]]}},{"id":"769","type":"Feature","properties":{"GISJOIN":"G36006700040","pct_black":0.74},"geometry":{"type":"Polygon","coordinates":[[[-76.15392000002845,43.043649999784385],[-76.15547100062005,43.04037099968553],[-76.1551539997545,43.038472000075934],[-76.15605299966549,43.03833299988085],[-76.15818499963021,43.03998000036655],[-76.15918499970432,43.0392600002729],[-76.161311999379,43.04080300010946],[-76.17239599956463,43.040011999785406],[-76.17128299966875,43.042828999674235],[-76.15392000002845,43.043649999784385]]]}},{"id":"770","type":"Feature","properties":{"GISJOIN":"G36006700041","pct_black":17.37},"geometry":{"type":"Polygon","coordinates":[[[-76.14849400023886,43.035440000201625],[-76.15149703710533,43.03485239711124],[-76.15382799995146,43.031416000092406],[-76.15477199986515,43.03308400032664],[-76.15466299959857,43.036620999616105],[-76.1554859999968,43.040194000109274],[-76.15417400027677,43.04247400028099],[-76.148866999835,43.04275100000101],[-76.14849400023886,43.035440000201625]]]}},{"id":"771","type":"Feature","properties":{"GISJOIN":"G36006700042","pct_black":60.95},"geometry":{"type":"Polygon","coordinates":[[[-76.14187200047807,43.035861999969164],[-76.14849400023886,43.035440000201625],[-76.148866999835,43.04275100000101],[-76.13908953214757,43.042676225095526],[-76.14106636409888,43.03961910940026],[-76.14187200047807,43.035861999969164]]]}},{"id":"772","type":"Feature","properties":{"GISJOIN":"G36006700043","pct_black":3.08},"geometry":{"type":"Polygon","coordinates":[[[-76.1316030004958,43.03936400018915],[-76.13135662410187,43.033658409432135],[-76.14220199998495,43.03346000041027],[-76.14106636409888,43.03961910940026],[-76.13908953214757,43.042676225095526],[-76.13441600045172,43.042641999983104],[-76.13449800029257,43.03939800018024],[-76.1316030004958,43.03936400018915]]]}},{"id":"773","type":"Feature","properties":{"GISJOIN":"G36006700044","pct_black":0.71},"geometry":{"type":"Polygon","coordinates":[[[-76.12543700007512,43.04535199991956],[-76.12290499932264,43.04316000024916],[-76.12418500046456,43.042308000172596],[-76.12284499937459,43.0407660002597],[-76.12211599986894,43.03882499995507],[-76.12458900061509,43.038788999847384],[-76.12454099985922,43.038293999919695],[-76.12332000029613,43.03834900041446],[-76.12255999966219,43.0302060002438],[-76.12922199996359,43.02999900014125],[-76.12979699964035,43.0362779997719],[-76.13134399981521,43.03631600004167],[-76.1316030004958,43.03936400018915],[-76.13449800029257,43.03939800018024],[-76.13441600045172,43.042641999983104],[-76.12874600029983,43.04261000022516],[-76.12901200004988,43.045291999853085],[-76.12543700007512,43.04535199991956]]]}},{"id":"774","type":"Feature","properties":{"GISJOIN":"G36006700045","pct_black":0.42},"geometry":{"type":"Polygon","coordinates":[[[-76.1116810005866,43.03072499973903],[-76.12255999966219,43.0302060002438],[-76.12332000029613,43.03834900041446],[-76.12454099985922,43.038293999919695],[-76.12458900061509,43.038788999847384],[-76.12211599986894,43.03882499995507],[-76.12284499937459,43.0407660002597],[-76.12418500046456,43.042308000172596],[-76.12290499932264,43.04316000024916],[-76.12113999978025,43.04179799975968],[-76.11938600004764,43.04196599995723],[-76.11934400057947,43.04150099995167],[-76.11307472242608,43.04172409362023],[-76.11248499946171,43.03273200018882],[-76.111601999695,43.03275199963728],[-76.1116810005866,43.03072499973903]]]}},{"id":"775","type":"Feature","properties":{"GISJOIN":"G36006700046","pct_black":0.11},"geometry":{"type":"Polygon","coordinates":[[[-76.1063469997345,43.03291399967734],[-76.10792199987672,43.03214700004729],[-76.10774599994187,43.02957700022136],[-76.11157900022604,43.02934400000889],[-76.111601999695,43.03275199963728],[-76.11248499946171,43.03273200018882],[-76.1133990006268,43.04506800000685],[-76.10715900023601,43.04566100035322],[-76.10730199999207,43.043155999567624],[-76.10854299986042,43.043533999876445],[-76.10933399998999,43.04231600010508],[-76.10795100053043,43.0419059996674],[-76.10751499977323,43.039879999661416],[-76.10812100044494,43.039251999849505],[-76.10745499985508,43.03846400028068],[-76.1063469997345,43.03291399967734]]]}},{"id":"776","type":"Feature","properties":{"GISJOIN":"G36006700047","pct_black":0.95},"geometry":{"type":"Polygon","coordinates":[[[-76.1063469997345,43.03291399967734],[-76.10745499985508,43.03846400028068],[-76.10812100044494,43.039251999849505],[-76.10751499977323,43.039879999661416],[-76.10795100053043,43.0419059996674],[-76.10933399998999,43.04231600010508],[-76.10854299986042,43.043533999876445],[-76.10730199999207,43.043155999567624],[-76.10715900023601,43.04566100035322],[-76.09413499989118,43.04771700031506],[-76.09058699984934,43.05121300018856],[-76.0898230001965,43.05125899994663],[-76.09272199955427,43.04825700025456],[-76.08960899993664,43.0481499996952],[-76.08558899961497,43.046638999882454],[-76.08211300001868,43.04444899998169],[-76.0819519996233,43.04149199981881],[-76.07966200001994,43.0398670002198],[-76.07692899987741,43.038861999912854],[-76.07496000033355,43.04154899982002],[-76.07434899929801,43.04144800024899],[-76.07408399973677,43.03649700037691],[-76.07743000028455,43.037676999841814],[-76.07817300000241,43.036573000425854],[-76.08215099963712,43.03606599949264],[-76.0836170005569,43.037064000225726],[-76.08360500018432,43.037561999636],[-76.09334500036688,43.03724699990192],[-76.09294799984663,43.03294799989085],[-76.09563699953904,43.03293199952606],[-76.09665699953281,43.0319990000789],[-76.09892899938357,43.03322700000784],[-76.1063469997345,43.03291399967734]]]}},{"id":"777","type":"Feature","properties":{"GISJOIN":"G36006700048","pct_black":0.0},"geometry":{"type":"Polygon","coordinates":[[[-76.18301100023153,43.0325579999232],[-76.1824430003461,43.02491599982827],[-76.18296299999403,43.0244499997872],[-76.18525099960905,43.02522799990141],[-76.18530500001708,43.025876999734145],[-76.19391499971769,43.02538500037994],[-76.19456799992375,43.02245999989304],[-76.19993300061893,43.02264199970719],[-76.20115999984604,43.02363499957015],[-76.20314700012315,43.022470999691734],[-76.20357800051745,43.02413500026293],[-76.20331599984522,43.0267390004079],[-76.19962900012236,43.02736699990925],[-76.1995559999981,43.02816399999902],[-76.19674000026957,43.02839300006329],[-76.19654800039092,43.02706600036088],[-76.19544999999337,43.02694799983523],[-76.19535899960242,43.03163999962018],[-76.19268799954448,43.032675999483494],[-76.18793700001719,43.03256100015257],[-76.18953399979554,43.03591300034842],[-76.18922300028973,43.036386000082864],[-76.1881199999531,43.03642600013318],[-76.18684599970413,43.032048999553325],[-76.18301100023153,43.0325579999232]]]}},{"id":"778","type":"Feature","properties":{"GISJOIN":"G36006700049","pct_black":0.0},"geometry":{"type":"Polygon","coordinates":[[[-76.17469900008359,43.02336500035228],[-76.17390516685415,43.0188249116581],[-76.1774099999049,43.0187200002511],[-76.18065200042834,43.0221290004618],[-76.1806299997883,43.02379200038702],[-76.18221399997091,43.023666000241796],[-76.18200599942104,43.02415499992655],[-76.18296299999403,43.0244499997872],[-76.1824430003461,43.02491599982827],[-76.18301100023153,43.0325579999232],[-76.17520999960068,43.03283600039457],[-76.17469900008359,43.02336500035228]]]}},{"id":"779","type":"Feature","properties":{"GISJOIN":"G36006700050","pct_black":0.05},"geometry":{"type":"Polygon","coordinates":[[[-76.16409600054921,43.02943100001566],[-76.16233799970884,43.0265719999029],[-76.16411994535513,43.026558906160176],[-76.16418448576216,43.02538617671973],[-76.16514900001418,43.0253710000152],[-76.1647729993722,43.02382300011507],[-76.16572799989387,43.02357000031455],[-76.16544600019824,43.01986500040675],[-76.1739210002968,43.01941399996483],[-76.17469900008359,43.02336500035228],[-76.17520999960068,43.03283600039457],[-76.16477599993995,43.03321500021714],[-76.16409600054921,43.02943100001566]]]}},{"id":"780","type":"Feature","properties":{"GISJOIN":"G36006700051","pct_black":0.0},"geometry":{"type":"Polygon","coordinates":[[[-76.16041200024793,43.02813900017515],[-76.15729199979,43.026994000419755],[-76.15479199964749,43.02443100020977],[-76.15521700000399,43.02185600029881],[-76.1542790004846,43.01932799969254],[-76.16066400036766,43.01925100031382],[-76.16128100046464,43.018486000384584],[-76.16297400018388,43.01965800018902],[-76.16544600019824,43.01986500040675],[-76.16572799989387,43.02357000031455],[-76.1647729993722,43.02382300011507],[-76.16514900001418,43.0253710000152],[-76.16418448576216,43.02538617671973],[-76.16411994535513,43.026558906160176],[-76.16233799970884,43.0265719999029],[-76.16409600054921,43.02943100001566],[-76.16089999994684,43.029670000312144],[-76.1619079993886,43.02804399999171],[-76.16041200024793,43.02813900017515]]]}},{"id":"781","type":"Feature","properties":{"GISJOIN":"G36006700052","pct_black":1.38},"geometry":{"type":"Polygon","coordinates":[[[-76.15477199986515,43.03308400032664],[-76.15283700048569,43.029345999985196],[-76.15807199990728,43.02801300033499],[-76.15829799965677,43.02736600005432],[-76.16041200024793,43.02813900017515],[-76.16176500045086,43.027959999870454],[-76.162018999787,43.028410000075176],[-76.16089999994684,43.029670000312144],[-76.16409600054921,43.02943100001566],[-76.16449599962988,43.030251999488186],[-76.16478700059926,43.03347699963581],[-76.1643389998336,43.035444999662126],[-76.15466000039127,43.036379000354735],[-76.15477199986515,43.03308400032664]]]}},{"id":"782","type":"Feature","properties":{"GISJOIN":"G36006700053","pct_black":7.46},"geometry":{"type":"Polygon","coordinates":[[[-76.14220199998495,43.03346000041027],[-76.14077551224673,43.02960357085944],[-76.1423870003475,43.02967500027795],[-76.14213299976313,43.02833999971478],[-76.14644600047647,43.02799300014995],[-76.14680100054372,43.02874399962678],[-76.15205899987534,43.027396999537594],[-76.15382799995146,43.031416000092406],[-76.15149703710533,43.03485239711124],[-76.14940253958214,43.034993343178336],[-76.14945600042098,43.035401999994605],[-76.14187200047807,43.035861999969164],[-76.14220199998495,43.03346000041027]]]}},{"id":"783","type":"Feature","properties":{"GISJOIN":"G36006700054","pct_black":2.49},"geometry":{"type":"Polygon","coordinates":[[[-76.13987699967873,43.01978999969118],[-76.14306299936737,43.020678000161],[-76.14927799981784,43.02001700032459],[-76.15205899987534,43.027396999537594],[-76.14680100054372,43.02874399962678],[-76.14644600047647,43.02799300014995],[-76.14213299976313,43.02833999971478],[-76.1423870003475,43.02967500027795],[-76.14077551224673,43.02960357085944],[-76.13962099932775,43.02622300015359],[-76.13987699967873,43.01978999969118]]]}},{"id":"784","type":"Feature","properties":{"GISJOIN":"G36006700055","pct_black":0.26},"geometry":{"type":"Polygon","coordinates":[[[-76.12979699964035,43.0362779997719],[-76.12790200056907,43.01563699989425],[-76.12445800021507,43.011394999716956],[-76.12271899986848,43.01014899974095],[-76.12421799941927,43.00821400022271],[-76.13392300018022,43.010226000040056],[-76.13702199963336,43.012369999665594],[-76.13982800067915,43.01957399978463],[-76.13969000020073,43.02669899999485],[-76.14220199998495,43.03346000041027],[-76.13135662410187,43.033658409432135],[-76.13129100045958,43.03625800045367],[-76.12979699964035,43.0362779997719]]]}},{"id":"785","type":"Feature","properties":{"GISJOIN":"G36006700056","pct_black":0.95},"geometry":{"type":"Polygon","coordinates":[[[-76.1116810005866,43.03072499973903],[-76.11056800013091,43.02095400029598],[-76.11078499969753,43.01445200006524],[-76.12427699978451,43.01402999994171],[-76.12476900036378,43.012983000005526],[-76.12231000039999,43.01072700050718],[-76.12271899986848,43.01014899974095],[-76.12445800021507,43.011394999716956],[-76.12790200056907,43.01563699989425],[-76.12922199996359,43.02999900014125],[-76.1116810005866,43.03072499973903]]]}},{"id":"786","type":"Feature","properties":{"GISJOIN":"G36006700057","pct_black":0.15},"geometry":{"type":"Polygon","coordinates":[[[-76.15701700004193,43.015369000227366],[-76.14995799989902,43.01044000022082],[-76.155454000435,43.01114000007901],[-76.160440000227,43.01068300038996],[-76.16059299937733,43.01196900016677],[-76.16134599973391,43.010865999773536],[-76.16585299940743,43.011096000245054],[-76.16625500032214,43.00990800040961],[-76.16735699959844,43.00971499974816],[-76.1676599993825,43.01163300004417],[-76.17061699996728,43.009748000245764],[-76.17115906229593,43.01883444524473],[-76.17390516685415,43.0188249116581],[-76.1739210002968,43.01941399996483],[-76.16544600019824,43.01986500040675],[-76.16297400018388,43.01965800018902],[-76.16128100046464,43.018486000384584],[-76.16066400036766,43.01925100031382],[-76.1542790004846,43.01932799969254],[-76.15445499983728,43.018237000376054],[-76.15696899992672,43.01678699959033],[-76.15701700004193,43.015369000227366]]]}},{"id":"787","type":"Feature","properties":{"GISJOIN":"G36006700058","pct_black":0.13},"geometry":{"type":"Polygon","coordinates":[[[-76.15283700048569,43.029345999985196],[-76.14828599954245,43.017367999703694],[-76.14788400018261,43.01290899957744],[-76.15353900049055,43.012604000212775],[-76.15698599957072,43.01521599968173],[-76.15696899992672,43.01678699959033],[-76.15410200051373,43.01882699996751],[-76.15521700000399,43.02185600029881],[-76.15479199964749,43.02443100020977],[-76.15729199979,43.026994000419755],[-76.15829799965677,43.02736600005432],[-76.15807199990728,43.02801300033499],[-76.15283700048569,43.029345999985196]]]}},{"id":"788","type":"Feature","properties":{"GISJOIN":"G36006700059","pct_black":0.1},"geometry":{"type":"Polygon","coordinates":[[[-76.13987699967873,43.01978999969118],[-76.13767741048213,43.01356996736297],[-76.14789999952238,43.013069999894725],[-76.14828599954245,43.017367999703694],[-76.14927799981784,43.02001700032459],[-76.14306299936737,43.020678000161],[-76.13987699967873,43.01978999969118]]]}},{"id":"789","type":"Feature","properties":{"GISJOIN":"G36006700060","pct_black":0.08},"geometry":{"type":"Polygon","coordinates":[[[-76.15001100007615,42.98470999955816],[-76.16274700030478,42.98436599981178],[-76.16577700012546,43.00552499959777],[-76.16008000057614,43.00365300017479],[-76.16134599973391,43.010865999773536],[-76.16093400072349,43.01188299965414],[-76.160440000227,43.01068300038996],[-76.155454000435,43.01114000007901],[-76.15065299948752,43.010358999646044],[-76.14995799989902,43.01044000022082],[-76.15353900049055,43.012604000212775],[-76.14788400018261,43.01290899957744],[-76.14687899952838,43.00121599973474],[-76.14857099966342,43.001442999577826],[-76.14750999969739,42.99820399957874],[-76.14833399951391,42.99339000011839],[-76.14802499978965,42.98990199962083],[-76.15001100007615,42.98470999955816]]]}},{"id":"790","type":"Feature","properties":{"GISJOIN":"G36006700061","pct_black":0.16},"geometry":{"type":"Polygon","coordinates":[[[-76.12421799941927,43.00821400022271],[-76.1267339999309,43.004197000337676],[-76.12512799956079,42.987968999999005],[-76.13533099998837,42.98756400014138],[-76.135243999511,42.98466600016109],[-76.14209699947627,42.9845950000396],[-76.14224700042857,42.98510499991354],[-76.14359000027834,42.985139000217835],[-76.15001100007615,42.98470999955816],[-76.14802499978965,42.98990199962083],[-76.14833399951391,42.99339000011839],[-76.14750999969739,42.99820399957874],[-76.14857099966342,43.001442999577826],[-76.14687899952838,43.00121599973474],[-76.14789999952238,43.013069999894725],[-76.13767741048213,43.01356996736297],[-76.13637100033759,43.01168000046348],[-76.13392300018022,43.010226000040056],[-76.12421799941927,43.00821400022271]]]}},{"id":"791","type":"Feature","properties":{"GISJOIN":"G3600670C0062","pct_black":0.0},"geometry":{"type":"Polygon","coordinates":[[[-76.1278429999871,43.123359999768375],[-76.1421390004834,43.122335999849085],[-76.14191599992436,43.12270200023902],[-76.14322099940627,43.12264100027735],[-76.14374600002796,43.128567000325795],[-76.14787999938638,43.12843400023151],[-76.14813600023365,43.12904899965811],[-76.14837699948464,43.13210000025817],[-76.14631399969318,43.13237100032224],[-76.14660200003776,43.13555600038605],[-76.14824500061533,43.13549299986315],[-76.14874099982693,43.13870899981641],[-76.14236600004017,43.13912800035464],[-76.1424550002656,43.14053100044002],[-76.1364080004272,43.140379000355274],[-76.13646099943338,43.14117100012597],[-76.12924500021829,43.1419669997536],[-76.12957599972017,43.14489099986896],[-76.12095699999534,43.14489200011798],[-76.12121300047254,43.14339700010565],[-76.11485900056489,43.14382099975552],[-76.11481599950832,43.14044799959417],[-76.11175099970782,43.140375000213325],[-76.11152600000871,43.139777999879854],[-76.1118209998619,43.13575699966064],[-76.1144019995903,43.13328600010141],[-76.11979999985068,43.13296499964716],[-76.11988100012331,43.12617699997844],[-76.12616300002536,43.124698000424175],[-76.1278690005111,43.123991000085006],[-76.1278429999871,43.123359999768375]]]}},{"id":"792","type":"Feature","properties":{"GISJOIN":"G3600670C0063A","pct_black":0.16},"geometry":{"type":"Polygon","coordinates":[[[-76.15764700038187,43.24326800011176],[-76.15564099945013,43.216369999861435],[-76.14364500020346,43.216730999699976],[-76.14304500060459,43.202668999643606],[-76.13894500044793,43.20256899997974],[-76.137445999863,43.185167999781605],[-76.13562199985618,43.17492700024864],[-76.13226499957322,43.17495500016229],[-76.1320790004046,43.17418399986768],[-76.13019899986911,43.1528029995419],[-76.1319160004493,43.15094600005931],[-76.14051799975053,43.15076100016681],[-76.14191199960538,43.150166999495674],[-76.14673000033952,43.150340000191214],[-76.14762400051524,43.15164000020138],[-76.14978199997927,43.15135500045293],[-76.15631800024167,43.15303199980296],[-76.1589200001287,43.15529799959604],[-76.16303299979623,43.156043999751006],[-76.16515199946964,43.157739999932986],[-76.17043100055858,43.15849599971105],[-76.1755189995191,43.1600050002868],[-76.17782100042393,43.15957599971707],[-76.17886499996648,43.16061400025497],[-76.18086499975881,43.16063500006614],[-76.18250999954682,43.16250599955917],[-76.18397200067133,43.16303799967272],[-76.19433199980477,43.14161199961729],[-76.19638499949234,43.11512900010856],[-76.20497199987747,43.115365999730045],[-76.20724199949156,43.117499999972125],[-76.23296100005706,43.13568499984829],[-76.23399099957435,43.1358099996766],[-76.2377280004752,43.13835800027323],[-76.23893800045963,43.14334299999533],[-76.23664900057155,43.14736699963313],[-76.23692599953354,43.14958100028319],[-76.23814899954625,43.15166700026504],[-76.24495000004482,43.15916700035825],[-76.24685000022008,43.16056700026912],[-76.25175000053524,43.16266700020137],[-76.25614999936764,43.163367000279955],[-76.26484899981065,43.16726599994094],[-76.2681499998552,43.169565000060246],[-76.26922900041633,43.17236899992892],[-76.27044900060024,43.17336399977084],[-76.27655500045338,43.17590600035273],[-76.27824900050805,43.17786299986661],[-76.27715000049726,43.1814650003634],[-76.27895100022928,43.18586699971949],[-76.27645099952741,43.18916700002262],[-76.27935099981693,43.19306700020553],[-76.28255100011262,43.195367000298646],[-76.28295099961251,43.19656700025373],[-76.28102699934223,43.201091000253626],[-76.27615100019638,43.20176800000884],[-76.27135099998029,43.20396799968957],[-76.26975099971764,43.205567999748],[-76.26815099982855,43.20946799972075],[-76.2644509996222,43.213467999779844],[-76.26435099984405,43.21496800007197],[-76.2620509996927,43.218467999631905],[-76.26295100010748,43.22086799995194],[-76.2621509998525,43.22356800028466],[-76.26285099949787,43.2251679997784],[-76.2635509999446,43.22616799985284],[-76.26685099983438,43.22746799977662],[-76.26775100046504,43.2327680004156],[-76.27215099979576,43.234868000222285],[-76.27555100020383,43.23876800029955],[-76.27405100038594,43.24016800011274],[-76.27005100026227,43.23936800012217],[-76.26755100021941,43.239667999917565],[-76.26375099953674,43.236367999787994],[-76.25805099971467,43.237367999591115],[-76.25744999978866,43.2368680001749],[-76.2577500001015,43.234067999716004],[-76.25285000034536,43.22776800040536],[-76.25000100036169,43.225190999653385],[-76.24465000025923,43.21456799983955],[-76.24015000046452,43.21416799981321],[-76.23384900000848,43.212368000427176],[-76.2300490004602,43.207867999978745],[-76.22444899985764,43.204967999991474],[-76.21787300050687,43.204772000049914],[-76.21491300044077,43.20541199977776],[-76.21234899977044,43.20726799989465],[-76.21014900005363,43.20696800015921],[-76.20833600039359,43.2080359996448],[-76.21064900054104,43.21056800024362],[-76.20972900025721,43.21306000018228],[-76.2061759996787,43.216612000024924],[-76.19874799998959,43.212568000205614],[-76.19424800017624,43.21706800034219],[-76.202547999764,43.222267999620556],[-76.2047199998352,43.228980000082004],[-76.20483200049695,43.23206799986095],[-76.20393600032939,43.234756000271425],[-76.20500800027612,43.23741200046896],[-76.20665599987325,43.2382279996039],[-76.21201700004173,43.238963999775926],[-76.21339299990827,43.24002000033793],[-76.21060900063137,43.244003999685475],[-76.21206499943634,43.25055600031662],[-76.2119500002816,43.25360000018077],[-76.21298100002839,43.256092000262726],[-76.21275700032525,43.25740900010896],[-76.20895699985917,43.262917000244364],[-76.20959800029986,43.26527099964292],[-76.21189999996746,43.26713200028485],[-76.21065799992974,43.26860099985611],[-76.20501300042937,43.271115999737226],[-76.2029439998627,43.271605000313876],[-76.20159899966255,43.27120100038115],[-76.19406800005491,43.26606600004156],[-76.1894300003823,43.261671999818276],[-76.18527799955072,43.258674000360465],[-76.18210400006119,43.25762100030302],[-76.17962599986215,43.25359299984337],[-76.17353300040692,43.25099999983854],[-76.16904700010001,43.24666800026325],[-76.16134699942563,43.24356800036836],[-76.15764700038187,43.24326800011176]]]}},{"id":"793","type":"Feature","properties":{"GISJOIN":"G3600670C0063B","pct_black":0.21},"geometry":{"type":"Polygon","coordinates":[[[-76.13019899986911,43.1528029995419],[-76.13015300023945,43.14793100020455],[-76.12924500021829,43.1419669997536],[-76.13646099943338,43.14117100012597],[-76.1364080004272,43.140379000355274],[-76.1424550002656,43.14053100044002],[-76.14236600004017,43.13912800035464],[-76.14874099982693,43.13870899981641],[-76.14824500061533,43.13549299986315],[-76.14660200003776,43.13555600038605],[-76.14631399969318,43.13237100032224],[-76.14838899942909,43.13178500005096],[-76.14787999938638,43.12843400023151],[-76.14374600002796,43.128567000325795],[-76.14322099940627,43.12264100027735],[-76.14191599992436,43.12270200023902],[-76.1421390004834,43.122335999849085],[-76.1278429999871,43.123359999768375],[-76.12764500040548,43.11916700011584],[-76.14409899958709,43.118473000335996],[-76.14908999953913,43.11741700006178],[-76.15041299955776,43.1181689995362],[-76.15185799974537,43.11815500008751],[-76.16395700055153,43.1169489997082],[-76.17836099968474,43.11671699981309],[-76.19638499949234,43.11512900010856],[-76.19433199980477,43.14161199961729],[-76.18397200067133,43.16303799967272],[-76.18250999954682,43.16250599955917],[-76.18086499975881,43.16063500006614],[-76.17886499996648,43.16061400025497],[-76.17782100042393,43.15957599971707],[-76.1755189995191,43.1600050002868],[-76.17043100055858,43.15849599971105],[-76.16515199946964,43.157739999932986],[-76.16303299979623,43.156043999751006],[-76.1589200001287,43.15529799959604],[-76.15631800024167,43.15303199980296],[-76.14978199997927,43.15135500045293],[-76.14762400051524,43.15164000020138],[-76.14673000033952,43.150340000191214],[-76.14191199960538,43.150166999495674],[-76.14051799975053,43.15076100016681],[-76.1319160004493,43.15094600005931],[-76.13019899986911,43.1528029995419]]]}},{"id":"794","type":"Feature","properties":{"GISJOIN":"G3600670C0063C","pct_black":0.1},"geometry":{"type":"Polygon","coordinates":[[[-76.07201499976915,43.21473199995806],[-76.07134899991797,43.21413299981398],[-76.0694140003601,43.21469900008166],[-76.0690609996626,43.213970999753634],[-76.06945900015302,43.21348100021041],[-76.06807100025745,43.21255800020946],[-76.07176200003614,43.21359400022935],[-76.07682499947414,43.2141450003447],[-76.07778099954274,43.21348799998197],[-76.07805500041343,43.21395800046752],[-76.07977899994387,43.213559000291085],[-76.08126600030144,43.214319000225075],[-76.08396200004206,43.21408699960775],[-76.08528799992028,43.21287499976688],[-76.08489899970523,43.21108299993219],[-76.08022999963758,43.209969999951646],[-76.07967299978026,43.20913199976054],[-76.07840000022048,43.209364000488364],[-76.07689700055006,43.20844900007941],[-76.07692300026594,43.20798499977763],[-76.07758599967215,43.20779200033529],[-76.07814300003079,43.208010999986044],[-76.0771179996148,43.208300999960535],[-76.07841700042596,43.20917699960939],[-76.07951400036008,43.2088869999168],[-76.07827400011516,43.208221000064945],[-76.08075999959627,43.20861600028954],[-76.08204199994432,43.2078359998671],[-76.08245699996894,43.20684999981609],[-76.08268700021695,43.20453700016215],[-76.08186500062212,43.202256999782136],[-76.07890199986805,43.199479999881014],[-76.07438399980003,43.199204000110484],[-76.06330600022838,43.20065299986306],[-76.06018500036475,43.20058900016442],[-76.05870000019802,43.199769999876246],[-76.05790499994234,43.2007240000623],[-76.05753300060248,43.20068499963662],[-76.05802799975301,43.20003400006736],[-76.05538599935993,43.199168000302826],[-76.05534099984749,43.20009899976956],[-76.05439500021157,43.19988700026267],[-76.05348000030874,43.200477999647866],[-76.05341399958616,43.20142599999519],[-76.0519910004041,43.20073699970074],[-76.05209700014484,43.20156199960719],[-76.05341400033768,43.20182600050558],[-76.05261899977383,43.20285700025713],[-76.04766800000124,43.20261200044414],[-76.04480499949767,43.2016129998941],[-76.0349540001792,43.19550200040226],[-76.03422999939917,43.194774000225095],[-76.03425599978303,43.19364799965989],[-76.03203099999358,43.190919000361816],[-76.03043299999337,43.19051399994385],[-76.0285440000697,43.19094500021233],[-76.02365299953667,43.189946999667455],[-76.0172970000228,43.188113999871035],[-76.01181700056789,43.18557999985809],[-76.00851199961664,43.182601999938264],[-76.0090769995922,43.18223099960429],[-76.0076459995413,43.18046699964443],[-76.00521499983583,43.17935200013116],[-76.00278699955565,43.17946899997645],[-76.00257299976018,43.17883800040723],[-76.00434299981397,43.17809500000639],[-76.00256700009021,43.178486000238095],[-76.00363299947284,43.17729500001196],[-76.00574399946639,43.17777399998812],[-76.00394099933958,43.17675700012249],[-76.00302299989052,43.17686399964931],[-76.00228500051112,43.17813899968672],[-76.0025410000655,43.17962100007311],[-75.99941799985005,43.180238999583516],[-75.99537900040599,43.182586000353695],[-75.99421699961302,43.18218000008803],[-75.99326800031409,43.18342600007125],[-75.99143700057502,43.183250000007774],[-75.99076600009721,43.18091699984858],[-75.9896090001245,43.179224999845204],[-75.99235500047385,43.17522100017208],[-75.99263499962929,43.173849000201265],[-75.99002800046418,43.17152700010865],[-75.98938300061012,43.171471999733704],[-75.98844699969051,43.172616000071216],[-75.98603200004204,43.17155399982042],[-75.98308399978401,43.17370599973312],[-75.98150999961226,43.17277899979025],[-75.97947799977818,43.17069799991921],[-75.98100799990154,43.167704000271435],[-75.97809900035413,43.16760599976144],[-75.97913099985199,43.166262000313964],[-75.97866099964611,43.16509499985815],[-75.97438000021872,43.16317499961333],[-75.97462900015891,43.16191700028108],[-75.97743900011311,43.159400000451605],[-75.97706800058403,43.157645999767624],[-75.97290299964516,43.155893999878124],[-75.97123500038057,43.1546390004538],[-75.97337399952428,43.148996000366004],[-75.9727020003488,43.14547299974067],[-75.97178300057479,43.14384699986609],[-75.97726700039978,43.14047000035253],[-75.97747100048784,43.13955399970782],[-75.97677999996101,43.13790499960103],[-75.977283999718,43.13619500006459],[-75.97592399987867,43.1360280000391],[-75.97383699992197,43.137341999973536],[-75.97529900017874,43.139120000199654],[-75.9723469998219,43.14047599992224],[-75.97047199949822,43.1393410002585],[-75.96943300038595,43.13706700041369],[-75.96751999992524,43.13494700026878],[-75.96635200015038,43.13467799976007],[-75.96449500031626,43.1351680002491],[-75.96381400046606,43.13363199993984],[-75.96190200029014,43.13408199972539],[-75.9601090003674,43.13277300045437],[-75.9585920006066,43.13378599970154],[-75.9574049995678,43.13367199985441],[-75.95821500019183,43.135229999796906],[-75.95757999978044,43.136290000148705],[-75.95593299959259,43.1357459999174],[-75.95501500014812,43.13392699974003],[-75.95446499958973,43.134977000201204],[-75.95340499963346,43.13545899962794],[-75.9500939993905,43.13498100015828],[-75.95020400045672,43.134194999743855],[-75.95327700036198,43.13336300001286],[-75.9527890002681,43.1327319997683],[-75.95071899969089,43.13278599963946],[-75.95014899971251,43.13206100014342],[-75.95396700041621,43.129294999666634],[-75.95459200049642,43.12798599998735],[-75.95676299989823,43.12680400041986],[-75.9586769993587,43.1283280002906],[-75.95900800012694,43.126904999589215],[-75.958627999682,43.12539600021142],[-75.9605669999755,43.12326999990181],[-75.96015600055934,43.122968999966645],[-75.95833900018403,43.12372800024135],[-75.95700999984327,43.121973000280505],[-75.95747899968535,43.12095899974955],[-75.95932000041117,43.11959700034882],[-75.95613500018472,43.12026599957403],[-75.95594999981654,43.119514999942744],[-75.95758500054055,43.11769499995489],[-75.9573040001492,43.11737700003072],[-75.9558429997626,43.118313999986086],[-75.95440000036909,43.116857000514365],[-75.95599499988495,43.116229999620344],[-75.95602300000255,43.11514799976706],[-75.95647200042367,43.11504900004702],[-75.96064600027489,43.115535999932675],[-75.96163900035857,43.11689899962501],[-75.96351699959708,43.11756300006104],[-75.9635749997193,43.119442999504116],[-75.96469499998747,43.11981099986481],[-76.01192100047376,43.117469999932574],[-76.01255000050192,43.12304699999862],[-76.08144291528976,43.12094531603321],[-76.0819222388965,43.126203229573235],[-76.0864389999364,43.12546099972032],[-76.08687500010171,43.1265609999297],[-76.08993300042837,43.12574200042547],[-76.09200999970358,43.152522999585116],[-76.09399100056754,43.15167500008334],[-76.10366200047963,43.153872999894425],[-76.12300399963158,43.152793999640544],[-76.12308200015428,43.15187400029975],[-76.12447400040861,43.152186999697626],[-76.12567699929464,43.14954200028121],[-76.12936899968655,43.14937099994965],[-76.1298139994277,43.14892500018308],[-76.1320790004046,43.17418399986768],[-76.13226499957322,43.17495500016229],[-76.13562199985618,43.17492700024864],[-76.137445999863,43.185167999781605],[-76.13894500044793,43.20256899997974],[-76.14304500060459,43.202668999643606],[-76.14364500020346,43.216730999699976],[-76.15564099945013,43.216369999861435],[-76.15764700038187,43.24326800011176],[-76.1485259999561,43.23963599956686],[-76.13983800013882,43.24035599987212],[-76.1381419994777,43.23963699964086],[-76.13729800036053,43.23828400023828],[-76.13624000000482,43.23832799982885],[-76.13457799932951,43.23648100028036],[-76.13188099958481,43.23589399975372],[-76.13049399992457,43.23452699983057],[-76.12938100048584,43.23497399997421],[-76.12572399959895,43.233792999976686],[-76.12149599965018,43.23454799949329],[-76.11596699951811,43.23356100033364],[-76.1157450003784,43.23294800004639],[-76.11431099960122,43.23253599982819],[-76.11370000002557,43.23147099982087],[-76.10980499969173,43.22952300031664],[-76.10827400007803,43.22778199998989],[-76.10696800049341,43.22747600019957],[-76.1066630003912,43.22680199975346],[-76.10743299966782,43.22564700031976],[-76.10637999952675,43.224311999726545],[-76.10265300057094,43.22368600014403],[-76.09925400017893,43.224937000053416],[-76.0957500001168,43.22365999995037],[-76.09523599985366,43.22286700038332],[-76.08751700034452,43.21919700003336],[-76.08642500045183,43.21780099998795],[-76.08499200043323,43.21778100000448],[-76.08451400012031,43.21676900001412],[-76.0831339999452,43.21695000013262],[-76.08030299946401,43.215807999869455],[-76.07998400065722,43.21805199983689],[-76.07906399964097,43.218593000167814],[-76.0797810001539,43.216627000467604],[-76.07873699976997,43.215461000362026],[-76.07571200046802,43.214970000511954],[-76.07460600021308,43.21578900025229],[-76.07276599981995,43.21445500003328],[-76.07201499976915,43.21473199995806]]]}},{"id":"795","type":"Feature","properties":{"GISJOIN":"G3600670C0063D","pct_black":0.02},"geometry":{"type":"Polygon","coordinates":[[[-76.08144291528976,43.12094531603321],[-76.12764500040548,43.11916700011584],[-76.1278690005111,43.123991000085006],[-76.12324099977901,43.125685000326364],[-76.11988100012331,43.12617699997844],[-76.11979999985068,43.13296499964716],[-76.1144019995903,43.13328600010141],[-76.1118209998619,43.13575699966064],[-76.11151399997304,43.13969300017472],[-76.11175099970782,43.140375000213325],[-76.11481599950832,43.14044799959417],[-76.11485900056489,43.14382099975552],[-76.12121300047254,43.14339700010565],[-76.12095699999534,43.14489200011798],[-76.12957599972017,43.14489099986896],[-76.13015300023945,43.14793100020455],[-76.1298139994277,43.14892500018308],[-76.12936899968655,43.14937099994965],[-76.12567699929464,43.14954200028121],[-76.12447400040861,43.152186999697626],[-76.12308200015428,43.15187400029975],[-76.12300399963158,43.152793999640544],[-76.10366200047963,43.153872999894425],[-76.09399100056754,43.15167500008334],[-76.09200999970358,43.152522999585116],[-76.08993300042837,43.12574200042547],[-76.08687500010171,43.1265609999297],[-76.0864389999364,43.12546099972032],[-76.0819222388965,43.126203229573235],[-76.08144291528976,43.12094531603321]]]}},{"id":"796","type":"Feature","properties":{"GISJOIN":"G3600670C0064","pct_black":0.25},"geometry":{"type":"Polygon","coordinates":[[[-76.32972800000029,43.17140800031939],[-76.32831199974498,43.166648999964266],[-76.32712799962856,43.16683800008025],[-76.32661000004559,43.16562100006139],[-76.31802399944989,43.1659140001485],[-76.31786599991342,43.16293600005296],[-76.31910100025719,43.162204000487634],[-76.31854400043946,43.15994900005353],[-76.32018599985851,43.15925500033826],[-76.31905900032187,43.1577479996291],[-76.31935799979928,43.15649200037564],[-76.31735100009168,43.156202999635425],[-76.31798299981966,43.15333800038023],[-76.322996940892,43.14953337192973],[-76.32825600031526,43.150155000369416],[-76.33857100046816,43.14981799976473],[-76.3410510000055,43.14944199958077],[-76.34103700049393,43.148884000380306],[-76.34514599978814,43.14869999993681],[-76.34614199995978,43.16040799997079],[-76.34259899968998,43.16196099954814],[-76.34279999965469,43.16371499969665],[-76.34602299949927,43.16419799960904],[-76.34578799974214,43.16533699996823],[-76.34653799965845,43.165746999504805],[-76.3476420003721,43.165275000323454],[-76.34797000049025,43.17002199963489],[-76.34926199989916,43.17012600030624],[-76.34898500041056,43.17126700035432],[-76.34686799989946,43.171213999636215],[-76.3467229997769,43.17180499993417],[-76.34596699999986,43.17188000011396],[-76.34656199952553,43.17276799970334],[-76.34361900003381,43.17403999973887],[-76.34360299987952,43.17737900042591],[-76.33920839959498,43.177509841111856],[-76.33444701157306,43.176912835436134],[-76.32972800000029,43.17140800031939]],[[-76.34286100017356,43.16468399967193],[-76.33730099938057,43.16488500031305],[-76.33712700041568,43.164953000391826],[-76.34307200058863,43.16874199971244],[-76.34286100017356,43.16468399967193]]]}},{"id":"797","type":"Feature","properties":{"GISJOIN":"G3600670C0065A","pct_black":0.36},"geometry":{"type":"MultiPolygon","coordinates":[[[[-76.33712700041568,43.164953000391826],[-76.34286100017356,43.16468399967193],[-76.34307200058863,43.16874199971244],[-76.33712700041568,43.164953000391826]]],[[[-76.30083599957682,43.227075999713215],[-76.29787600014309,43.22378000013553],[-76.28901200005028,43.21850000029883],[-76.28768399941934,43.2161800002973],[-76.2878759993503,43.21267600033061],[-76.28707599973505,43.21069199977612],[-76.28246699965176,43.20593999988162],[-76.28102699934223,43.201091000253626],[-76.28295099961251,43.19656700025373],[-76.28255100011262,43.195367000298646],[-76.27935099981693,43.19306700020553],[-76.27645099952741,43.18916700002262],[-76.27895100022928,43.18586699971949],[-76.27715000049726,43.1814650003634],[-76.27824900050805,43.17786299986661],[-76.27655500045338,43.17590600035273],[-76.27044900060024,43.17336399977084],[-76.26922900041633,43.17236899992892],[-76.2681499998552,43.169565000060246],[-76.26484899981065,43.16726599994094],[-76.25614999936764,43.163367000279955],[-76.25175000053524,43.16266700020137],[-76.24685000022008,43.16056700026912],[-76.24495000004482,43.15916700035825],[-76.23814899954625,43.15166700026504],[-76.23692599953354,43.14958100028319],[-76.23664900057155,43.14736699963313],[-76.23893800045963,43.14334299999533],[-76.2377280004752,43.13835800027323],[-76.23858699940475,43.13656400023023],[-76.2460770005699,43.130936999713406],[-76.24785600049341,43.13036700013871],[-76.25154999958487,43.1306670001702],[-76.25348100019306,43.130238000315366],[-76.25434999977149,43.127766999556286],[-76.2532499999088,43.12586700020396],[-76.25125000014597,43.124167000290655],[-76.25154999958056,43.12236700033667],[-76.2539499997468,43.12086699954059],[-76.2574499992967,43.12076700033189],[-76.26082800012524,43.12359599979075],[-76.2618579993716,43.12384300034524],[-76.26544999958914,43.12316699978546],[-76.26975099944067,43.124766999848134],[-76.27235100032037,43.12506700029988],[-76.27645100058184,43.12376699974861],[-76.27875499990638,43.124195000034604],[-76.27167099943709,43.11568099984285],[-76.26987700063295,43.11234699975882],[-76.26614999930631,43.10956700031737],[-76.25975000053913,43.101465999702015],[-76.27895099980307,43.100166000121135],[-76.27875099984632,43.096066000036124],[-76.29739999936882,43.09464300024801],[-76.29683900054894,43.08902299972969],[-76.30980000041266,43.08795300006557],[-76.31381600016206,43.088143999675346],[-76.3132150001818,43.08489699966419],[-76.34929200034817,43.08136900009527],[-76.36039300001563,43.08274400035848],[-76.39689799977195,43.08105699990921],[-76.3977410004744,43.09400600040169],[-76.42085100062724,43.093018999717046],[-76.42202099959565,43.101100000188296],[-76.4229430002439,43.10109900041384],[-76.42341200006317,43.0986469998662],[-76.42443300063339,43.09783799982919],[-76.43113699991949,43.0962020003921],[-76.4359299996369,43.09659599995471],[-76.44453799977182,43.10325899976204],[-76.45092799962056,43.106318000323725],[-76.45774799997997,43.11165200034168],[-76.4718730005711,43.10705899975142],[-76.47278500045415,43.11464699975806],[-76.47612499992562,43.125065999876824],[-76.47864000032415,43.13123100027426],[-76.48346200009449,43.13780900028393],[-76.48617099978637,43.142207999589935],[-76.48630299969773,43.143222999716286],[-76.48457399950603,43.14461399976118],[-76.48122699945739,43.145885999869584],[-76.47306599951794,43.14601700006253],[-76.47922399959441,43.22751899985072],[-76.34463200054932,43.23266999987585],[-76.34458199990488,43.23152500039886],[-76.32421300060757,43.23230799964038],[-76.32149299979805,43.230499999819045],[-76.3161169997457,43.22942799975994],[-76.30754099995715,43.23078800003425],[-76.30083599957682,43.227075999713215]],[[-76.34596699999986,43.17188000011396],[-76.3467229997769,43.17180499993417],[-76.34686799989946,43.171213999636215],[-76.34898500041056,43.17126700035432],[-76.34926199989916,43.17012600030624],[-76.34797000049025,43.17002199963489],[-76.3476420003721,43.165275000323454],[-76.34653799965845,43.165746999504805],[-76.34578799974214,43.16533699996823],[-76.34602299949927,43.16419799960904],[-76.34279999965469,43.16371499969665],[-76.34259899968998,43.16196099954814],[-76.34614199995978,43.16040799997079],[-76.34514599978814,43.14869999993681],[-76.34103700049393,43.148884000380306],[-76.3410510000055,43.14944199958077],[-76.33857100046816,43.14981799976473],[-76.32825600031526,43.150155000369416],[-76.322996940892,43.14953337192973],[-76.31798299981966,43.15333800038023],[-76.31735100009168,43.156202999635425],[-76.31935799979928,43.15649200037564],[-76.31905900032187,43.1577479996291],[-76.32018599985851,43.15925500033826],[-76.31854400043946,43.15994900005353],[-76.31910100025719,43.162204000487634],[-76.31786599991342,43.16293600005296],[-76.31802399944989,43.1659140001485],[-76.32661000004559,43.16562100006139],[-76.32712799962856,43.16683800008025],[-76.32831199974498,43.166648999964266],[-76.32972800000029,43.17140800031939],[-76.33444701157306,43.176912835436134],[-76.33920839959498,43.177509841111856],[-76.34360299987952,43.17737900042591],[-76.34361900003381,43.17403999973887],[-76.34656199952553,43.17276799970334],[-76.34596699999986,43.17188000011396]]]]}},{"id":"798","type":"Feature","properties":{"GISJOIN":"G3600670C0065B","pct_black":0.19},"geometry":{"type":"Polygon","coordinates":[[[-76.37703100032378,43.081797000396534],[-76.37117400053309,43.01038500009991],[-76.49194100032035,43.00496400019284],[-76.49565800026372,43.05636700022536],[-76.49932399938028,43.09772300036265],[-76.49921899936761,43.099837000281106],[-76.4978289997908,43.10265699982031],[-76.49123199978021,43.106295000353725],[-76.48826100022838,43.10671099989872],[-76.47359399952319,43.10402899989912],[-76.47177400031366,43.104983000373196],[-76.4718730005711,43.10705899975142],[-76.45774799997997,43.11165200034168],[-76.45092799962056,43.106318000323725],[-76.44453799977182,43.10325899976204],[-76.4359299996369,43.09659599995471],[-76.43113699991949,43.0962020003921],[-76.42443300063339,43.09783799982919],[-76.42341200006317,43.0986469998662],[-76.4229430002439,43.10109900041384],[-76.42202099959565,43.101100000188296],[-76.42085100062724,43.093018999717046],[-76.3977410004744,43.09400600040169],[-76.39689799977195,43.08105699990921],[-76.37703100032378,43.081797000396534]]]}},{"id":"799","type":"Feature","properties":{"GISJOIN":"G3600670C0066A","pct_black":0.3},"geometry":{"type":"Polygon","coordinates":[[[-76.23764100010794,43.076113000006444],[-76.24641000023668,43.078143999971566],[-76.24925299985503,43.07969600033238],[-76.2523689994055,43.08039700011623],[-76.2578409995879,43.0785639999013],[-76.26124200051763,43.0791150003573],[-76.26185699976273,43.07812699966685],[-76.2652439992981,43.076535000280884],[-76.27024100040329,43.077120000443976],[-76.27079500044904,43.07665699989599],[-76.27071000016879,43.075604000103766],[-76.27189300057623,43.075528000078044],[-76.27258400010494,43.07444200011155],[-76.27294299958172,43.07287200037795],[-76.27200599951802,43.07099900034594],[-76.27434600029986,43.06879999968972],[-76.27441199970416,43.06794800008352],[-76.28062100049311,43.06406600037402],[-76.28330899990591,43.06086699967692],[-76.2879460002669,43.056916999937165],[-76.28833300026619,43.05597499973306],[-76.29239899996699,43.053327000060186],[-76.29468800033847,43.052531000206315],[-76.29484499995492,43.05075799967833],[-76.29581500068173,43.04966099978411],[-76.29483099934356,43.04867300019306],[-76.29575199981485,43.047416000150584],[-76.29767199979855,43.04787699976166],[-76.29849700006855,43.049289000258405],[-76.30108000042043,43.04835400026814],[-76.30276200041976,43.048733000170465],[-76.30371199971135,43.048159999690334],[-76.30255700027716,43.04751900001373],[-76.30245399999873,43.045794999912324],[-76.30491999974153,43.04557200025859],[-76.30440200001249,43.04453500032859],[-76.30550100030636,43.043922999822286],[-76.30514099944827,43.04270000006871],[-76.30601399946713,43.04165499995535],[-76.30709099972184,43.04249900026513],[-76.30649799947173,43.04376300004407],[-76.30961300046414,43.04375700023479],[-76.31015200059338,43.04256599999241],[-76.31365200042531,43.0426659997246],[-76.31370299993179,43.04138899973283],[-76.31564100047991,43.04080099991371],[-76.31525200047984,43.03466599989724],[-76.31685200063971,43.03336599982206],[-76.31565199938818,43.03236600010109],[-76.31375199981308,43.033665999768736],[-76.3131420001573,43.033257999691074],[-76.31326099970893,43.03256699968447],[-76.31524099965834,43.03137899969589],[-76.31568899978772,43.0301300000086],[-76.3177490000156,43.03045000045047],[-76.32070400052982,43.029364999979656],[-76.32080999983926,43.028759999768816],[-76.31991100032548,43.027721999817224],[-76.32127099937155,43.02647900033576],[-76.32279499960858,43.02760500017232],[-76.32426099967253,43.0275689995427],[-76.32463600067662,43.026715999828085],[-76.32313999975244,43.02661399955462],[-76.3238779992929,43.025576000290926],[-76.32569899997591,43.02521199979003],[-76.32684199976282,43.026246000090346],[-76.32794499988738,43.025048000037444],[-76.32989699998265,43.02544499988604],[-76.33047899975985,43.02509899977907],[-76.33036199946373,43.024148000167344],[-76.33096900019227,43.0233680002449],[-76.33395099996821,43.0242500001243],[-76.33611299940884,43.02267600034354],[-76.33704299955014,43.022675999637805],[-76.33617400050863,43.021509999918514],[-76.3403070005113,43.019672999794395],[-76.33890000004888,43.01644000004668],[-76.33727099942467,43.015465000293844],[-76.33744499977668,43.01323099998547],[-76.33542600038334,43.01206399960906],[-76.37117400053309,43.01038500009991],[-76.37703100032378,43.081797000396534],[-76.36039300001563,43.08274400035848],[-76.34929200034817,43.08136900009527],[-76.3132150001818,43.08489699966419],[-76.31381600016206,43.088143999675346],[-76.30980000041266,43.08795300006557],[-76.29683900054894,43.08902299972969],[-76.29739999936882,43.09464300024801],[-76.27875099984632,43.096066000036124],[-76.27895099980307,43.100166000121135],[-76.25975000053913,43.101465999702015],[-76.23764100010794,43.076113000006444]]]}},{"id":"800","type":"Feature","properties":{"GISJOIN":"G3600670C0066B","pct_black":0.25},"geometry":{"type":"Polygon","coordinates":[[[-76.23764100010794,43.076113000006444],[-76.23321500029905,43.071564000000556],[-76.23064699992426,43.06751399992298],[-76.23000699971313,43.05827500007496],[-76.23101200011202,43.05807300010797],[-76.23137900041219,43.05558599965282],[-76.23016300032742,43.051389000439535],[-76.2315749994503,43.05066900006352],[-76.22899000040486,43.03412899999892],[-76.2278589999571,43.030763000363905],[-76.23981900026074,43.03082299987705],[-76.29172500026313,43.02812499959168],[-76.2905650002734,43.01429499973942],[-76.3305080003988,43.01217099988706],[-76.33542600038334,43.01206399960906],[-76.33744499977668,43.01323099998547],[-76.33727099942467,43.015465000293844],[-76.33890000004888,43.01644000004668],[-76.3403070005113,43.019672999794395],[-76.33617400050863,43.021509999918514],[-76.33704299955014,43.022675999637805],[-76.33611299940884,43.02267600034354],[-76.33395099996821,43.0242500001243],[-76.33096900019227,43.0233680002449],[-76.33036199946373,43.024148000167344],[-76.33047899975985,43.02509899977907],[-76.32989699998265,43.02544499988604],[-76.32794499988738,43.025048000037444],[-76.32684199976282,43.026246000090346],[-76.32569899997591,43.02521199979003],[-76.3238779992929,43.025576000290926],[-76.32313999975244,43.02661399955462],[-76.32463600067662,43.026715999828085],[-76.32426099967253,43.0275689995427],[-76.32279499960858,43.02760500017232],[-76.32127099937155,43.02647900033576],[-76.31991100032548,43.027721999817224],[-76.32080999983926,43.028759999768816],[-76.32070400052982,43.029364999979656],[-76.3177490000156,43.03045000045047],[-76.31568899978772,43.0301300000086],[-76.31524099965834,43.03137899969589],[-76.31326099970893,43.03256699968447],[-76.3131420001573,43.033257999691074],[-76.31375199981308,43.033665999768736],[-76.31565199938818,43.03236600010109],[-76.31685200063971,43.03336599982206],[-76.31525200047984,43.03466599989724],[-76.31564100047991,43.04080099991371],[-76.31370299993179,43.04138899973283],[-76.31365200042531,43.0426659997246],[-76.31015200059338,43.04256599999241],[-76.30961300046414,43.04375700023479],[-76.30649799947173,43.04376300004407],[-76.30709099972184,43.04249900026513],[-76.30601399946713,43.04165499995535],[-76.30514099944827,43.04270000006871],[-76.30550100030636,43.043922999822286],[-76.30440200001249,43.04453500032859],[-76.30491999974153,43.04557200025859],[-76.30245399999873,43.045794999912324],[-76.30255700027716,43.04751900001373],[-76.30371199971135,43.048159999690334],[-76.30276200041976,43.048733000170465],[-76.30108000042043,43.04835400026814],[-76.29849700006855,43.049289000258405],[-76.29767199979855,43.04787699976166],[-76.29575199981485,43.047416000150584],[-76.29483099934356,43.04867300019306],[-76.29581500068173,43.04966099978411],[-76.29484499995492,43.05075799967833],[-76.29468800033847,43.052531000206315],[-76.29239899996699,43.053327000060186],[-76.28833300026619,43.05597499973306],[-76.2879460002669,43.056916999937165],[-76.28330899990591,43.06086699967692],[-76.28062100049311,43.06406600037402],[-76.27441199970416,43.06794800008352],[-76.27434600029986,43.06879999968972],[-76.27200599951802,43.07099900034594],[-76.27294299958172,43.07287200037795],[-76.27258400010494,43.07444200011155],[-76.27189300057623,43.075528000078044],[-76.27071000016879,43.075604000103766],[-76.27079500044904,43.07665699989599],[-76.27024100040329,43.077120000443976],[-76.2652439992981,43.076535000280884],[-76.26185699976273,43.07812699966685],[-76.26124200051763,43.0791150003573],[-76.2578409995879,43.0785639999013],[-76.2523689994055,43.08039700011623],[-76.24925299985503,43.07969600033238],[-76.24641000023668,43.078143999971566],[-76.23764100010794,43.076113000006444]]]}},{"id":"801","type":"Feature","properties":{"GISJOIN":"G3600670C0067","pct_black":0.0},"geometry":{"type":"Polygon","coordinates":[[[-76.19943900047703,43.06453400013601],[-76.19940700040553,43.0625299999032],[-76.19730099991021,43.059630000047974],[-76.20003999949161,43.060427999949106],[-76.19980999977986,43.059677999853655],[-76.20061599996858,43.05989700000191],[-76.20006699954705,43.053068000014946],[-76.19962999991155,43.052252999965276],[-76.19792799970547,43.052627999626445],[-76.1955630001681,43.04940900007266],[-76.19599199997656,43.048294000295975],[-76.19572700045016,43.046363000282604],[-76.19622800017694,43.045567999570196],[-76.194782000223,43.04229400033913],[-76.199118999715,43.04180400007643],[-76.19911699986429,43.04729599958837],[-76.20795200022155,43.04716699992641],[-76.20780900024445,43.05109200046372],[-76.21118699983911,43.0501060000392],[-76.21114800036602,43.047018000415605],[-76.21233000026896,43.046962000384035],[-76.21302099985793,43.05328699995849],[-76.21370999979858,43.053541000420836],[-76.21807300004672,43.05269700004737],[-76.22096900039864,43.05301799999193],[-76.22119699942259,43.05424400006752],[-76.22550600034752,43.05399799988903],[-76.22675399942177,43.0563560000776],[-76.22789699987773,43.05552800039515],[-76.23137900041219,43.05558599965282],[-76.23101200011202,43.05807300010797],[-76.23000699971313,43.05827500007496],[-76.23098999987747,43.068442999673195],[-76.21895300010223,43.06488900012826],[-76.20535399957419,43.06493999975261],[-76.20476000011779,43.06443400002118],[-76.19943900047703,43.06453400013601]]]}},{"id":"802","type":"Feature","properties":{"GISJOIN":"G3600670C0068","pct_black":0.13},"geometry":{"type":"Polygon","coordinates":[[[-76.18245399957087,43.07465099957649],[-76.19467299982593,43.06507699998088],[-76.19876499954167,43.063671000210206],[-76.19941399942347,43.063671000255255],[-76.19943900047703,43.06453400013601],[-76.20476000011779,43.06443400002118],[-76.20535399957419,43.06493999975261],[-76.21895300010223,43.06488900012826],[-76.23098999987747,43.068442999673195],[-76.23321500029905,43.071564000000556],[-76.25975000053913,43.101465999702015],[-76.26614999930631,43.10956700031737],[-76.26987700063295,43.11234699975882],[-76.27167099943709,43.11568099984285],[-76.27875499990638,43.124195000034604],[-76.27645100058184,43.12376699974861],[-76.27235100032037,43.12506700029988],[-76.26975099944067,43.124766999848134],[-76.26544999958914,43.12316699978546],[-76.2618579993716,43.12384300034524],[-76.26082800012524,43.12359599979075],[-76.2574499992967,43.12076700033189],[-76.2539499997468,43.12086699954059],[-76.25154999958056,43.12236700033667],[-76.24127199950927,43.11462400037014],[-76.18245399957087,43.07465099957649]]]}},{"id":"803","type":"Feature","properties":{"GISJOIN":"G3600670C0069","pct_black":0.05},"geometry":{"type":"MultiPolygon","coordinates":[[[[-76.19911699986429,43.04729599958837],[-76.199118999715,43.04180400007643],[-76.19955799978912,43.04442500014556],[-76.20085799973572,43.045583999591635],[-76.20052399996479,43.047190999898],[-76.19911699986429,43.04729599958837]]],[[[-76.19223499952726,43.04241599996717],[-76.19503899941128,43.042687999924865],[-76.19542199936014,43.044577000042125],[-76.19622800017694,43.045567999570196],[-76.19572700045016,43.046363000282604],[-76.19599199997656,43.048294000295975],[-76.19541500050035,43.04834399970269],[-76.19435000036934,43.04678100017123],[-76.19484799966867,43.0462660003358],[-76.19223499952726,43.04241599996717]]],[[[-76.22579399996611,43.05523500017107],[-76.22550600034752,43.05399799988903],[-76.22119699942259,43.05424400006752],[-76.22096900039864,43.05301799999193],[-76.21807300004672,43.05269700004737],[-76.21524500054278,43.05306400019092],[-76.21524400058983,43.053466000131756],[-76.21302099985793,43.05328699995849],[-76.21233000026896,43.046962000384035],[-76.21114800036602,43.047018000415605],[-76.21118699983911,43.0501060000392],[-76.20780900024445,43.05109200046372],[-76.20795200022155,43.04716699992641],[-76.20414900034324,43.04703499972193],[-76.20447399956709,43.0449979999619],[-76.20398900031074,43.04156600003427],[-76.19649100051018,43.04182299992055],[-76.18967600018694,43.042464999776705],[-76.1880329995063,43.03742799967434],[-76.1890280003044,43.037427000375835],[-76.18953399979554,43.03591300034842],[-76.18793700001719,43.03256100015257],[-76.2278589999571,43.030763000363905],[-76.22899000040486,43.03412899999892],[-76.2315749994503,43.05066900006352],[-76.23016300032742,43.051389000439535],[-76.23137900041219,43.05558599965282],[-76.22789699987773,43.05552800039515],[-76.22675399942177,43.0563560000776],[-76.22663600003543,43.05557199990686],[-76.22579399996611,43.05523500017107]]]]}},{"id":"804","type":"Feature","properties":{"GISJOIN":"G3600670C0070","pct_black":0.0},"geometry":{"type":"Polygon","coordinates":[[[-76.20516400030525,43.114338000153715],[-76.205354999704,43.113373000200546],[-76.20435700028028,43.11342400047055],[-76.20425899956915,43.11289499990128],[-76.20136400009754,43.11206999976291],[-76.20186600043142,43.111117000274795],[-76.20397399964885,43.1112159997574],[-76.20431200018591,43.11025900025461],[-76.20374099953597,43.110085999691776],[-76.20471599986779,43.10691300012998],[-76.20057599968422,43.10455099964835],[-76.20013699978865,43.104169000221695],[-76.20075600048075,43.10330400013242],[-76.19871799956941,43.10231099985235],[-76.2015219996709,43.097554000348126],[-76.20345899967829,43.0963769999477],[-76.20990499972594,43.100967999942284],[-76.21104800023787,43.10130800006211],[-76.21127100042256,43.100151999668604],[-76.21242199941692,43.10182499984862],[-76.21772000037008,43.103882000208664],[-76.21723699950958,43.10459400010631],[-76.22297000021878,43.10817500040075],[-76.21997999993411,43.109983999969046],[-76.21965199945227,43.10948099981841],[-76.21523200033734,43.11153300038726],[-76.21426700061366,43.11302699967958],[-76.21194299979184,43.112357999615604],[-76.21006299953248,43.11296000024743],[-76.20978099936451,43.11455200024965],[-76.2059319999738,43.11473299989353],[-76.20516400030525,43.114338000153715]]]}},{"id":"805","type":"Feature","properties":{"GISJOIN":"G3600670C0071","pct_black":0.05},"geometry":{"type":"Polygon","coordinates":[[[-76.19638499949234,43.11512900010856],[-76.1896189998679,43.11602899961798],[-76.15910400047578,43.11746600029682],[-76.16082599974764,43.10624799966038],[-76.16871900006431,43.096710999807975],[-76.17350199942706,43.08931099994505],[-76.17681000060789,43.08303099973558],[-76.17756799938918,43.07852200014072],[-76.18245399957087,43.07465099957649],[-76.24127199950927,43.11462400037014],[-76.25154999958056,43.12236700033667],[-76.25125000014597,43.124167000290655],[-76.2532499999088,43.12586700020396],[-76.25434999977149,43.127766999556286],[-76.25405000015421,43.129367000447665],[-76.25348100019306,43.130238000315366],[-76.25154999958487,43.1306670001702],[-76.24785600049341,43.13036700013871],[-76.2460770005699,43.130936999713406],[-76.23858699940475,43.13656400023023],[-76.2377280004752,43.13835800027323],[-76.23399099957435,43.1358099996766],[-76.23296100005706,43.13568499984829],[-76.20724199949156,43.117499999972125],[-76.20497199987747,43.115365999730045],[-76.19638499949234,43.11512900010856]],[[-76.20516400030525,43.114338000153715],[-76.2059319999738,43.11473299989353],[-76.20978099936451,43.11455200024965],[-76.21006299953248,43.11296000024743],[-76.21194299979184,43.112357999615604],[-76.21426700061366,43.11302699967958],[-76.21523200033734,43.11153300038726],[-76.21965199945227,43.10948099981841],[-76.21997999993411,43.109983999969046],[-76.22297000021878,43.10817500040075],[-76.21723699950958,43.10459400010631],[-76.21772000037008,43.103882000208664],[-76.21242199941692,43.10182499984862],[-76.21127100042256,43.100151999668604],[-76.21104800023787,43.10130800006211],[-76.20990499972594,43.100967999942284],[-76.20345899967829,43.0963769999477],[-76.2015219996709,43.097554000348126],[-76.19871799956941,43.10231099985235],[-76.20075600048075,43.10330400013242],[-76.20013699978865,43.104169000221695],[-76.20057599968422,43.10455099964835],[-76.20471599986779,43.10691300012998],[-76.20374099953597,43.110085999691776],[-76.20431200018591,43.11025900025461],[-76.20397399964885,43.1112159997574],[-76.20186600043142,43.111117000274795],[-76.20136400009754,43.11206999976291],[-76.20425899956915,43.11289499990128],[-76.20435700028028,43.11342400047055],[-76.205354999704,43.113373000200546],[-76.20516400030525,43.114338000153715]]]}},{"id":"806","type":"Feature","properties":{"GISJOIN":"G3600670C0072A","pct_black":0.41},"geometry":{"type":"Polygon","coordinates":[[[-76.11676099951735,43.09287500001353],[-76.12640899992783,43.093473999835915],[-76.15664999989019,43.091907000242045],[-76.1624640001931,43.092771999655575],[-76.16966299991661,43.095398999768335],[-76.16082599974764,43.10624799966038],[-76.15910400047578,43.11746600029682],[-76.15041299955776,43.1181689995362],[-76.14908999953913,43.11741700006178],[-76.14409899958709,43.118473000335996],[-76.1191449999989,43.11946699977788],[-76.11676099951735,43.09287500001353]]]}},{"id":"807","type":"Feature","properties":{"GISJOIN":"G3600670C0072B","pct_black":0.38},"geometry":{"type":"Polygon","coordinates":[[[-76.11531600065618,43.0755439997508],[-76.11562800018714,43.07357799980442],[-76.12499900044342,43.07295900019261],[-76.1250270002971,43.07360400001678],[-76.12602199988035,43.07360800031483],[-76.12649399978606,43.079644999799676],[-76.13664499984989,43.07895000038283],[-76.13678000023944,43.081079999638185],[-76.13944799976045,43.08292699994273],[-76.14232599955044,43.08134899965365],[-76.1440459993609,43.083366000318954],[-76.1474779997234,43.084604000330216],[-76.15014700014106,43.084065999571926],[-76.15144600014752,43.08436600004015],[-76.15385199935744,43.081640000121865],[-76.15527800005535,43.082601999573036],[-76.15606900021203,43.08171200011252],[-76.16245500016942,43.08610199962106],[-76.1687969994719,43.07896300023078],[-76.17091900023881,43.078010999646544],[-76.17706299997057,43.08001299986871],[-76.17691400020212,43.082489000428595],[-76.17400800038435,43.088420999658254],[-76.16966299991661,43.095398999768335],[-76.1624640001931,43.092771999655575],[-76.15664999989019,43.091907000242045],[-76.12640899992783,43.093473999835915],[-76.11676099951735,43.09287500001353],[-76.1165290002083,43.08992300043315],[-76.11699199989735,43.08714700009488],[-76.11580700027497,43.08238200024673],[-76.11531600065618,43.0755439997508]]]}},{"id":"808","type":"Feature","properties":{"GISJOIN":"G3600670C0073","pct_black":0.45},"geometry":{"type":"Polygon","coordinates":[[[-76.05113700025848,43.06309999977157],[-76.05733800063994,43.063370999905594],[-76.057057999538,43.058102000086826],[-76.06184199989181,43.056981000331426],[-76.06183300066512,43.055788999780866],[-76.07048200038162,43.05575599965815],[-76.07312599995858,43.05628899996104],[-76.0832009994594,43.055519999973264],[-76.0851429995973,43.06446599949362],[-76.08767999974192,43.06373900019869],[-76.0903540004614,43.067420999889045],[-76.0879019998174,43.068274000293734],[-76.08561999958498,43.067212000031134],[-76.08597700013836,43.06767300032615],[-76.08547800025359,43.06982299966604],[-76.05104100000504,43.071078999736564],[-76.05157599965496,43.068061000336634],[-76.05113700025848,43.06309999977157]]]}},{"id":"809","type":"Feature","properties":{"GISJOIN":"G3600670C0074","pct_black":0.0},"geometry":{"type":"Polygon","coordinates":[[[-76.03849400004508,43.0625309999286],[-76.05113700025848,43.06309999977157],[-76.05157599965496,43.068061000336634],[-76.05104100000504,43.071078999736564],[-76.08547800025359,43.06982299966604],[-76.08597700013836,43.06767300032615],[-76.08561999958498,43.067212000031134],[-76.0879019998174,43.068274000293734],[-76.0903540004614,43.067420999889045],[-76.09060699996324,43.068062999681565],[-76.09395500052263,43.06796200025392],[-76.09401299985491,43.06942500033059],[-76.09646600066625,43.069311999719616],[-76.0964650000423,43.07031400024438],[-76.09912900043432,43.07027500007214],[-76.09918500065493,43.07085699974818],[-76.10006399991475,43.07080999980705],[-76.10094599996357,43.07542900004791],[-76.10261900026036,43.076425000310586],[-76.11531600065618,43.0755439997508],[-76.11580700027497,43.08238200024673],[-76.11699199989735,43.08714700009488],[-76.1165290002083,43.08992300043315],[-76.1191449999989,43.11946699977788],[-76.04266699986921,43.121959999929295],[-76.03849400004508,43.0625309999286]]]}},{"id":"810","type":"Feature","properties":{"GISJOIN":"G3600670C0075","pct_black":0.68},"geometry":{"type":"MultiPolygon","coordinates":[[[[-76.0851429995973,43.06446599949362],[-76.0842379996246,43.05928599988511],[-76.08767999974192,43.06373900019869],[-76.0851429995973,43.06446599949362]]],[[[-76.03849400004508,43.0625309999286],[-76.0358749999357,43.02426499978747],[-76.0257949996756,43.020047000124656],[-76.02524899981404,43.014530999545364],[-76.02540000053955,43.00680800006848],[-76.02344200012935,42.98506599991827],[-76.10774500027193,42.98116599978429],[-76.10944200034221,43.005074000140525],[-76.11078499969753,43.01445200006524],[-76.11056800013091,43.02095400029598],[-76.11157900022604,43.02934400000889],[-76.10774599994187,43.02957700022136],[-76.10792199987672,43.03214700004729],[-76.10749400046562,43.032706000453224],[-76.09892899938357,43.03322700000784],[-76.09665699953281,43.0319990000789],[-76.09563699953904,43.03293199952606],[-76.09294799984663,43.03294799989085],[-76.09334500036688,43.03724699990192],[-76.08360500018432,43.037561999636],[-76.0836170005569,43.037064000225726],[-76.08215099963712,43.03606599949264],[-76.07817300000241,43.036573000425854],[-76.07743000028455,43.037676999841814],[-76.07408399973677,43.03649700037691],[-76.07434899929801,43.04144800024899],[-76.07496000033355,43.04154899982002],[-76.07692899987741,43.038861999912854],[-76.07966200001994,43.0398670002198],[-76.0819519996233,43.04149199981881],[-76.08211300001868,43.04444899998169],[-76.08558899961497,43.046638999882454],[-76.08960899993664,43.0481499996952],[-76.09272199955427,43.04825700025456],[-76.08984100005887,43.051067999562086],[-76.08959100038187,43.05479000034849],[-76.08474600053935,43.054583999900686],[-76.08261400031394,43.05478100044973],[-76.0830449997158,43.055608000132025],[-76.07312599995858,43.05628899996104],[-76.07048200038162,43.05575599965815],[-76.06183300066512,43.055788999780866],[-76.06184199989181,43.056981000331426],[-76.057057999538,43.058102000086826],[-76.05733800063994,43.063370999905594],[-76.03849400004508,43.0625309999286]]]]}},{"id":"811","type":"Feature","properties":{"GISJOIN":"G3600670C0076A","pct_black":0.04},"geometry":{"type":"Polygon","coordinates":[[[-76.02524899981404,43.014530999545364],[-76.0257949996756,43.020047000124656],[-76.0358749999357,43.02426499978747],[-76.03712199995896,43.04403099972828],[-76.02344299988602,43.04327399998997],[-76.012454999877,43.04336400026904],[-76.00957700008114,43.04485800024699],[-76.0055099997078,43.05041700025718],[-76.00119800032508,43.05304300006335],[-75.99325700026051,43.05621899977115],[-75.9812399999849,43.05942599988196],[-75.97416699991652,43.06073500036704],[-75.96910999991493,43.061247999529435],[-75.96234999980857,43.06009399957237],[-75.95815899956354,43.06141699996857],[-75.95915800016797,43.05464199971236],[-75.95876899987609,43.047595999946616],[-75.95915400041375,43.04534199962812],[-75.96308799966582,43.04250400015865],[-75.96461199977816,43.039796999659615],[-75.97111200000478,43.03688000031685],[-75.97780400032673,43.034663999812665],[-75.9769609996963,43.03036500037963],[-75.97585276694781,43.01106021005446],[-75.98866899950195,43.010819999693325],[-75.99459900024506,43.01599800008661],[-76.00372600016698,43.01557799982248],[-76.0043390003839,43.015026000476226],[-76.00455899960916,43.01353199979279],[-76.0128660004288,43.01421600007158],[-76.01556000022241,43.01534599962472],[-76.02524899981404,43.014530999545364]]]}},{"id":"812","type":"Feature","properties":{"GISJOIN":"G3600670C0076B","pct_black":0.07},"geometry":{"type":"Polygon","coordinates":[[[-75.91635600023625,43.074899999792734],[-75.91061299959907,42.98941000028616],[-75.93289000007105,42.98859399985678],[-75.93569999938988,42.98897300018275],[-76.02344200012935,42.98506599991827],[-76.02540000053955,43.00680800006848],[-76.02524899981404,43.014530999545364],[-76.01556000022241,43.01534599962472],[-76.0128660004288,43.01421600007158],[-76.00455899960916,43.01353199979279],[-76.0043390003839,43.015026000476226],[-76.00372600016698,43.01557799982248],[-75.99459900024506,43.01599800008661],[-75.98866899950195,43.010819999693325],[-75.97585276694781,43.01106021005446],[-75.9769609996963,43.03036500037963],[-75.97780400032673,43.034663999812665],[-75.97111200000478,43.03688000031685],[-75.96461199977816,43.039796999659615],[-75.96308799966582,43.04250400015865],[-75.95915400041375,43.04534199962812],[-75.95876899987609,43.047595999946616],[-75.95915800016797,43.05464199971236],[-75.95815899956354,43.06141699996857],[-75.94790199976575,43.071188999611834],[-75.93659399978625,43.07663699964869],[-75.93424900008942,43.076788999710104],[-75.92668800013652,43.07409100041523],[-75.91635600023625,43.074899999792734]]]}},{"id":"813","type":"Feature","properties":{"GISJOIN":"G3600670C0076C","pct_black":0.1},"geometry":{"type":"Polygon","coordinates":[[[-75.91635600023625,43.074899999792734],[-75.92668800013652,43.07409100041523],[-75.93371200004721,43.07669900005739],[-75.93659399978625,43.07663699964869],[-75.94790199976575,43.071188999611834],[-75.95526400047004,43.06376500044815],[-75.9593060002963,43.060866000075116],[-75.96328400035469,43.06007999978688],[-75.96875099972092,43.061227000045655],[-75.97416699991652,43.06073500036704],[-75.9812399999849,43.05942599988196],[-75.99325700026051,43.05621899977115],[-76.00119800032508,43.05304300006335],[-76.0055099997078,43.05041700025718],[-76.00957700008114,43.04485800024699],[-76.012454999877,43.04336400026904],[-76.02344299988602,43.04327399998997],[-76.03712199995896,43.04403099972828],[-76.04266699986921,43.121959999929295],[-76.01255000050192,43.12304699999862],[-76.01192100047376,43.117469999932574],[-75.9655939997152,43.11955200003816],[-75.9654299999668,43.11672099971528],[-75.96592800015219,43.11539999974579],[-75.96875699963105,43.11089799981721],[-75.97179299949852,43.10902899966064],[-75.9703490001192,43.10756700022275],[-75.97202999983783,43.10752199978277],[-75.9729699997868,43.10663400027448],[-75.9714039999494,43.1056259998238],[-75.97152400048472,43.1049140002146],[-75.97639599992975,43.1030379995778],[-75.97564099999865,43.100336000155146],[-75.97634400021202,43.09869399971582],[-75.9745689995292,43.096509000172574],[-75.97584899959351,43.094605999651876],[-75.97540399970602,43.09092100028089],[-75.97435500017448,43.0905910000526],[-75.97452099978392,43.09169500042231],[-75.97260500031274,43.09147299964381],[-75.97210699999182,43.09239399964937],[-75.97112100064291,43.092467999709974],[-75.9708909995382,43.092057999799316],[-75.97212599950723,43.0912299997208],[-75.97068800053535,43.09090800018705],[-75.97044899985778,43.09026200034468],[-75.9716570005877,43.08954899965421],[-75.9715839997951,43.088903000353945],[-75.9695469995817,43.089548999569125],[-75.96908700049154,43.08833099973132],[-75.96753000057667,43.08762499988936],[-75.96728099975915,43.08807000037569],[-75.96879199969385,43.08952899991845],[-75.96738200059823,43.08992000003746],[-75.9652719994852,43.08886299973979],[-75.96664500047042,43.088197000328734],[-75.96667300034005,43.08753099975535],[-75.96397299966422,43.08669699958537],[-75.9634939997746,43.08705399963292],[-75.96405599954703,43.087813999800545],[-75.96281300040467,43.08780000021668],[-75.96188200012911,43.08888299959839],[-75.9608140002145,43.0890110004197],[-75.96059200026087,43.08769900039469],[-75.96178999961829,43.086953000251974],[-75.96217699985054,43.08602399998724],[-75.96167999942467,43.08549300008314],[-75.95917399973725,43.086623000038436],[-75.95447499948986,43.08746400037546],[-75.9541150001359,43.08882299958706],[-75.95289499959765,43.08741099977827],[-75.95126000003727,43.0873149996945],[-75.95043099990369,43.08962899953119],[-75.948698999675,43.08681700015405],[-75.947087000236,43.08895000028237],[-75.94649900042266,43.08814999977695],[-75.94526399994457,43.088734999573944],[-75.94393700014126,43.08733600012544],[-75.94293300052055,43.08823700014932],[-75.94181799965136,43.08825699993947],[-75.94158899986485,43.08685799964087],[-75.93948799986828,43.08666299993917],[-75.93850500031604,43.08676200032744],[-75.93848600022997,43.08837500018608],[-75.93789300010553,43.08914400046801],[-75.9375929999596,43.088170000309326],[-75.93575299994006,43.08830799969143],[-75.93444999990055,43.08710199964115],[-75.9323099995824,43.088142000184035],[-75.93325899999464,43.08887600029712],[-75.93096600003258,43.090194000347694],[-75.93092300001518,43.08863400039456],[-75.92894800043028,43.08718799970313],[-75.92777300013535,43.087798999972826],[-75.92880899974817,43.08830400035282],[-75.92891999966153,43.088985999585006],[-75.92746800006404,43.089348999934785],[-75.92697099970547,43.0905349995697],[-75.92428100022973,43.08946800048952],[-75.9201580005017,43.08994999993113],[-75.91973199974616,43.08967599950641],[-75.9201279995214,43.08928199985389],[-75.91985400018605,43.08856200044555],[-75.91854399964038,43.087894999779195],[-75.91920400001423,43.086944999752546],[-75.91873699947342,43.086003999915945],[-75.91764000026538,43.086552000066874],[-75.9172190001426,43.08592599980051],[-75.91635600023625,43.074899999792734]]]}},{"id":"814","type":"Feature","properties":{"GISJOIN":"G3600670C0077A","pct_black":0.04},"geometry":{"type":"Polygon","coordinates":[[[-76.13637899951563,42.97134500037484],[-76.1317240004003,42.91341700037719],[-76.1793629993257,42.911183000327355],[-76.17881600032479,42.90366599970928],[-76.28084900024794,42.898929000333666],[-76.29172500026313,43.02812499959168],[-76.25392900028694,43.0301269999326],[-76.2527489995949,43.02097399983394],[-76.2521460005018,43.02042400038424],[-76.25259300006063,43.019580000282126],[-76.25227700020308,43.01506800004167],[-76.23463900043005,43.012125999907475],[-76.22729099960074,43.01219899987929],[-76.2257540004524,42.99406499968735],[-76.22129700039488,42.99459200030799],[-76.21555799956951,42.99441599981576],[-76.20927100015054,42.99618900032007],[-76.20809099975689,42.985535999953065],[-76.20638499999251,42.980344000220576],[-76.18784700063476,42.98126199993663],[-76.1912360004081,42.97629700006583],[-76.17672600019588,42.97696099999089],[-76.17617900049568,42.97010899981503],[-76.17184800006662,42.9700660003903],[-76.17090000041834,42.959175999980054],[-76.15878599982058,42.95951300005418],[-76.15937599996334,42.970200999898324],[-76.13637899951563,42.97134500037484]]]}},{"id":"815","type":"Feature","properties":{"GISJOIN":"G3600670C0077B","pct_black":1.71},"geometry":{"type":"Polygon","coordinates":[[[-76.18525099960905,43.02522799990141],[-76.18200599942104,43.02415499992655],[-76.18221399997091,43.023666000241796],[-76.1806299997883,43.02379200038702],[-76.18065200042834,43.0221290004618],[-76.1774099999049,43.0187200002511],[-76.17115906229593,43.01883444524473],[-76.17061699996728,43.009748000245764],[-76.1676599993825,43.01163300004417],[-76.16735699959844,43.00971499974816],[-76.16625500032214,43.00990800040961],[-76.16585299940743,43.011096000245054],[-76.16134599973391,43.010865999773536],[-76.16008000057614,43.00365300017479],[-76.16577700012546,43.00552499959777],[-76.16274700030478,42.98436599981178],[-76.14359000027834,42.985139000217835],[-76.14224700042857,42.98510499991354],[-76.14209699947627,42.9845950000396],[-76.135243999511,42.98466600016109],[-76.13533099998837,42.98756400014138],[-76.12512799956079,42.987968999999005],[-76.1267339999309,43.004197000337676],[-76.12231000039999,43.01072700050718],[-76.12476900036378,43.012983000005526],[-76.12427699978451,43.01402999994171],[-76.11078499969753,43.01445200006524],[-76.10867699954568,42.996266999893464],[-76.1046389995698,42.94314599960953],[-76.13390200063922,42.94188999979725],[-76.13637899951563,42.97134500037484],[-76.15937599996334,42.970200999898324],[-76.15878599982058,42.95951300005418],[-76.17090000041834,42.959175999980054],[-76.17184800006662,42.9700660003903],[-76.17617900049568,42.97010899981503],[-76.17672600019588,42.97696099999089],[-76.1912360004081,42.97629700006583],[-76.18784700063476,42.98126199993663],[-76.20638499999251,42.980344000220576],[-76.20809099975689,42.985535999953065],[-76.20927100015054,42.99618900032007],[-76.21555799956951,42.99441599981576],[-76.22129700039488,42.99459200030799],[-76.2257540004524,42.99406499968735],[-76.22729099960074,43.01219899987929],[-76.23463900043005,43.012125999907475],[-76.25227700020308,43.01506800004167],[-76.25259300006063,43.019580000282126],[-76.2521460005018,43.02042400038424],[-76.2527489995949,43.02097399983394],[-76.25392900028694,43.0301269999326],[-76.19417599968398,43.032116999986265],[-76.19535899960242,43.03163999962018],[-76.19569400040606,43.0305989999978],[-76.19544999999337,43.02694799983523],[-76.19654800039092,43.02706600036088],[-76.19674000026957,43.02839300006329],[-76.1995559999981,43.02816399999902],[-76.19962900012236,43.02736699990925],[-76.20331599984522,43.0267390004079],[-76.20357800051745,43.02413500026293],[-76.20314700012315,43.022470999691734],[-76.20115999984604,43.02363499957015],[-76.19993300061893,43.02264199970719],[-76.19456799992375,43.02245999989304],[-76.19391499971769,43.02538500037994],[-76.18530500001708,43.025876999734145],[-76.18525099960905,43.02522799990141]]]}},{"id":"816","type":"Feature","properties":{"GISJOIN":"G3600670C0078","pct_black":0.02},"geometry":{"type":"Polygon","coordinates":[[[-76.2905650002734,43.01429499973942],[-76.28075200002462,42.89748600006323],[-76.3609560002083,42.89424000031291],[-76.36670199980374,42.973818000297356],[-76.36992600002765,43.01044899990733],[-76.31849300038846,43.01257900045139],[-76.2905650002734,43.01429499973942]]]}},{"id":"817","type":"Feature","properties":{"GISJOIN":"G3600670C0079","pct_black":0.26},"geometry":{"type":"Polygon","coordinates":[[[-76.3609560002083,42.89424000031291],[-76.39989599985823,42.89232099996839],[-76.39228200056829,42.875071000138405],[-76.38835400065935,42.870187999661034],[-76.37870400034902,42.86299000026626],[-76.3570180004474,42.849447999883125],[-76.45073800008122,42.8457599998131],[-76.46299900017802,43.00631600015537],[-76.36992600002765,43.01044899990733],[-76.36670199980374,42.973818000297356],[-76.3609560002083,42.89424000031291]]]}},{"id":"818","type":"Feature","properties":{"GISJOIN":"G3600670C0080A","pct_black":0.26},"geometry":{"type":"Polygon","coordinates":[[[-75.90168100005545,42.861942999940645],[-76.1620440000253,42.850292000183806],[-76.16428799943743,42.88203399988665],[-76.17385599982124,42.881649999544],[-76.1755979995971,42.903836999828975],[-76.17881600032479,42.90366599970928],[-76.17955400064608,42.91103799981132],[-76.1317240004003,42.91341700037719],[-76.13390200063922,42.94188999979725],[-76.1046389995698,42.94314599960953],[-76.10774500027193,42.98116599978429],[-75.93569999938988,42.98897300018275],[-75.93289000007105,42.98859399985678],[-75.91061299959907,42.98941000028616],[-75.90168100005545,42.861942999940645]]]}},{"id":"819","type":"Feature","properties":{"GISJOIN":"G3600670C0080B","pct_black":0.09},"geometry":{"type":"Polygon","coordinates":[[[-75.90168100005545,42.861942999940645],[-75.8960789994989,42.79096399997227],[-75.99574999983469,42.78523899996197],[-76.08017000056643,42.78159900009026],[-76.0802129998745,42.780013999943385],[-76.27467299992189,42.77125700026035],[-76.27534800035376,42.78047000024391],[-76.27906699968162,42.78586600034224],[-76.28619800013759,42.7944429998755],[-76.2987700000163,42.80746000016944],[-76.30576200041894,42.81333800026432],[-76.32979599998924,42.82946899962917],[-76.35466499954492,42.84796399984483],[-76.38561600044989,42.86779199999197],[-76.39037599984626,42.872394999619225],[-76.39228200056829,42.875071000138405],[-76.39989599985823,42.89232099996839],[-76.28525899994074,42.897239000013286],[-76.28075200002462,42.89748600006323],[-76.28084900024794,42.898929000333666],[-76.1755979995971,42.903836999828975],[-76.17385599982124,42.881649999544],[-76.16428799943743,42.88203399988665],[-76.1620440000253,42.850292000183806],[-75.90168100005545,42.861942999940645]]]}}]}