{"type":"FeatureCollection","features":[{"id":"298","type":"Feature","properties":{"GISJOIN":"G36006700001","pct_black":0.0},"geometry":{"type":"Polygon","coordinates":[[[-76.15756799998947,43.082740999987244],[-76.16513500010765,43.072609000152376],[-76.17052500007395,43.06692100045225],[-76.18192199962245,43.058013999513065],[-76.18877299937284,43.061046000337036],[-76.1923779999317,43.06139499954025],[-76.19876499954167,43.063671000210206],[-76.19467299982593,43.06507699998088],[-76.17840900032614,43.07767700000811],[-76.17706299997057,43.08001299986871],[-76.17091900023881,43.078010999646544],[-76.16928400055201,43.078668000018006],[-76.16245500016942,43.08610199962106],[-76.15756799998947,43.082740999987244]]]}},{"id":"299","type":"Feature","properties":{"GISJOIN":"G36006700002","pct_black":0.06},"geometry":{"type":"Polygon","coordinates":[[[-76.15756799998947,43.082740999987244],[-76.14909399952772,43.07686999957445],[-76.15324600044757,43.075061000049075],[-76.15902900001866,43.06730600012033],[-76.16706699952569,43.070652999925194],[-76.15756799998947,43.082740999987244]]]}},{"id":"300","type":"Feature","properties":{"GISJOIN":"G36006700003","pct_black":0.26},"geometry":{"type":"Polygon","coordinates":[[[-76.13895499936032,43.08245200026452],[-76.14909399952772,43.07686999957445],[-76.15606900021203,43.08171200011252],[-76.15527800005535,43.082601999573036],[-76.15385199935744,43.081640000121865],[-76.15144600014752,43.08436600004015],[-76.15014700014106,43.084065999571926],[-76.1474779997234,43.084604000330216],[-76.1440459993609,43.083366000318954],[-76.14232599955044,43.08134899965365],[-76.13944799976045,43.08292699994273],[-76.13895499936032,43.08245200026452]]]}},{"id":"301","type":"Feature","properties":{"GISJOIN":"G36006700004","pct_black":0.0},"geometry":{"type":"Polygon","coordinates":[[[-76.12499900044342,43.07295900019261],[-76.1419459997194,43.07213800032649],[-76.15349899937215,43.07472400001984],[-76.13895499936032,43.08245200026452],[-76.13678000023944,43.081079999638185],[-76.13664499984989,43.07895000038283],[-76.12649399978606,43.079644999799676],[-76.12602199988035,43.07360800031483],[-76.1250270002971,43.07360400001678],[-76.12499900044342,43.07295900019261]]]}},{"id":"302","type":"Feature","properties":{"GISJOIN":"G36006700005","pct_black":0.0},"geometry":{"type":"Polygon","coordinates":[[[-76.16706699952569,43.070652999925194],[-76.15240899956831,43.06469699971499],[-76.15340499994092,43.06335899998295],[-76.15688610231015,43.06212362733154],[-76.15783915516063,43.06283942060449],[-76.15856819706191,43.06241419779602],[-76.16032099971807,43.06467899964739],[-76.16526899987132,43.06691500032259],[-76.16820699994283,43.069490999783625],[-76.16706699952569,43.070652999925194]]]}},{"id":"303","type":"Feature","properties":{"GISJOIN":"G36006700006","pct_black":0.0},"geometry":{"type":"Polygon","coordinates":[[[-76.14602700001672,43.073269000450104],[-76.15240899956831,43.06469699971499],[-76.15902900001866,43.06730600012033],[-76.15349899937215,43.07472400001984],[-76.14602700001672,43.073269000450104]]]}},{"id":"304","type":"Feature","properties":{"GISJOIN":"G36006700007","pct_black":0.0},"geometry":{"type":"Polygon","coordinates":[[[-76.1419459997194,43.07213800032649],[-76.14272700059465,43.07210599995551],[-76.14328300023777,43.07025699978492],[-76.1433419996096,43.06504699983939],[-76.15010400002727,43.067786999686994],[-76.14602700001672,43.073269000450104],[-76.1419459997194,43.07213800032649]]]}},{"id":"305","type":"Feature","properties":{"GISJOIN":"G36006700008","pct_black":0.0},"geometry":{"type":"Polygon","coordinates":[[[-76.13394000022434,43.064421999638455],[-76.13851800044087,43.06424600036038],[-76.13849199981757,43.06311999983996],[-76.13949200012048,43.06307500015706],[-76.13958399991444,43.06413800024274],[-76.14335299974104,43.06397999957841],[-76.14328300023777,43.07025699978492],[-76.14272700059465,43.07210599995551],[-76.1344729994459,43.07249700012985],[-76.13394000022434,43.064421999638455]]]}},{"id":"306","type":"Feature","properties":{"GISJOIN":"G36006700009","pct_black":0.51},"geometry":{"type":"Polygon","coordinates":[[[-76.11476400027249,43.06843500037014],[-76.11615000014874,43.06820499969382],[-76.13134700040304,43.06075899992591],[-76.13385300015788,43.06349599969355],[-76.1344729994459,43.07249700012985],[-76.12482999955643,43.07294000006333],[-76.11476400027249,43.06843500037014]]]}},{"id":"307","type":"Feature","properties":{"GISJOIN":"G36006700010","pct_black":0.0},"geometry":{"type":"Polygon","coordinates":[[[-76.09646600066625,43.069311999719616],[-76.11476400027249,43.06843500037014],[-76.12499900044342,43.07295900019261],[-76.11562800018714,43.07357799980442],[-76.11496899981942,43.07571699972902],[-76.10261900026036,43.076425000310586],[-76.10094599996357,43.07542900004791],[-76.10006399991475,43.07080999980705],[-76.09918500065493,43.07085699974818],[-76.09912900043432,43.07027500007214],[-76.0964650000423,43.07031400024438],[-76.09646600066625,43.069311999719616]]]}},{"id":"308","type":"Feature","properties":{"GISJOIN":"G36006700011","pct_black":0.0},"geometry":{"type":"Polygon","coordinates":[[[-76.15856819706191,43.06241419779602],[-76.16429900029283,43.059343999791],[-76.17037499962925,43.05723900038278],[-76.17042899952109,43.05585299961911],[-76.17679599967927,43.05616900007667],[-76.18192199962245,43.058013999513065],[-76.1707839998315,43.066683999617716],[-76.16820699994283,43.069490999783625],[-76.16526899987132,43.06691500032259],[-76.16032099971807,43.06467899964739],[-76.15856819706191,43.06241419779602]]]}},{"id":"309","type":"Feature","properties":{"GISJOIN":"G36006700012","pct_black":0.0},"geometry":{"type":"Polygon","coordinates":[[[-76.15463400018632,43.05889499965438],[-76.15237899975259,43.05455200026475],[-76.1578399993692,43.054533000195796],[-76.16297999943366,43.05542500012911],[-76.17042899952109,43.05585299961911],[-76.17037499962925,43.05723900038278],[-76.16429900029283,43.059343999791],[-76.15856819706191,43.06241419779602],[-76.15463400018632,43.05889499965438]]]}},{"id":"310","type":"Feature","properties":{"GISJOIN":"G36006700013","pct_black":0.0},"geometry":{"type":"Polygon","coordinates":[[[-76.15340499994092,43.06335899998295],[-76.15206999956837,43.06262899977158],[-76.14694799960483,43.059871000001216],[-76.15255599971438,43.0574619996394],[-76.15357600051539,43.05636099970968],[-76.15463400018632,43.05889499965438],[-76.15856819706191,43.06241419779602],[-76.15783915516063,43.06283942060449],[-76.15688610231015,43.06212362733154],[-76.15340499994092,43.06335899998295]]]}},{"id":"311","type":"Feature","properties":{"GISJOIN":"G36006700014","pct_black":0.0},"geometry":{"type":"Polygon","coordinates":[[[-76.1433419996096,43.06504699983939],[-76.14345699983399,43.06360400020934],[-76.14588599958277,43.06035999984022],[-76.14694799960483,43.059871000001216],[-76.15340499994092,43.06335899998295],[-76.15010400002727,43.067786999686994],[-76.1433419996096,43.06504699983939]]]}},{"id":"312","type":"Feature","properties":{"GISJOIN":"G36006700015","pct_black":0.0},"geometry":{"type":"Polygon","coordinates":[[[-76.13277700005887,43.062314999971115],[-76.14003099941999,43.05871700010414],[-76.13935900023179,43.057986000278284],[-76.14150100004753,43.05692799963791],[-76.14694799960483,43.059871000001216],[-76.14588599958277,43.06035999984022],[-76.14335299974104,43.06397999957841],[-76.13958399991444,43.06413800024274],[-76.13949200012048,43.06307500015706],[-76.13849199981757,43.06311999983996],[-76.13851800044087,43.06424600036038],[-76.13394000022434,43.064421999638455],[-76.13385300015788,43.06349599969355],[-76.13277700005887,43.062314999971115]]]}},{"id":"313","type":"Feature","properties":{"GISJOIN":"G36006700016","pct_black":0.3},"geometry":{"type":"Polygon","coordinates":[[[-76.13053000001945,43.061161999711636],[-76.12784900047295,43.05806500031843],[-76.13346299984985,43.05776700031988],[-76.14203900040262,43.05331000037027],[-76.14208899965361,43.05223899972217],[-76.14558900010952,43.052274999836655],[-76.14597199962367,43.053589000122045],[-76.14454799980417,43.05428800011971],[-76.14521699969177,43.055110999692424],[-76.13935900023179,43.057986000278284],[-76.14003099941999,43.05871700010414],[-76.13277700005887,43.062314999971115],[-76.13134700040304,43.06075899992591],[-76.13053000001945,43.061161999711636]]]}},{"id":"314","type":"Feature","properties":{"GISJOIN":"G36006700017","pct_black":0.02},"geometry":{"type":"Polygon","coordinates":[[[-76.11322200008239,43.058734999843374],[-76.11404365619406,43.058709073346044],[-76.11402565238066,43.05797856868167],[-76.11504310870463,43.05753837224718],[-76.11949303479838,43.05680522848919],[-76.11947800009129,43.05640500010287],[-76.12206999961471,43.05633999993502],[-76.12219300026761,43.05823099978748],[-76.12779900013896,43.058011000118974],[-76.13053000001945,43.061161999711636],[-76.11615000014874,43.06820499969382],[-76.11410400021477,43.06847400033493],[-76.11322200008239,43.058734999843374]]]}},{"id":"315","type":"Feature","properties":{"GISJOIN":"G36006700018","pct_black":0.0},"geometry":{"type":"Polygon","coordinates":[[[-76.10637700038627,43.06884099993823],[-76.10538499972711,43.058236000026184],[-76.11303400039816,43.05668099975417],[-76.11410400021477,43.06847400033493],[-76.10637700038627,43.06884099993823]]]}},{"id":"316","type":"Feature","properties":{"GISJOIN":"G36006700019","pct_black":0.0},"geometry":{"type":"Polygon","coordinates":[[[-76.08767999974192,43.06373900019869],[-76.09476299976924,43.06224800000724],[-76.1057250004981,43.06183400006462],[-76.10637700038627,43.06884099993823],[-76.09401299985491,43.06942500033059],[-76.09395500052263,43.06796200025392],[-76.09060699996324,43.068062999681565],[-76.08767999974192,43.06373900019869]]]}},{"id":"317","type":"Feature","properties":{"GISJOIN":"G36006700020","pct_black":0.0},"geometry":{"type":"Polygon","coordinates":[[[-76.18192199962245,43.058013999513065],[-76.18537700000073,43.05534300037167],[-76.182209000093,43.05211199972772],[-76.18782600064432,43.05244399975164],[-76.18772199977623,43.05346100010309],[-76.18859300045756,43.054688000258615],[-76.19714958925832,43.05157970176866],[-76.19792799970547,43.052627999626445],[-76.19962999991155,43.052252999965276],[-76.20001199967771,43.05286699952199],[-76.20061599996858,43.05989700000191],[-76.19980999977986,43.059677999853655],[-76.20003999949161,43.060427999949106],[-76.19730099991021,43.059630000047974],[-76.19940700040553,43.0625299999032],[-76.19941399942347,43.063671000255255],[-76.1923779999317,43.06139499954025],[-76.18877299937284,43.061046000337036],[-76.18192199962245,43.058013999513065]]]}},{"id":"318","type":"Feature","properties":{"GISJOIN":"G36006700021","pct_black":0.0},"geometry":{"type":"Polygon","coordinates":[[[-76.17042899952109,43.05585299961911],[-76.17082400044993,43.04810700029145],[-76.1765020003979,43.0483990000191],[-76.18192599955538,43.051867999675714],[-76.18537700000073,43.05534300037167],[-76.18192199962245,43.058013999513065],[-76.17679599967927,43.05616900007667],[-76.17042899952109,43.05585299961911]]]}},{"id":"319","type":"Feature","properties":{"GISJOIN":"G36006700022","pct_black":0.0},"geometry":{"type":"Polygon","coordinates":[[[-76.15766999971414,43.05070399990024],[-76.16782600031013,43.04833199974978],[-76.17082400044993,43.04810700029145],[-76.17042899952109,43.05585299961911],[-76.15658499985243,43.05468299955734],[-76.15648900020858,43.05385199964772],[-76.15812699962585,43.05222800032636],[-76.15766999971414,43.05070399990024]]]}},{"id":"320","type":"Feature","properties":{"GISJOIN":"G36006700023","pct_black":0.12},"geometry":{"type":"Polygon","coordinates":[[[-76.14150100004753,43.05692799963791],[-76.14521699969177,43.055110999692424],[-76.14454799980417,43.05428800011971],[-76.14597199962367,43.053589000122045],[-76.14558900010952,43.052274999836655],[-76.14208899965361,43.05223899972217],[-76.14211399963982,43.05080700017301],[-76.14932599935509,43.0509120001545],[-76.15357600051539,43.05636099970968],[-76.15255599971438,43.0574619996394],[-76.14694799960483,43.059871000001216],[-76.14150100004753,43.05692799963791]]]}},{"id":"321","type":"Feature","properties":{"GISJOIN":"G36006700024","pct_black":0.33},"geometry":{"type":"Polygon","coordinates":[[[-76.1305970003701,43.050612999610465],[-76.14211399963982,43.05080700017301],[-76.14203900040262,43.05331000037027],[-76.13346299984985,43.05776700031988],[-76.13053200023359,43.05788100016466],[-76.13008099971888,43.05206000039829],[-76.1305970003701,43.050612999610465]]]}},{"id":"322","type":"Feature","properties":{"GISJOIN":"G36006700025","pct_black":0.0},"geometry":{"type":"Polygon","coordinates":[[[-76.11183006878164,43.05690611892753],[-76.11167117351171,43.05245305097849],[-76.11343899959246,43.05181700014434],[-76.1223980003616,43.04942200006273],[-76.12790803201875,43.05065552511504],[-76.1305970003701,43.050612999610465],[-76.13008099971888,43.05206000039829],[-76.13053200023359,43.05788100016466],[-76.12219300026761,43.05823099978748],[-76.12206999961471,43.05633999993502],[-76.11947800009129,43.05640500010287],[-76.11949303479838,43.05680522848919],[-76.11502792602583,43.05754248409095],[-76.11402565238066,43.05797856868167],[-76.11404365619406,43.058709073346044],[-76.11322200008239,43.058734999843374],[-76.11303400039816,43.05668099975417],[-76.11183006878164,43.05690611892753]]]}},{"id":"323","type":"Feature","properties":{"GISJOIN":"G36006700026","pct_black":0.11},"geometry":{"type":"Polygon","coordinates":[[[-76.08327099946297,43.05566599974371],[-76.09353300044489,43.05504500045543],[-76.10868899972131,43.05323500037401],[-76.11167117351171,43.05245305097849],[-76.11183006878164,43.05690611892753],[-76.10538499972711,43.058236000026184],[-76.1057250004981,43.06183400006462],[-76.09476299976924,43.06224800000724],[-76.08767999974192,43.06373900019869],[-76.08443999945332,43.05968900024741],[-76.08327099946297,43.05566599974371]]]}},{"id":"324","type":"Feature","properties":{"GISJOIN":"G36006700027","pct_black":0.0},"geometry":{"type":"Polygon","coordinates":[[[-76.18648200057184,43.05236200001831],[-76.18422400022736,43.04859699966886],[-76.19238100021556,43.045497000101676],[-76.19323899955069,43.04670899954592],[-76.19424800021608,43.04656600114446],[-76.19541500050035,43.04834399970269],[-76.19599199997656,43.048294000295975],[-76.1955630001681,43.04940900007266],[-76.19714958925832,43.05157970176866],[-76.18859300045756,43.054688000258615],[-76.18772199977623,43.05346100010309],[-76.18782600064432,43.05244399975164],[-76.18648200057184,43.05236200001831]]]}},{"id":"325","type":"Feature","properties":{"GISJOIN":"G36006700028","pct_black":0.0},"geometry":{"type":"Polygon","coordinates":[[[-76.1798919996623,43.04553999989935],[-76.18065099950196,43.044694000016946],[-76.18735200014817,43.0421539999842],[-76.18793499997142,43.042726999658136],[-76.19649100051018,43.04182299992055],[-76.20398900031074,43.04156600003427],[-76.20447399956709,43.0449979999619],[-76.20414900034324,43.04703499972193],[-76.20052399996479,43.047190999898],[-76.20085799973572,43.045583999591635],[-76.19955799978912,43.04442500014556],[-76.199118999715,43.04180400007643],[-76.19223499952726,43.04241599996717],[-76.19484799966867,43.0462660003358],[-76.19424800021608,43.04656600114446],[-76.19323899955069,43.04670899954592],[-76.19238100021556,43.045497000101676],[-76.18422400022736,43.04859699966886],[-76.18337000004718,43.047381000319746],[-76.18164600014268,43.04803099980216],[-76.1798919996623,43.04553999989935]]]}},{"id":"326","type":"Feature","properties":{"GISJOIN":"G36006700029","pct_black":0.0},"geometry":{"type":"Polygon","coordinates":[[[-76.17082400044993,43.04810700029145],[-76.17128299966875,43.042828999674235],[-76.17426299967974,43.042645999679074],[-76.17743699948186,43.04591799993279],[-76.1798919996623,43.04553999989935],[-76.18164600014268,43.04803099980216],[-76.18337000004718,43.047381000319746],[-76.18648200057184,43.05236200001831],[-76.182209000093,43.05211199972772],[-76.17600999960317,43.04820700032185],[-76.17082400044993,43.04810700029145]]]}},{"id":"327","type":"Feature","properties":{"GISJOIN":"G36006700030","pct_black":1.05},"geometry":{"type":"Polygon","coordinates":[[[-76.15392000002845,43.043649999784385],[-76.17128299966875,43.042828999674235],[-76.17082400044993,43.04810700029145],[-76.16782600031013,43.04833199974978],[-76.15766999971414,43.05070399990024],[-76.15679100031846,43.047667000241],[-76.15711900040456,43.04606699989398],[-76.15466800012622,43.044727000081544],[-76.15392000002845,43.043649999784385]]]}},{"id":"328","type":"Feature","properties":{"GISJOIN":"G36006700031","pct_black":2.36},"geometry":{"type":"Polygon","coordinates":[[[-76.14932599935509,43.0509120001545],[-76.14927300006198,43.04702699986624],[-76.14871999968733,43.04701900011537],[-76.148866999835,43.04275100000101],[-76.15417400027677,43.04247400028099],[-76.15418499990967,43.04419400008561],[-76.15711900040456,43.04606699989398],[-76.15679100031846,43.047667000241],[-76.15808600005157,43.0523279996992],[-76.15648900020858,43.05385199964772],[-76.15658499985243,43.05468299955734],[-76.15237899975259,43.05455200026475],[-76.14932599935509,43.0509120001545]]]}},{"id":"329","type":"Feature","properties":{"GISJOIN":"G36006700032","pct_black":21.57},"geometry":{"type":"Polygon","coordinates":[[[-76.14226999953813,43.042705999882344],[-76.148866999835,43.04275100000101],[-76.14871999968733,43.04701900011537],[-76.14927300006198,43.04702699986624],[-76.14932599935509,43.0509120001545],[-76.14211399963982,43.05080700017301],[-76.14226999953813,43.042705999882344]]]}},{"id":"330","type":"Feature","properties":{"GISJOIN":"G36006700033","pct_black":8.31},"geometry":{"type":"Polygon","coordinates":[[[-76.13441600045172,43.042641999983104],[-76.14226999953813,43.042705999882344],[-76.14211399963982,43.05080700017301],[-76.1342359994428,43.050670999957056],[-76.13441600045172,43.042641999983104]]]}},{"id":"331","type":"Feature","properties":{"GISJOIN":"G36006700034","pct_black":4.28},"geometry":{"type":"Polygon","coordinates":[[[-76.12562599997966,43.049902999619526],[-76.12543700007512,43.04535199991956],[-76.12901200004988,43.045291999853085],[-76.12874600029983,43.04261000022516],[-76.13441600045172,43.042641999983104],[-76.1342359994428,43.050670999957056],[-76.12790803201875,43.05065552511504],[-76.12562599997966,43.049902999619526]]]}},{"id":"332","type":"Feature","properties":{"GISJOIN":"G36006700035","pct_black":0.12},"geometry":{"type":"Polygon","coordinates":[[[-76.11369400026666,43.04819200034399],[-76.11307472242608,43.04172409362023],[-76.12113999978025,43.04179799975968],[-76.12542499980472,43.045301000116645],[-76.12562599997966,43.049902999619526],[-76.12201300029403,43.04945999992169],[-76.11509600032161,43.051337999717504],[-76.11475300039992,43.04820899968768],[-76.11369400026666,43.04819200034399]]]}},{"id":"333","type":"Feature","properties":{"GISJOIN":"G36006700036","pct_black":0.19},"geometry":{"type":"Polygon","coordinates":[[[-76.0898230001965,43.05125899994663],[-76.09058699984934,43.05121300018856],[-76.09413499989118,43.04771700031506],[-76.11234800036624,43.044875000268334],[-76.1133990006268,43.04506800000685],[-76.11369400026666,43.04819200034399],[-76.11475300039992,43.04820899968768],[-76.11509600032161,43.051337999717504],[-76.1097419996567,43.053082999847426],[-76.09353300044489,43.05504500045543],[-76.0831849998768,43.05566599991992],[-76.08261400031394,43.05478100044973],[-76.08959100038187,43.05479000034849],[-76.0898230001965,43.05125899994663]]]}},{"id":"334","type":"Feature","properties":{"GISJOIN":"G36006700037","pct_black":4.99},"geometry":{"type":"Polygon","coordinates":[[[-76.17743699948186,43.04591799993279],[-76.1739310003516,43.04179499996778],[-76.1746370002691,43.040412000162085],[-76.17395499958748,43.03961399990519],[-76.18276699984992,43.03818699955125],[-76.18683299981987,43.03652900042081],[-76.18922300028973,43.036386000082864],[-76.1890280003044,43.037427000375835],[-76.1880329995063,43.03742799967434],[-76.18968999970137,43.04259600018533],[-76.18793499997142,43.042726999658136],[-76.18735200014817,43.0421539999842],[-76.18065099950196,43.044694000016946],[-76.17977700030461,43.045585000455304],[-76.17743699948186,43.04591799993279]]]}},{"id":"335","type":"Feature","properties":{"GISJOIN":"G36006700038","pct_black":0.0},"geometry":{"type":"Polygon","coordinates":[[[-76.17128299966875,43.042828999674235],[-76.17520999960068,43.03283600039457],[-76.18684599970413,43.032048999553325],[-76.1881199999531,43.03642600013318],[-76.18276699984992,43.03818699955125],[-76.17385999983682,43.03965800011488],[-76.1746370002691,43.040412000162085],[-76.1739310003516,43.04179499996778],[-76.17402299960932,43.04295800019671],[-76.17128299966875,43.042828999674235]]]}},{"id":"336","type":"Feature","properties":{"GISJOIN":"G36006700039","pct_black":0.0},"geometry":{"type":"Polygon","coordinates":[[[-76.1551539997545,43.038472000075934],[-76.15466000039127,43.036379000354735],[-76.1643389998336,43.035444999662126],[-76.16477599993995,43.03321500021714],[-76.17520999960068,43.03283600039457],[-76.17239599956463,43.040011999785406],[-76.161311999379,43.04080300010946],[-76.15918499970432,43.0392600002729],[-76.15818499963021,43.03998000036655],[-76.15605299966549,43.03833299988085],[-76.1551539997545,43.038472000075934]]]}},{"id":"337","type":"Feature","properties":{"GISJOIN":"G36006700040","pct_black":0.22},"geometry":{"type":"Polygon","coordinates":[[[-76.15392000002845,43.043649999784385],[-76.15547100062005,43.04037099968553],[-76.1551539997545,43.038472000075934],[-76.15605299966549,43.03833299988085],[-76.15818499963021,43.03998000036655],[-76.15918499970432,43.0392600002729],[-76.161311999379,43.04080300010946],[-76.17239599956463,43.040011999785406],[-76.17128299966875,43.042828999674235],[-76.15392000002845,43.043649999784385]]]}},{"id":"338","type":"Feature","properties":{"GISJOIN":"G36006700041","pct_black":0.4},"geometry":{"type":"Polygon","coordinates":[[[-76.14849400023886,43.035440000201625],[-76.15149703710533,43.03485239711124],[-76.15382799995146,43.031416000092406],[-76.15477199986515,43.03308400032664],[-76.15466299959857,43.036620999616105],[-76.1554859999968,43.040194000109274],[-76.15417400027677,43.04247400028099],[-76.148866999835,43.04275100000101],[-76.14849400023886,43.035440000201625]]]}},{"id":"339","type":"Feature","properties":{"GISJOIN":"G36006700042","pct_black":7.3},"geometry":{"type":"Polygon","coordinates":[[[-76.14187200047807,43.035861999969164],[-76.14849400023886,43.035440000201625],[-76.148866999835,43.04275100000101],[-76.13908953214757,43.042676225095526],[-76.14106636409888,43.03961910940026],[-76.14187200047807,43.035861999969164]]]}},{"id":"340","type":"Feature","properties":{"GISJOIN":"G36006700043","pct_black":0.35},"geometry":{"type":"Polygon","coordinates":[[[-76.1316030004958,43.03936400018915],[-76.13135662410187,43.033658409432135],[-76.14220199998495,43.03346000041027],[-76.14106636409888,43.03961910940026],[-76.13908953214757,43.042676225095526],[-76.13441600045172,43.042641999983104],[-76.13449800029257,43.03939800018024],[-76.1316030004958,43.03936400018915]]]}},{"id":"341","type":"Feature","properties":{"GISJOIN":"G36006700044","pct_black":0.48},"geometry":{"type":"Polygon","coordinates":[[[-76.12543700007512,43.04535199991956],[-76.12290499932264,43.04316000024916],[-76.12418500046456,43.042308000172596],[-76.12284499937459,43.0407660002597],[-76.12211599986894,43.03882499995507],[-76.12458900061509,43.038788999847384],[-76.12454099985922,43.038293999919695],[-76.12332000029613,43.03834900041446],[-76.12255999966219,43.0302060002438],[-76.12922199996359,43.02999900014125],[-76.12979699964035,43.0362779997719],[-76.13134399981521,43.03631600004167],[-76.1316030004958,43.03936400018915],[-76.13449800029257,43.03939800018024],[-76.13441600045172,43.042641999983104],[-76.12874600029983,43.04261000022516],[-76.12901200004988,43.045291999853085],[-76.12543700007512,43.04535199991956]]]}},{"id":"342","type":"Feature","properties":{"GISJOIN":"G36006700045","pct_black":0.04},"geometry":{"type":"Polygon","coordinates":[[[-76.1116810005866,43.03072499973903],[-76.12255999966219,43.0302060002438],[-76.12332000029613,43.03834900041446],[-76.12454099985922,43.038293999919695],[-76.12458900061509,43.038788999847384],[-76.12211599986894,43.03882499995507],[-76.12284499937459,43.0407660002597],[-76.12418500046456,43.042308000172596],[-76.12290499932264,43.04316000024916],[-76.12113999978025,43.04179799975968],[-76.11938600004764,43.04196599995723],[-76.11934400057947,43.04150099995167],[-76.11307472242608,43.04172409362023],[-76.11248499946171,43.03273200018882],[-76.111601999695,43.03275199963728],[-76.1116810005866,43.03072499973903]]]}},{"id":"343","type":"Feature","properties":{"GISJOIN":"G36006700046","pct_black":1.05},"geometry":{"type":"Polygon","coordinates":[[[-76.1063469997345,43.03291399967734],[-76.10792199987672,43.03214700004729],[-76.10774599994187,43.02957700022136],[-76.11157900022604,43.02934400000889],[-76.111601999695,43.03275199963728],[-76.11248499946171,43.03273200018882],[-76.1133990006268,43.04506800000685],[-76.10715900023601,43.04566100035322],[-76.10730199999207,43.043155999567624],[-76.10854299986042,43.043533999876445],[-76.10933399998999,43.04231600010508],[-76.10795100053043,43.0419059996674],[-76.10751499977323,43.039879999661416],[-76.10812100044494,43.039251999849505],[-76.10745499985508,43.03846400028068],[-76.1063469997345,43.03291399967734]]]}},{"id":"344","type":"Feature","properties":{"GISJOIN":"G36006700047","pct_black":0.41},"geometry":{"type":"Polygon","coordinates":[[[-76.1063469997345,43.03291399967734],[-76.10745499985508,43.03846400028068],[-76.10812100044494,43.039251999849505],[-76.10751499977323,43.039879999661416],[-76.10795100053043,43.0419059996674],[-76.10933399998999,43.04231600010508],[-76.10854299986042,43.043533999876445],[-76.10730199999207,43.043155999567624],[-76.10715900023601,43.04566100035322],[-76.09413499989118,43.04771700031506],[-76.09058699984934,43.05121300018856],[-76.0898230001965,43.05125899994663],[-76.09272199955427,43.04825700025456],[-76.08960899993664,43.0481499996952],[-76.08558899961497,43.046638999882454],[-76.08211300001868,43.04444899998169],[-76.0819519996233,43.04149199981881],[-76.07966200001994,43.0398670002198],[-76.07692899987741,43.038861999912854],[-76.07496000033355,43.04154899982002],[-76.07434899929801,43.04144800024899],[-76.07408399973677,43.03649700037691],[-76.07743000028455,43.037676999841814],[-76.07817300000241,43.036573000425854],[-76.08215099963712,43.03606599949264],[-76.0836170005569,43.037064000225726],[-76.08360500018432,43.037561999636],[-76.09334500036688,43.03724699990192],[-76.09294799984663,43.03294799989085],[-76.09563699953904,43.03293199952606],[-76.09665699953281,43.0319990000789],[-76.09892899938357,43.03322700000784],[-76.1063469997345,43.03291399967734]]]}},{"id":"345","type":"Feature","properties":{"GISJOIN":"G36006700048","pct_black":0.0},"geometry":{"type":"Polygon","coordinates":[[[-76.18301100023153,43.0325579999232],[-76.1824430003461,43.02491599982827],[-76.18296299999403,43.0244499997872],[-76.18525099960905,43.02522799990141],[-76.18530500001708,43.025876999734145],[-76.19391499971769,43.02538500037994],[-76.19616000031377,43.024793999874284],[-76.19654800039092,43.02706600036088],[-76.19544999999337,43.02694799983523],[-76.19535899960242,43.03163999962018],[-76.19268799954448,43.032675999483494],[-76.18793700001719,43.03256100015257],[-76.18953399979554,43.03591300034842],[-76.18922300028973,43.036386000082864],[-76.1881199999531,43.03642600013318],[-76.18684599970413,43.032048999553325],[-76.18301100023153,43.0325579999232]]]}},{"id":"346","type":"Feature","properties":{"GISJOIN":"G36006700049","pct_black":0.0},"geometry":{"type":"Polygon","coordinates":[[[-76.17469900008359,43.02336500035228],[-76.17390516685415,43.0188249116581],[-76.1774099999049,43.0187200002511],[-76.18065200042834,43.0221290004618],[-76.1806299997883,43.02379200038702],[-76.18221399997091,43.023666000241796],[-76.18200599942104,43.02415499992655],[-76.18296299999403,43.0244499997872],[-76.1824430003461,43.02491599982827],[-76.18301100023153,43.0325579999232],[-76.17520999960068,43.03283600039457],[-76.17469900008359,43.02336500035228]]]}},{"id":"347","type":"Feature","properties":{"GISJOIN":"G36006700050","pct_black":0.08},"geometry":{"type":"Polygon","coordinates":[[[-76.16409600054921,43.02943100001566],[-76.16233799970884,43.0265719999029],[-76.16411994535513,43.026558906160176],[-76.16418448576216,43.02538617671973],[-76.16514900001418,43.0253710000152],[-76.1647729993722,43.02382300011507],[-76.16572799989387,43.02357000031455],[-76.16544600019824,43.01986500040675],[-76.1739210002968,43.01941399996483],[-76.17469900008359,43.02336500035228],[-76.17520999960068,43.03283600039457],[-76.16477599993995,43.03321500021714],[-76.16409600054921,43.02943100001566]]]}},{"id":"348","type":"Feature","properties":{"GISJOIN":"G36006700051","pct_black":0.03},"geometry":{"type":"Polygon","coordinates":[[[-76.16041200024793,43.02813900017515],[-76.15729199979,43.026994000419755],[-76.15479199964749,43.02443100020977],[-76.15521700000399,43.02185600029881],[-76.1542790004846,43.01932799969254],[-76.16066400036766,43.01925100031382],[-76.16128100046464,43.018486000384584],[-76.16297400018388,43.01965800018902],[-76.16544600019824,43.01986500040675],[-76.16572799989387,43.02357000031455],[-76.1647729993722,43.02382300011507],[-76.16514900001418,43.0253710000152],[-76.16418448576216,43.02538617671973],[-76.16411994535513,43.026558906160176],[-76.16233799970884,43.0265719999029],[-76.16409600054921,43.02943100001566],[-76.16089999994684,43.029670000312144],[-76.1619079993886,43.02804399999171],[-76.16041200024793,43.02813900017515]]]}},{"id":"349","type":"Feature","properties":{"GISJOIN":"G36006700052","pct_black":0.03},"geometry":{"type":"Polygon","coordinates":[[[-76.15477199986515,43.03308400032664],[-76.15283700048569,43.029345999985196],[-76.15807199990728,43.02801300033499],[-76.15829799965677,43.02736600005432],[-76.16041200024793,43.02813900017515],[-76.16176500045086,43.027959999870454],[-76.162018999787,43.028410000075176],[-76.16089999994684,43.029670000312144],[-76.16409600054921,43.02943100001566],[-76.16449599962988,43.030251999488186],[-76.16478700059926,43.03347699963581],[-76.1643389998336,43.035444999662126],[-76.15466000039127,43.036379000354735],[-76.15477199986515,43.03308400032664]]]}},{"id":"350","type":"Feature","properties":{"GISJOIN":"G36006700053","pct_black":0.32},"geometry":{"type":"Polygon","coordinates":[[[-76.14220199998495,43.03346000041027],[-76.14077551224673,43.02960357085944],[-76.1423870003475,43.02967500027795],[-76.14213299976313,43.02833999971478],[-76.14644600047647,43.02799300014995],[-76.14680100054372,43.02874399962678],[-76.15205899987534,43.027396999537594],[-76.15382799995146,43.031416000092406],[-76.15149703710533,43.03485239711124],[-76.14940253958214,43.034993343178336],[-76.14945600042098,43.035401999994605],[-76.14187200047807,43.035861999969164],[-76.14220199998495,43.03346000041027]]]}},{"id":"351","type":"Feature","properties":{"GISJOIN":"G36006700054","pct_black":0.05},"geometry":{"type":"Polygon","coordinates":[[[-76.13987699967873,43.01978999969118],[-76.14306299936737,43.020678000161],[-76.14927799981784,43.02001700032459],[-76.15205899987534,43.027396999537594],[-76.14680100054372,43.02874399962678],[-76.14644600047647,43.02799300014995],[-76.14213299976313,43.02833999971478],[-76.1423870003475,43.02967500027795],[-76.14077551224673,43.02960357085944],[-76.13962099932775,43.02622300015359],[-76.13987699967873,43.01978999969118]]]}},{"id":"352","type":"Feature","properties":{"GISJOIN":"G36006700055","pct_black":0.45},"geometry":{"type":"Polygon","coordinates":[[[-76.12979699964035,43.0362779997719],[-76.12790200056907,43.01563699989425],[-76.12445800021507,43.011394999716956],[-76.12271899986848,43.01014899974095],[-76.12421799941927,43.00821400022271],[-76.13392300018022,43.010226000040056],[-76.13702199963336,43.012369999665594],[-76.13982800067915,43.01957399978463],[-76.13969000020073,43.02669899999485],[-76.14220199998495,43.03346000041027],[-76.13135662410187,43.033658409432135],[-76.13129100045958,43.03625800045367],[-76.12979699964035,43.0362779997719]]]}},{"id":"353","type":"Feature","properties":{"GISJOIN":"G36006700056","pct_black":0.0},"geometry":{"type":"Polygon","coordinates":[[[-76.1116810005866,43.03072499973903],[-76.11056800013091,43.02095400029598],[-76.11078499969753,43.01445200006524],[-76.12427699978451,43.01402999994171],[-76.12476900036378,43.012983000005526],[-76.12231000039999,43.01072700050718],[-76.12271899986848,43.01014899974095],[-76.12445800021507,43.011394999716956],[-76.12790200056907,43.01563699989425],[-76.12922199996359,43.02999900014125],[-76.1116810005866,43.03072499973903]]]}},{"id":"354","type":"Feature","properties":{"GISJOIN":"G36006700057","pct_black":0.0},"geometry":{"type":"Polygon","coordinates":[[[-76.15701700004193,43.015369000227366],[-76.14995799989902,43.01044000022082],[-76.155454000435,43.01114000007901],[-76.160440000227,43.01068300038996],[-76.16059299937733,43.01196900016677],[-76.16134599973391,43.010865999773536],[-76.16585299940743,43.011096000245054],[-76.16625500032214,43.00990800040961],[-76.16735699959844,43.00971499974816],[-76.1676599993825,43.01163300004417],[-76.17061699996728,43.009748000245764],[-76.17115906229593,43.01883444524473],[-76.17390516685415,43.0188249116581],[-76.1739210002968,43.01941399996483],[-76.16544600019824,43.01986500040675],[-76.16297400018388,43.01965800018902],[-76.16128100046464,43.018486000384584],[-76.16066400036766,43.01925100031382],[-76.1542790004846,43.01932799969254],[-76.15445499983728,43.018237000376054],[-76.15696899992672,43.01678699959033],[-76.15701700004193,43.015369000227366]]]}},{"id":"355","type":"Feature","properties":{"GISJOIN":"G36006700058","pct_black":0.0},"geometry":{"type":"Polygon","coordinates":[[[-76.15283700048569,43.029345999985196],[-76.14828599954245,43.017367999703694],[-76.14788400018261,43.01290899957744],[-76.15353900049055,43.012604000212775],[-76.15698599957072,43.01521599968173],[-76.15696899992672,43.01678699959033],[-76.15410200051373,43.01882699996751],[-76.15521700000399,43.02185600029881],[-76.15479199964749,43.02443100020977],[-76.15729199979,43.026994000419755],[-76.15829799965677,43.02736600005432],[-76.15807199990728,43.02801300033499],[-76.15283700048569,43.029345999985196]]]}},{"id":"356","type":"Feature","properties":{"GISJOIN":"G36006700059","pct_black":0.02},"geometry":{"type":"Polygon","coordinates":[[[-76.13987699967873,43.01978999969118],[-76.13767741048213,43.01356996736297],[-76.14789999952238,43.013069999894725],[-76.14828599954245,43.017367999703694],[-76.14927799981784,43.02001700032459],[-76.14306299936737,43.020678000161],[-76.13987699967873,43.01978999969118]]]}},{"id":"357","type":"Feature","properties":{"GISJOIN":"G36006700060","pct_black":0.23},"geometry":{"type":"Polygon","coordinates":[[[-76.15001100007615,42.98470999955816],[-76.16274700030478,42.98436599981178],[-76.16577700012546,43.00552499959777],[-76.16008000057614,43.00365300017479],[-76.16134599973391,43.010865999773536],[-76.16093400072349,43.01188299965414],[-76.160440000227,43.01068300038996],[-76.155454000435,43.01114000007901],[-76.15065299948752,43.010358999646044],[-76.14995799989902,43.01044000022082],[-76.15353900049055,43.012604000212775],[-76.14788400018261,43.01290899957744],[-76.14687899952838,43.00121599973474],[-76.1440650004963,43.00085400005103],[-76.14809899947865,42.994776999763054],[-76.1480629996739,42.98961199998686],[-76.15001100007615,42.98470999955816]]]}},{"id":"358","type":"Feature","properties":{"GISJOIN":"G36006700061","pct_black":0.19},"geometry":{"type":"Polygon","coordinates":[[[-76.12421799941927,43.00821400022271],[-76.1267339999309,43.004197000337676],[-76.12512799956079,42.987968999999005],[-76.13533099998837,42.98756400014138],[-76.135243999511,42.98466600016109],[-76.14209699947627,42.9845950000396],[-76.14224700042857,42.98510499991354],[-76.14359000027834,42.985139000217835],[-76.15001100007615,42.98470999955816],[-76.1480629996739,42.98961199998686],[-76.14809899947865,42.994776999763054],[-76.1440650004963,43.00085400005103],[-76.14687899952838,43.00121599973474],[-76.14789999952238,43.013069999894725],[-76.13767741048213,43.01356996736297],[-76.13637100033759,43.01168000046348],[-76.13392300018022,43.010226000040056],[-76.12421799941927,43.00821400022271]]]}}]}