{"type":"FeatureCollection","features":[{"id":"0","type":"Feature","properties":{"GISJOIN":"G17014300001","pct_black":0.03},"geometry":{"type":"Polygon","coordinates":[[[-89.61539900046283,40.664437000178104],[-89.6162990001263,40.657336999953515],[-89.61159900017972,40.654137999608956],[-89.61033899944955,40.65198999964447],[-89.64216400014516,40.652166000135054],[-89.6423450002986,40.66690499971761],[-89.6127882395991,40.66651959765113],[-89.61539900046283,40.664437000178104]]]}},{"id":"1","type":"Feature","properties":{"GISJOIN":"G17014300002","pct_black":0.0},"geometry":{"type":"Polygon","coordinates":[[[-89.63290400029358,40.666819000023615],[-89.6423450002986,40.66690499971761],[-89.64226399974712,40.6778399999077],[-89.63273799972116,40.67775999996687],[-89.63290400029358,40.666819000023615]]]}},{"id":"2","type":"Feature","properties":{"GISJOIN":"G17014300003","pct_black":0.02},"geometry":{"type":"Polygon","coordinates":[[[-89.62309900041562,40.67771499987445],[-89.62310100002667,40.667262999636854],[-89.62375399964868,40.66670299954293],[-89.6233310000828,40.66666099986961],[-89.63290400029358,40.666819000023615],[-89.63273799972116,40.67775999996687],[-89.62309900041562,40.67771499987445]]]}},{"id":"3","type":"Feature","properties":{"GISJOIN":"G17014300004","pct_black":18.45},"geometry":{"type":"Polygon","coordinates":[[[-89.59215700029573,40.685015000189345],[-89.6127882395991,40.66651959765113],[-89.62375399964868,40.66670299954293],[-89.62310100002667,40.667262999636854],[-89.62323299984939,40.6708279998394],[-89.598112000246,40.68829100005061],[-89.59443499983769,40.69036900025266],[-89.59459235773073,40.68848453346209],[-89.59215700029573,40.685015000189345]]]}},{"id":"4","type":"Feature","properties":{"GISJOIN":"G17014300005","pct_black":3.99},"geometry":{"type":"Polygon","coordinates":[[[-89.62323299984939,40.6708279998394],[-89.6230339995762,40.68135600031373],[-89.60867399944242,40.68133499961708],[-89.60986299996831,40.67989300020251],[-89.62323299984939,40.6708279998394]]]}},{"id":"5","type":"Feature","properties":{"GISJOIN":"G17014300006","pct_black":0.12},"geometry":{"type":"Polygon","coordinates":[[[-89.62294800038572,40.68780299994781],[-89.62309900041562,40.67771499987445],[-89.64226399974712,40.6778399999077],[-89.64332400043367,40.67588100018062],[-89.64459999997747,40.67593699973996],[-89.6446000003067,40.67673700029214],[-89.6459000000775,40.6767370004121],[-89.6459939996393,40.68003600031087],[-89.64219799994846,40.680453000041254],[-89.64194652688661,40.688485780076086],[-89.63874150763449,40.688580029362384],[-89.6384046290494,40.689401550698136],[-89.63674460014185,40.68974223207921],[-89.6356907873398,40.69135877226534],[-89.63249600001394,40.6923480002885],[-89.63257400033166,40.68868499957048],[-89.62773100059167,40.68865899975011],[-89.62773466054453,40.686764159915086],[-89.62872257444498,40.68655336189309],[-89.62868146815215,40.685584464062664],[-89.62294800038572,40.68780299994781]]]}},{"id":"6","type":"Feature","properties":{"GISJOIN":"G17014300007","pct_black":11.72},"geometry":{"type":"Polygon","coordinates":[[[-89.60637100012005,40.682790000191595],[-89.60867399944242,40.68133499961708],[-89.6230339995762,40.68135600031373],[-89.62296499968082,40.686635999543526],[-89.60788899948511,40.68707300021682],[-89.60790100008806,40.68428400001363],[-89.60637100012005,40.682790000191595]]]}},{"id":"7","type":"Feature","properties":{"GISJOIN":"G17014300008","pct_black":33.45},"geometry":{"type":"Polygon","coordinates":[[[-89.60788899948511,40.68707300021682],[-89.62279100032086,40.68682499984259],[-89.62296499968082,40.686635999543526],[-89.62294800038572,40.68780299994781],[-89.6076140002072,40.69478099975687],[-89.60788899948511,40.68707300021682]]]}},{"id":"8","type":"Feature","properties":{"GISJOIN":"G17014300009","pct_black":62.43},"geometry":{"type":"Polygon","coordinates":[[[-89.59931799954963,40.6872710001891],[-89.60637100012005,40.682790000191595],[-89.60792400024974,40.68436999974986],[-89.6076140002072,40.69478099975687],[-89.60574200054975,40.69557899976579],[-89.60104337040889,40.69546196930274],[-89.60099800050843,40.68803700043118],[-89.5999009997867,40.68825200035392],[-89.59931799954963,40.6872710001891]]]}},{"id":"9","type":"Feature","properties":{"GISJOIN":"G17014300010","pct_black":53.99},"geometry":{"type":"Polygon","coordinates":[[[-89.5936959997677,40.69574799966814],[-89.5945809998903,40.69532799992141],[-89.59443499983769,40.69036900025266],[-89.59931799954963,40.6872710001891],[-89.5999009997867,40.68825200035392],[-89.60099800050843,40.68803700043118],[-89.60104337040889,40.69546196930274],[-89.60372000051,40.695554000437575],[-89.60349651628117,40.696909706416825],[-89.60097098837703,40.698221123149075],[-89.59686299964004,40.698750999615385],[-89.5936959997677,40.69574799966814]]]}},{"id":"10","type":"Feature","properties":{"GISJOIN":"G17014300011","pct_black":3.9},"geometry":{"type":"Polygon","coordinates":[[[-89.58395600057946,40.68891100004197],[-89.59215700029573,40.685015000189345],[-89.59459235773073,40.68848453346209],[-89.5945809998903,40.69532799992141],[-89.59058900029295,40.69765700011636],[-89.58539700050518,40.69283700005874],[-89.58395600057946,40.68891100004197]]]}},{"id":"11","type":"Feature","properties":{"GISJOIN":"G17014300012","pct_black":37.79},"geometry":{"type":"Polygon","coordinates":[[[-89.57609700002104,40.69243700038588],[-89.58395600057946,40.68891100004197],[-89.58539700050518,40.69283700005874],[-89.59118600032798,40.698177000104096],[-89.59121399964869,40.69875700010023],[-89.58635499946435,40.70190799954391],[-89.57609700002104,40.69243700038588]]]}},{"id":"12","type":"Feature","properties":{"GISJOIN":"G17014300013","pct_black":0.65},"geometry":{"type":"Polygon","coordinates":[[[-89.56939599969152,40.69543699997828],[-89.57609700002104,40.69243700038588],[-89.58635499946435,40.70190799954391],[-89.58017099981498,40.70582600014506],[-89.56939599969152,40.69543699997828]]]}},{"id":"13","type":"Feature","properties":{"GISJOIN":"G17014300014","pct_black":0.0},"geometry":{"type":"Polygon","coordinates":[[[-89.557195999571,40.701136999658324],[-89.56939599969152,40.69543699997828],[-89.58017099981498,40.70582600014506],[-89.57419600003165,40.70953699986323],[-89.57319600016744,40.70853700043205],[-89.57142999947347,40.709791999759794],[-89.56687999990386,40.70618999963654],[-89.56614299973218,40.706651999589816],[-89.557195999571,40.701136999658324]]]}},{"id":"14","type":"Feature","properties":{"GISJOIN":"G17014300015","pct_black":0.06},"geometry":{"type":"Polygon","coordinates":[[[-89.54650300011178,40.72017399977695],[-89.55529500037782,40.70273700010632],[-89.557195999571,40.701136999658324],[-89.56614299973218,40.706651999589816],[-89.56687999990386,40.70618999963654],[-89.57142999947347,40.709791999759794],[-89.56903099949594,40.71300499997246],[-89.56995299986598,40.714869000353005],[-89.56982299980963,40.71763500025658],[-89.5648930000587,40.717485999813235],[-89.5647648356618,40.71908736273595],[-89.56256299984503,40.72116100011663],[-89.56189221179793,40.72435306597589],[-89.56103700009243,40.72477900010166],[-89.54650300011178,40.72017399977695]]]}},{"id":"15","type":"Feature","properties":{"GISJOIN":"G17014300016","pct_black":0.32},"geometry":{"type":"Polygon","coordinates":[[[-89.57142999947347,40.709791999759794],[-89.57319600016744,40.70853700043205],[-89.57419600003165,40.70953699986323],[-89.5751089994419,40.70912100018163],[-89.58635499946435,40.70190799954391],[-89.58702699969699,40.70427199997779],[-89.58986099981558,40.70430799961445],[-89.58984900055897,40.70514299967166],[-89.59154800004829,40.7051509998775],[-89.59132100059601,40.712323999908676],[-89.57451999967603,40.71233199998556],[-89.57142999947347,40.709791999759794]]]}},{"id":"16","type":"Feature","properties":{"GISJOIN":"G17014300017","pct_black":1.76},"geometry":{"type":"Polygon","coordinates":[[[-89.59124799944277,40.7221380000243],[-89.59154800004829,40.7051509998775],[-89.58984900055897,40.70514299967166],[-89.58986099981558,40.70430799961445],[-89.58702699969699,40.70427199997779],[-89.58635499946435,40.70190799954391],[-89.59100799984688,40.69904399980187],[-89.59118600032798,40.698177000104096],[-89.59058900029295,40.69765700011636],[-89.5936959997677,40.69574799966814],[-89.59764800044493,40.69948700002969],[-89.59889399943962,40.69961499972407],[-89.59884599955473,40.70320600028985],[-89.59567600011806,40.703152000010775],[-89.59529299983825,40.72216999975444],[-89.59124799944277,40.7221380000243]]]}},{"id":"17","type":"Feature","properties":{"GISJOIN":"G17014300018","pct_black":1.89},"geometry":{"type":"Polygon","coordinates":[[[-89.59686299964004,40.698750999615385],[-89.60097098837703,40.698221123149075],[-89.60370300042939,40.69704100001891],[-89.60354100051299,40.70810299963152],[-89.60245899974979,40.708655999912686],[-89.6012909997562,40.71045100027026],[-89.59558199947433,40.71038399968194],[-89.59567600011806,40.703152000010775],[-89.59884599955473,40.70320600028985],[-89.59889399943962,40.69961499972407],[-89.59776100007767,40.699556000002694],[-89.59686299964004,40.698750999615385]]]}},{"id":"18","type":"Feature","properties":{"GISJOIN":"G17014300019","pct_black":0.31},"geometry":{"type":"Polygon","coordinates":[[[-89.60354100051299,40.70810299963152],[-89.60372000051,40.695554000437575],[-89.60574200054975,40.69557899976579],[-89.60918499961133,40.69412699982705],[-89.61052599944308,40.696346000110736],[-89.61319999994203,40.69637299975833],[-89.61315499945573,40.70687900016756],[-89.60664550113503,40.706851186570816],[-89.60354100051299,40.70810299963152]]]}},{"id":"19","type":"Feature","properties":{"GISJOIN":"G17014300020","pct_black":0.16},"geometry":{"type":"Polygon","coordinates":[[[-89.60918499961133,40.69412699982705],[-89.6205069996462,40.688757999862496],[-89.62294800038572,40.68780299994781],[-89.62283400025852,40.69640600016335],[-89.61052599944308,40.696346000110736],[-89.60918499961133,40.69412699982705]]]}},{"id":"20","type":"Feature","properties":{"GISJOIN":"G17014300021","pct_black":0.69},"geometry":{"type":"Polygon","coordinates":[[[-89.61789899989971,40.7179170003582],[-89.61303699942587,40.714162999974846],[-89.61319999994203,40.69637299975833],[-89.62283400025852,40.69640600016335],[-89.62254899976064,40.69949999962891],[-89.62298400004262,40.69972899958999],[-89.62303300028145,40.70138199987801],[-89.62371700015409,40.70240699988053],[-89.62692999981142,40.702835000014794],[-89.62680799947663,40.703381999877585],[-89.62550200049039,40.70389900015917],[-89.62540699975067,40.709660999984344],[-89.62759600045676,40.709481000035325],[-89.62788999987445,40.70803699954715],[-89.63240099957352,40.70813799965409],[-89.63222500002027,40.71476199955367],[-89.63595204348216,40.71468627906526],[-89.63605030625313,40.717135256257805],[-89.63659987180901,40.71732550457395],[-89.63606113633877,40.717546939086446],[-89.64188162113304,40.717155632423776],[-89.64216700049082,40.72440800014396],[-89.64172900050679,40.72539899978336],[-89.64105600055895,40.725606999751186],[-89.63206200007023,40.72535999975242],[-89.63219484535263,40.71794657407325],[-89.61789899989971,40.7179170003582]]]}},{"id":"21","type":"Feature","properties":{"GISJOIN":"G17014300022","pct_black":2.12},"geometry":{"type":"Polygon","coordinates":[[[-89.59558199947433,40.71038399968194],[-89.6012909997562,40.71045100027026],[-89.60266000050432,40.70850000019209],[-89.60605795374347,40.70692953843389],[-89.61315499945573,40.70687900016756],[-89.61303699942587,40.714162999974846],[-89.61789899989971,40.7179170003582],[-89.5954099999687,40.71764999996631],[-89.59558199947433,40.71038399968194]]]}},{"id":"22","type":"Feature","properties":{"GISJOIN":"G17014300023","pct_black":0.05},"geometry":{"type":"Polygon","coordinates":[[[-89.59124799944277,40.7221380000243],[-89.59529299983825,40.72216999975444],[-89.5954099999687,40.71764999996631],[-89.61789899989971,40.7179170003582],[-89.61893299951592,40.71862600040291],[-89.61957062881469,40.71791072008915],[-89.61987982956978,40.71865533910334],[-89.61941699944602,40.71892099969354],[-89.62033892986342,40.719130094936325],[-89.61748835938302,40.7197243294716],[-89.6175840416898,40.72140040256015],[-89.62159915488863,40.72125174986511],[-89.62166058710685,40.72193872142797],[-89.61979494151043,40.72323483658901],[-89.61980565960886,40.72428928277503],[-89.61894063441642,40.72523510775724],[-89.59117200060479,40.7248599996988],[-89.59124799944277,40.7221380000243]]]}},{"id":"23","type":"Feature","properties":{"GISJOIN":"G17014300024","pct_black":0.04},"geometry":{"type":"MultiPolygon","coordinates":[[[[-89.61270800049498,40.73058099991143],[-89.61586157290105,40.73064244578055],[-89.61589576859083,40.73241577782215],[-89.61279297387509,40.73108460694064],[-89.61270800049498,40.73058099991143]]],[[[-89.61270800049498,40.73058099991143],[-89.61269328709176,40.73123016987663],[-89.61153129486355,40.73132116258277],[-89.6116698674363,40.733269133794415],[-89.61073721192302,40.733628333144374],[-89.61321248458856,40.733557866435035],[-89.61479199710881,40.73416540598265],[-89.6126599994717,40.734228000240414],[-89.61263799994298,40.73560800022179],[-89.6100104757355,40.735609028471465],[-89.61027278765522,40.73606288153157],[-89.60982536577941,40.736083283513004],[-89.60982258527181,40.73565511378673],[-89.60774291620423,40.735749934064955],[-89.60772391645085,40.73507263342204],[-89.60302025857011,40.73480690144846],[-89.60300338067997,40.73537216476299],[-89.59335054698451,40.73574256261108],[-89.59346577608638,40.7334248520268],[-89.59286661445357,40.73344600848299],[-89.59264767052878,40.73404243482802],[-89.59097358278486,40.7343342336769],[-89.59098031924047,40.73558436734783],[-89.59171316606594,40.73557983978649],[-89.5917387009606,40.737432078917735],[-89.58929781886579,40.73743711193527],[-89.58929299986649,40.739347000318496],[-89.5849959995926,40.7393039998405],[-89.58512499998547,40.73204699972658],[-89.59109200028678,40.732151999587195],[-89.59117200060479,40.7248599996988],[-89.61280200021888,40.725144000150216],[-89.61346427795995,40.726321788332456],[-89.61276000010949,40.72642699982644],[-89.61270800049498,40.73058099991143]]]]}},{"id":"24","type":"Feature","properties":{"GISJOIN":"G17014300025","pct_black":0.33},"geometry":{"type":"Polygon","coordinates":[[[-89.57433099948715,40.72998900032853],[-89.5744530003673,40.72498699959424],[-89.57596399995069,40.72124600034293],[-89.57442100005527,40.721129000097854],[-89.57419599984534,40.71923699956558],[-89.59130699992632,40.719448999747826],[-89.59109200028678,40.732151999587195],[-89.58871100042695,40.732089000249815],[-89.588722444292,40.73113538946499],[-89.59033686936387,40.7306228005532],[-89.58993626296876,40.72953554188344],[-89.58945371558204,40.72954646198974],[-89.58949343750777,40.730237690964486],[-89.58792995724335,40.73023975338308],[-89.58794233746318,40.73065551350299],[-89.58598346247899,40.730640136839604],[-89.5855691183861,40.7298372601837],[-89.58394300002487,40.729849000247945],[-89.58393889670663,40.72877671632743],[-89.58577746841775,40.728721382900694],[-89.58575104756346,40.727935571093454],[-89.58255985308087,40.72825045187878],[-89.58191511391368,40.727638630844346],[-89.58159600054424,40.72837392771383],[-89.57917400014779,40.728340999576496],[-89.5791189999595,40.73005600008858],[-89.57433099948715,40.72998900032853]]]}},{"id":"25","type":"Feature","properties":{"GISJOIN":"G17014300026","pct_black":0.03},"geometry":{"type":"Polygon","coordinates":[[[-89.57419599984534,40.71923699956558],[-89.57436800059718,40.717533999617196],[-89.56956900058397,40.71740800013819],[-89.56995299986598,40.714869000353005],[-89.56903099949594,40.71300499997246],[-89.57142999947347,40.709791999759794],[-89.57451999967603,40.71233199998556],[-89.59132100059601,40.712323999908676],[-89.59130699992632,40.719448999747826],[-89.57419599984534,40.71923699956558]]]}},{"id":"26","type":"Feature","properties":{"GISJOIN":"G17014300027","pct_black":0.04},"geometry":{"type":"Polygon","coordinates":[[[-89.55059399981285,40.73873700015628],[-89.54650300011178,40.72017399977695],[-89.56103700009243,40.72477900010166],[-89.56189221179793,40.72435306597589],[-89.57451600026599,40.724654000039536],[-89.5741610001562,40.73912600030362],[-89.55059399981285,40.73873700015628]]]}},{"id":"27","type":"Feature","properties":{"GISJOIN":"G1701430PC0101","pct_black":0.01},"geometry":{"type":"Polygon","coordinates":[[[-89.52497299941898,40.849236000328474],[-89.52431300031846,40.86020300044455],[-89.52403799941806,40.882864000213466],[-89.52438799951285,40.97323900033774],[-89.44769299956663,40.97324600022847],[-89.4492689979038,40.96827801026107],[-89.44797899942455,40.96297399976591],[-89.44812600054726,40.95917900012707],[-89.45506299949987,40.94647099972146],[-89.45516299995165,40.943136000400315],[-89.45399400041495,40.93953799997259],[-89.45530599937308,40.93550700036537],[-89.45886100047677,40.93297799972305],[-89.46437499977785,40.92604200006644],[-89.4729589999074,40.9212029998976],[-89.47232999981854,40.921206000403934],[-89.47423199995946,40.91436300016228],[-89.47522499945451,40.91274100016242],[-89.47962999981358,40.90934699973105],[-89.4834959998661,40.903183999766966],[-89.48846900020311,40.89929899971325],[-89.49190799969702,40.892732999570896],[-89.4934169999863,40.88784600031682],[-89.49957100045893,40.8750359999967],[-89.50746800025073,40.86771599999508],[-89.52497299941898,40.849236000328474]]]}},{"id":"28","type":"Feature","properties":{"GISJOIN":"G1701430PC0102","pct_black":0.2},"geometry":{"type":"Polygon","coordinates":[[[-89.52431300031846,40.86020300044455],[-89.52521300015029,40.842403999579865],[-89.52578900051601,40.840244000336014],[-89.52828500055851,40.83562100000478],[-89.5449579996949,40.8149810000055],[-89.55060599981908,40.81203699978777],[-89.55426999955483,40.808869000350455],[-89.55633399960054,40.80600499956769],[-89.56145099964763,40.79562300022607],[-89.61310968572477,40.795597733475816],[-89.64020099965234,40.794312000325974],[-89.63978297974984,40.81591414472882],[-89.64025000036911,40.82901999961113],[-89.6400930001862,40.86481200036609],[-89.63846100025452,40.973705999614076],[-89.52438799951285,40.97323900033774],[-89.52403799941806,40.882864000213466],[-89.52431300031846,40.86020300044455]]]}},{"id":"29","type":"Feature","properties":{"GISJOIN":"G1701430PC0103","pct_black":0.0},"geometry":{"type":"Polygon","coordinates":[[[-89.63966299992367,40.886353000001684],[-89.81249999975905,40.88658300035451],[-89.9854289997046,40.88764499979058],[-89.9854790001141,40.9744950003994],[-89.93030200041444,40.975035000289814],[-89.83346399967316,40.97498499997165],[-89.75560999986727,40.97393900006858],[-89.63846100025452,40.973705999614076],[-89.63966299992367,40.886353000001684]]]}},{"id":"30","type":"Feature","properties":{"GISJOIN":"G1701430PC0104","pct_black":0.0},"geometry":{"type":"Polygon","coordinates":[[[-89.64009800010125,40.798036999717894],[-89.98533299964042,40.80003200003305],[-89.9854289997046,40.88764499979058],[-89.81249999975905,40.88658300035451],[-89.63966299992367,40.886353000001684],[-89.64009800010125,40.798036999717894]]]}},{"id":"31","type":"Feature","properties":{"GISJOIN":"G1701430PC0105","pct_black":0.0},"geometry":{"type":"Polygon","coordinates":[[[-89.75772399960798,40.71087499956456],[-89.871627999716,40.7112190001485],[-89.87186899965542,40.69105100002634],[-89.87238499945416,40.689965999853705],[-89.87348999987225,40.658110999837675],[-89.87350599963456,40.62458799966257],[-89.89755199982112,40.6253990000685],[-89.98901800015655,40.625835000136455],[-89.98587499947878,40.719673000146635],[-89.98533299964042,40.80003200003305],[-89.75604600010769,40.798629999766426],[-89.75663599968836,40.77526299964189],[-89.75620900053485,40.76868999970469],[-89.75641299996367,40.75169000021867],[-89.75818699974609,40.727262000215724],[-89.75667899958574,40.72526900022944],[-89.75871200052613,40.72151100038811],[-89.75772399960798,40.71087499956456]]]}},{"id":"32","type":"Feature","properties":{"GISJOIN":"G1701430PC0106","pct_black":0.0},"geometry":{"type":"Polygon","coordinates":[[[-89.64009800010125,40.798036999717894],[-89.64067400040867,40.78714100011775],[-89.64035499971791,40.76924500012462],[-89.64072500048246,40.76848000040135],[-89.64077099998246,40.747138000261174],[-89.64148800033738,40.72552199985529],[-89.64226199976447,40.72309699986319],[-89.64192300022182,40.710692999640685],[-89.67616799945164,40.71059699961867],[-89.6967310000584,40.71103200010666],[-89.69884199985461,40.711699999891536],[-89.7052230004178,40.71077899980143],[-89.75772399960798,40.71087499956456],[-89.75871200052613,40.72151100038811],[-89.75667899958574,40.72526900022944],[-89.75818699974609,40.727262000215724],[-89.75641299996367,40.75169000021867],[-89.75620900053485,40.76868999970469],[-89.75663599968836,40.77526299964189],[-89.75604600010769,40.798629999766426],[-89.64009800010125,40.798036999717894]]]}},{"id":"33","type":"Feature","properties":{"GISJOIN":"G1701430PC0107","pct_black":0.08},"geometry":{"type":"Polygon","coordinates":[[[-89.59760299979945,40.76122199974642],[-89.64067235627647,40.76162847728349],[-89.64067400040867,40.78714100011775],[-89.64020099965234,40.794312000325974],[-89.61702421749641,40.795489745572446],[-89.61130999942418,40.7833580001535],[-89.59952300005686,40.763609000309],[-89.59760299979945,40.76122199974642]]]}},{"id":"34","type":"Feature","properties":{"GISJOIN":"G1701430PC0108","pct_black":0.12},"geometry":{"type":"Polygon","coordinates":[[[-89.55609400036238,40.74943699971107],[-89.55059399981285,40.73873700015628],[-89.55295800014297,40.73870499994494],[-89.55533699959317,40.74366400020854],[-89.56565306110835,40.75955732837384],[-89.57262517858403,40.759238277421595],[-89.57292599969874,40.75510399963846],[-89.57388620258197,40.75505447718637],[-89.57379499997877,40.750221999885405],[-89.58051500040825,40.750192999828364],[-89.58263300002405,40.753519000416986],[-89.58682600032657,40.75629100021799],[-89.58865099948518,40.7550489995926],[-89.58817799967863,40.75464300016957],[-89.58926200041168,40.75391099980439],[-89.59760299979945,40.76122199974642],[-89.59938100049213,40.7633839996672],[-89.61130999942418,40.7833580001535],[-89.61702421749641,40.795489745572446],[-89.56145099964763,40.79562300022607],[-89.5623940000343,40.793637000273456],[-89.56389399962387,40.784037000294525],[-89.55569400053311,40.76473699999319],[-89.55609400036238,40.74943699971107]]]}},{"id":"35","type":"Feature","properties":{"GISJOIN":"G1701430PC0109","pct_black":0.04},"geometry":{"type":"Polygon","coordinates":[[[-89.55295800014297,40.73870499994494],[-89.5741610001562,40.73912600030362],[-89.57433099948715,40.72998900032853],[-89.5791189999595,40.73005600008858],[-89.57917400014779,40.728340999576496],[-89.58159600054424,40.72837392771383],[-89.58191511391368,40.727638630844346],[-89.58255985308087,40.72825045187878],[-89.58575104756346,40.727935571093454],[-89.58577746841775,40.728721382900694],[-89.58393889670663,40.72877671632743],[-89.58394300002487,40.729849000247945],[-89.5855691183861,40.7298372601837],[-89.58598346247899,40.730640136839604],[-89.58794233746318,40.73065551350299],[-89.58792995724335,40.73023975338308],[-89.58949343750777,40.730237690964486],[-89.58945371558204,40.72954646198974],[-89.58993626296876,40.72953554188344],[-89.58991758496134,40.730237230248],[-89.59033385226654,40.73023704030644],[-89.588722444292,40.73113538946499],[-89.58871100042695,40.732089000249815],[-89.58512499998547,40.73204699972658],[-89.5849959995926,40.7393039998405],[-89.58580899980234,40.7393160004283],[-89.5858790150327,40.74566218710504],[-89.58675273001064,40.74563876047731],[-89.58678362012806,40.74752319895001],[-89.58944439127328,40.747435516270905],[-89.58948551457125,40.74974774303325],[-89.59091025362638,40.750469677376934],[-89.59104137533559,40.75161586912199],[-89.58962899983749,40.75212199966892],[-89.58968900016748,40.75281200023795],[-89.59027099998842,40.75285000003909],[-89.59014100036107,40.7535240003618],[-89.58817799967863,40.75464300016957],[-89.58865099948518,40.7550489995926],[-89.58682600032657,40.75629100021799],[-89.58263300002405,40.753519000416986],[-89.58051500040825,40.750192999828364],[-89.57379499997877,40.750221999885405],[-89.57388620258197,40.75505447718637],[-89.57292599969874,40.75510399963846],[-89.57262517858403,40.759238277421595],[-89.56565306110835,40.75955732837384],[-89.55533699959317,40.74366400020854],[-89.55295800014297,40.73870499994494]]]}},{"id":"36","type":"Feature","properties":{"GISJOIN":"G1701430PC0110","pct_black":5.99},"geometry":{"type":"MultiPolygon","coordinates":[[[[-89.56189221179793,40.72435306597589],[-89.56256299984503,40.72116100011663],[-89.5647648356618,40.71908736273595],[-89.56513000020576,40.717342999564885],[-89.57436800059718,40.717533999617196],[-89.57442100005527,40.721129000097854],[-89.57596399995069,40.72124600034293],[-89.57451600026599,40.724654000039536],[-89.56189221179793,40.72435306597589]]],[[[-89.58948551457125,40.74974774303325],[-89.58944439127328,40.747435516270905],[-89.58678362012806,40.74752319895001],[-89.58675273001064,40.74563876047731],[-89.5858790150327,40.74566218710504],[-89.58580899980234,40.7393160004283],[-89.58929299986649,40.739347000318496],[-89.58929781886579,40.73743711193527],[-89.5917387009606,40.737432078917735],[-89.59171316606594,40.73557983978649],[-89.59098031924047,40.73558436734783],[-89.59097358278486,40.7343342336769],[-89.59346577608638,40.7334248520268],[-89.59335054698451,40.73574256261108],[-89.59546762678747,40.73586984684854],[-89.59661938039311,40.73539443689803],[-89.60300338067997,40.73537216476299],[-89.60302025857011,40.73480690144846],[-89.60772391645085,40.73507263342204],[-89.60774291620423,40.735749934064955],[-89.60982258527181,40.73565511378673],[-89.60982536577941,40.736083283513004],[-89.61027278765522,40.73606288153157],[-89.6100104757355,40.735609028471465],[-89.61263799994298,40.73560800022179],[-89.6121150004504,40.76149900003867],[-89.59760299979945,40.76122199974642],[-89.58934499990184,40.753990999997455],[-89.5902879999644,40.75310900000795],[-89.58962899983749,40.75212199966892],[-89.59104137533559,40.75161586912199],[-89.59091025362638,40.750469677376934],[-89.58948551457125,40.74974774303325]]]]}},{"id":"37","type":"Feature","properties":{"GISJOIN":"G1701430PC0111","pct_black":0.0},"geometry":{"type":"Polygon","coordinates":[[[-89.6121150004504,40.76149900003867],[-89.6126599994717,40.734228000240414],[-89.61479199710881,40.73416540598265],[-89.61321248458856,40.733557866435035],[-89.61073721192302,40.733628333144374],[-89.6116698674363,40.733269133794415],[-89.61153129486355,40.73132116258277],[-89.61269328709176,40.73123016987663],[-89.61270800049498,40.73058099991143],[-89.61279297387509,40.73108460694064],[-89.61523305290159,40.73211866555043],[-89.62395999950765,40.738886000009394],[-89.62907500042728,40.7434610001223],[-89.62888499974326,40.74386900017176],[-89.63155200041817,40.74726299988226],[-89.64077099998246,40.747138000261174],[-89.64067235627647,40.76162847728349],[-89.6121150004504,40.76149900003867]]]}},{"id":"38","type":"Feature","properties":{"GISJOIN":"G1701430PC0112","pct_black":0.05},"geometry":{"type":"MultiPolygon","coordinates":[[[[-89.63659987180901,40.71732550457395],[-89.63605030625313,40.717135256257805],[-89.63595204348216,40.71468627906526],[-89.63222500002027,40.71476199955367],[-89.63227299962699,40.71071500013069],[-89.64192300022182,40.710692999640685],[-89.64188162113304,40.717155632423776],[-89.63606113633877,40.717546939086446],[-89.63659987180901,40.71732550457395]]],[[[-89.61561021583083,40.732424481962],[-89.61586157290105,40.73064244578055],[-89.6123970000599,40.730536999765015],[-89.61276000010949,40.72642699982644],[-89.61346427795995,40.726321788332456],[-89.61280200021888,40.725144000150216],[-89.61894063441642,40.72523510775724],[-89.61980565960886,40.72428928277503],[-89.61979494151043,40.72323483658901],[-89.62166058710685,40.72193872142797],[-89.62159915488863,40.72125174986511],[-89.6175840416898,40.72140040256015],[-89.61748835938302,40.7197243294716],[-89.62033892986342,40.719130094936325],[-89.61941699944602,40.71892099969354],[-89.61987982956978,40.71865533910334],[-89.61957062881469,40.71791072008915],[-89.61893299951592,40.71862600040291],[-89.61789899989971,40.7179170003582],[-89.62125348130789,40.71773889484664],[-89.63219484535263,40.71794657407325],[-89.63206200007023,40.72535999975242],[-89.64148800033738,40.72552199985529],[-89.64077099998246,40.747138000261174],[-89.63155200041817,40.74726299988226],[-89.62888499974326,40.74386900017176],[-89.62907500042728,40.7434610001223],[-89.61561021583083,40.732424481962]]]]}},{"id":"39","type":"Feature","properties":{"GISJOIN":"G1701430PC0113","pct_black":0.42},"geometry":{"type":"Polygon","coordinates":[[[-89.62254899976064,40.69949999962891],[-89.62294800038572,40.68780299994781],[-89.62868146815215,40.685584464062664],[-89.62872257444498,40.68655336189309],[-89.62773466054453,40.686764159915086],[-89.62773100059167,40.68865899975011],[-89.63257400033166,40.68868499957048],[-89.63249600001394,40.6923480002885],[-89.6356907873398,40.69135877226534],[-89.63674460014185,40.68974223207921],[-89.6384046290494,40.689401550698136],[-89.63874150763449,40.688580029362384],[-89.64194652688661,40.688485780076086],[-89.64192300022182,40.710692999640685],[-89.63227299962699,40.71071500013069],[-89.63240099957352,40.70813799965409],[-89.62788999987445,40.70803699954715],[-89.62759600045676,40.709481000035325],[-89.62540699975067,40.709660999984344],[-89.62550200049039,40.70389900015917],[-89.62680799947663,40.703381999877585],[-89.62692999981142,40.702835000014794],[-89.62371700015409,40.70240699988053],[-89.62303300028145,40.70138199987801],[-89.62298400004262,40.69972899958999],[-89.62254899976064,40.69949999962891]]]}},{"id":"40","type":"Feature","properties":{"GISJOIN":"G1701430PC0114","pct_black":null},"geometry":{"type":"Polygon","coordinates":[[[-89.61760300027547,40.63946299970509],[-89.63640099974465,40.623238000281496],[-89.64280100059915,40.62343799974755],[-89.64250028494064,40.65011719392344],[-89.61043954933206,40.65028352050561],[-89.61145899942174,40.647910000166924],[-89.61760300027547,40.63946299970509]]]}},{"id":"41","type":"Feature","properties":{"GISJOIN":"G1701430PC0115","pct_black":0.16},"geometry":{"type":"Polygon","coordinates":[[[-89.64192300022182,40.710692999640685],[-89.64215699946806,40.68147199982618],[-89.64795600023099,40.682033000034956],[-89.65866199982419,40.6810919996953],[-89.66337300001263,40.682440000124686],[-89.67052400005173,40.686824000311056],[-89.67720300020497,40.68882599975822],[-89.698270000042,40.688690999762464],[-89.7138829997209,40.69148499988573],[-89.73034699942461,40.69202000012487],[-89.73509600052176,40.69426400026853],[-89.73722999958343,40.69466999965775],[-89.75658699950249,40.69355200029278],[-89.75772399960798,40.71087499956456],[-89.7052230004178,40.71077899980143],[-89.69884199985461,40.711699999891536],[-89.6967310000584,40.71103200010666],[-89.67616799945164,40.71059699961867],[-89.64192300022182,40.710692999640685]]]}},{"id":"42","type":"Feature","properties":{"GISJOIN":"G1701430PC0116","pct_black":0.0},"geometry":{"type":"Polygon","coordinates":[[[-89.64519403433593,40.6521379520839],[-89.61033899944955,40.65198999964447],[-89.61038699966059,40.650405999968704],[-89.64591525551671,40.650026581368465],[-89.65084056618507,40.63524949517276],[-89.64723690487654,40.634416800627],[-89.65001286753237,40.6286988518161],[-89.65153196967981,40.62866213847302],[-89.65164377415137,40.6317802349008],[-89.65423256033563,40.631727625889255],[-89.65429043214537,40.63350879850386],[-89.65215137910218,40.63356903205715],[-89.65200119437736,40.641794201646825],[-89.65340711607163,40.64175385907146],[-89.65362268911744,40.64307852075628],[-89.65797950981023,40.643355910193506],[-89.66103721773707,40.64141773741305],[-89.66618813201406,40.64129817445322],[-89.66617700030142,40.645731999621745],[-89.66851586231212,40.64597340779837],[-89.66847729032439,40.64713213175188],[-89.67009562575245,40.647069749694175],[-89.67011546091551,40.64579271143209],[-89.67553799967007,40.645172000128774],[-89.67553800034004,40.64160099987272],[-89.67625132298718,40.64159390773954],[-89.67625083148756,40.64010959837373],[-89.67909572803806,40.64008560071049],[-89.67928556825564,40.63598680413449],[-89.68332736738267,40.635932680739536],[-89.68329125598254,40.63792891655355],[-89.68960600035024,40.63798699977578],[-89.68992334296642,40.65221055396683],[-89.68491552580949,40.652206710090766],[-89.68496500189971,40.65583900025228],[-89.68030800046363,40.65584799969632],[-89.68033300043032,40.652371000371794],[-89.67632615609179,40.65239556662515],[-89.67615526605914,40.6484139195346],[-89.67151099982819,40.647896999800956],[-89.67081899995831,40.6478709998694],[-89.67105036223418,40.65317729903712],[-89.66915129881916,40.65323396681431],[-89.6691673380537,40.6525094658568],[-89.66676669257001,40.65258104941333],[-89.66666005608211,40.65413871726119],[-89.66753516143403,40.65430483344721],[-89.66881900021455,40.65570899959025],[-89.66258400013756,40.654087000368456],[-89.6550789995727,40.654048000145835],[-89.6548316684266,40.655463667602206],[-89.65573664061141,40.65541079642956],[-89.65558734507181,40.65922026416904],[-89.65136900021723,40.65955699964172],[-89.64923670127037,40.65917845462753],[-89.64799319551985,40.65609887394141],[-89.64371197094356,40.65573639770113],[-89.64519403433593,40.6521379520839]]]}},{"id":"43","type":"Feature","properties":{"GISJOIN":"G1701430PC0117","pct_black":4.39},"geometry":{"type":"Polygon","coordinates":[[[-89.65215137910218,40.63356903205715],[-89.65557486297934,40.63347545005471],[-89.65555833802117,40.63084370154792],[-89.67702283162201,40.63120692505924],[-89.6772139154707,40.637926061471894],[-89.67089699992496,40.637943000327425],[-89.67093366754155,40.63268383825332],[-89.66609150476062,40.63278053543108],[-89.66619285373916,40.641298065044076],[-89.66103721773707,40.64141773741305],[-89.65824573931087,40.64333161737157],[-89.65362268911744,40.64307852075628],[-89.65340711607163,40.64175385907146],[-89.65200119437736,40.641794201646825],[-89.65184354492419,40.6377873789841],[-89.65215137910218,40.63356903205715]]]}},{"id":"44","type":"Feature","properties":{"GISJOIN":"G1701430PC0118","pct_black":0.0},"geometry":{"type":"Polygon","coordinates":[[[-89.64215699946806,40.68147199982618],[-89.64219799994846,40.680453000041254],[-89.6459939996393,40.68003600031087],[-89.64608000035184,40.67932900023502],[-89.6459000000775,40.6767370004121],[-89.6446000003067,40.67673700029214],[-89.64459999997747,40.67593699973996],[-89.64332400043367,40.67588100018062],[-89.64226399974712,40.6778399999077],[-89.64216400014516,40.652166000135054],[-89.64519403433593,40.6521379520839],[-89.64371197094356,40.65573639770113],[-89.64799319551985,40.65609887394141],[-89.64923670127037,40.65917845462753],[-89.65136900021723,40.65955699964172],[-89.65558734507181,40.65922026416904],[-89.65573664061141,40.65541079642956],[-89.6548316684266,40.655463667602206],[-89.65476700040168,40.654138000406874],[-89.65520999984977,40.65401599976623],[-89.66258400013756,40.654087000368456],[-89.66881900021455,40.65570899959025],[-89.66753516143403,40.65430483344721],[-89.66666005608211,40.65413871726119],[-89.66676669257001,40.65258104941333],[-89.6691673380537,40.6525094658568],[-89.66915129881916,40.65323396681431],[-89.67105036223418,40.65317729903712],[-89.67081899995831,40.6478709998694],[-89.67615526605914,40.6484139195346],[-89.67632615609179,40.65239556662515],[-89.68033300043032,40.652371000371794],[-89.68030800046363,40.65584799969632],[-89.68496500189971,40.65583900025228],[-89.68491552580949,40.652206710090766],[-89.68992334296642,40.65221055396683],[-89.68960600035024,40.63798699977578],[-89.68329125598254,40.63792891655355],[-89.68332736738267,40.635932680739536],[-89.67928556825564,40.63598680413449],[-89.67909572803806,40.64008560071049],[-89.67625083148756,40.64010959837373],[-89.67625132298718,40.64159390773954],[-89.67553800034004,40.64160099987272],[-89.67553799967007,40.645172000128774],[-89.67011546091551,40.64579271143209],[-89.67009562575245,40.647069749694175],[-89.66847729032439,40.64713213175188],[-89.66851586231212,40.64597340779837],[-89.66617700030142,40.645731999621745],[-89.66609150476062,40.63278053543108],[-89.67093366754155,40.63268383825332],[-89.67089699992496,40.637943000327425],[-89.6772139154707,40.637926061471894],[-89.67702283162201,40.63120692505924],[-89.65555833802117,40.63084370154792],[-89.65557486297934,40.63347545005471],[-89.65429043214537,40.63350879850386],[-89.65423256033563,40.631727625889255],[-89.65164377415137,40.6317802349008],[-89.65153196967981,40.62866213847302],[-89.65001286753237,40.6286988518161],[-89.64723690487654,40.634416800627],[-89.65084056618507,40.63524949517276],[-89.64591525551671,40.650026581368465],[-89.64250028494064,40.65011719392344],[-89.64280100059915,40.62343799974755],[-89.75650699976187,40.62403500043263],[-89.75658699950249,40.69355200029278],[-89.73722999958343,40.69466999965775],[-89.73509600052176,40.69426400026853],[-89.73034699942461,40.69202000012487],[-89.7138829997209,40.69148499988573],[-89.698270000042,40.688690999762464],[-89.6776069999094,40.688877000034076],[-89.67052400005173,40.686824000311056],[-89.66425200042426,40.68287600046106],[-89.65998900061501,40.68126799972703],[-89.64795600023099,40.682033000034956],[-89.64215699946806,40.68147199982618]]]}},{"id":"45","type":"Feature","properties":{"GISJOIN":"G1701430PC0119","pct_black":0.29},"geometry":{"type":"Polygon","coordinates":[[[-89.75658699950249,40.69355200029278],[-89.75650699976187,40.62403500043263],[-89.63640099974465,40.623238000281496],[-89.64150099978033,40.61773799975911],[-89.65850199969596,40.60155799970621],[-89.66006999990044,40.59645400038291],[-89.65879000038106,40.58917400003577],[-89.65429400049985,40.57978200034267],[-89.65400199958246,40.57823799956107],[-89.65460099950896,40.57303800022618],[-89.65560200011,40.570437999968505],[-89.65800300012768,40.567437999991654],[-89.67540399982543,40.55393799965349],[-89.67946399988388,40.55258199976376],[-89.68365600045065,40.55304599964217],[-89.68688799965591,40.556869999579746],[-89.69184799993694,40.56051800029666],[-89.69899999992435,40.5616059996809],[-89.70079199981389,40.561429999779754],[-89.70781699977861,40.55723800031265],[-89.718328999591,40.55599000025486],[-89.72404099951746,40.5538619996631],[-89.73217000056952,40.552966000181115],[-89.74048999945863,40.55090199985005],[-89.75010599951635,40.55102099998903],[-89.77041199987575,40.5531490000116],[-89.77646700008938,40.55240000028699],[-89.78591100026503,40.548706999942894],[-89.80454099937991,40.54297900036951],[-89.81245900033304,40.54110399965042],[-89.83285299946338,40.530793999983125],[-89.85862399944052,40.51996800009331],[-89.87246300030861,40.513127000311194],[-89.87201800052364,40.5805589997914],[-89.87421999977265,40.58064800019207],[-89.87444400030638,40.58158699978202],[-89.87350599963456,40.62458799966257],[-89.87348999987225,40.658110999837675],[-89.87238499945416,40.689965999853705],[-89.87186899965542,40.69105100002634],[-89.871627999716,40.7112190001485],[-89.75772399960798,40.71087499956456],[-89.75658699950249,40.69355200029278]]]}}]}