{"type":"FeatureCollection","features":[{"id":"0","type":"Feature","properties":{"GISJOIN":"G17014300001","pct_black":11.71},"geometry":{"type":"Polygon","coordinates":[[[-89.61261100011433,40.66666100013383],[-89.61539900046283,40.664437000178104],[-89.6162990001263,40.657336999953515],[-89.61159900017972,40.654137999608956],[-89.61033899944955,40.65198999964447],[-89.64216400014516,40.652166000135054],[-89.6423450002986,40.66690499971761],[-89.6233310000828,40.66666099986961],[-89.62375399964868,40.66670299954293],[-89.617321000324,40.670709999915324],[-89.61447000045698,40.668212000243116],[-89.61485200007137,40.66773000031481],[-89.61261100011433,40.66666100013383]]]}},{"id":"1","type":"Feature","properties":{"GISJOIN":"G17014300002","pct_black":6.09},"geometry":{"type":"Polygon","coordinates":[[[-89.63290400029358,40.666819000023615],[-89.6423450002986,40.66690499971761],[-89.64231100016713,40.66902100010688],[-89.64420600055269,40.668536000394084],[-89.64429999958011,40.66993700030988],[-89.64229699974071,40.670536999616935],[-89.64226399974712,40.6778399999077],[-89.63273799972116,40.67775999996687],[-89.63290400029358,40.666819000023615]]]}},{"id":"2","type":"Feature","properties":{"GISJOIN":"G17014300003","pct_black":0.93},"geometry":{"type":"Polygon","coordinates":[[[-89.62309900041562,40.67771499987445],[-89.62310100002667,40.667262999636854],[-89.62375399964868,40.66670299954293],[-89.6233310000828,40.66666099986961],[-89.63290400029358,40.666819000023615],[-89.63273799972116,40.67775999996687],[-89.62309900041562,40.67771499987445]]]}},{"id":"3","type":"Feature","properties":{"GISJOIN":"G17014300004","pct_black":21.28},"geometry":{"type":"Polygon","coordinates":[[[-89.59215700029573,40.685015000189345],[-89.61261100011433,40.66666100013383],[-89.61485200007137,40.66773000031481],[-89.61447000045698,40.668212000243116],[-89.617321000324,40.670709999915324],[-89.6233699994221,40.66697100025631],[-89.62323299984939,40.6708279998394],[-89.60986299996831,40.67989300020251],[-89.60867399944242,40.68133499961708],[-89.59443499983769,40.69036900025266],[-89.59459235773073,40.68848453346209],[-89.59215700029573,40.685015000189345]]]}},{"id":"4","type":"Feature","properties":{"GISJOIN":"G17014300005","pct_black":11.37},"geometry":{"type":"Polygon","coordinates":[[[-89.62323299984939,40.6708279998394],[-89.6230339995762,40.68135600031373],[-89.60867399944242,40.68133499961708],[-89.60986299996831,40.67989300020251],[-89.62323299984939,40.6708279998394]]]}},{"id":"5","type":"Feature","properties":{"GISJOIN":"G17014300006","pct_black":3.81},"geometry":{"type":"Polygon","coordinates":[[[-89.62294800038572,40.68780299994781],[-89.62309900041562,40.67771499987445],[-89.64226399974712,40.6778399999077],[-89.64332400043367,40.67588100018062],[-89.64459999997747,40.67593699973996],[-89.6446000003067,40.67673700029214],[-89.6459000000775,40.6767370004121],[-89.6459939996393,40.68003600031087],[-89.64219799994846,40.680453000041254],[-89.6419069994862,40.692228999657885],[-89.63249600001394,40.6923480002885],[-89.63257400033166,40.68868499957048],[-89.62773100059167,40.68865899975011],[-89.62775300042034,40.68598899977949],[-89.62550999991426,40.68726499983025],[-89.62294800038572,40.68780299994781]]]}},{"id":"6","type":"Feature","properties":{"GISJOIN":"G17014300007","pct_black":48.03},"geometry":{"type":"Polygon","coordinates":[[[-89.60637100012005,40.682790000191595],[-89.60867399944242,40.68133499961708],[-89.6230339995762,40.68135600031373],[-89.62296499968082,40.686635999543526],[-89.60788899948511,40.68707300021682],[-89.60790100008806,40.68428400001363],[-89.60637100012005,40.682790000191595]]]}},{"id":"7","type":"Feature","properties":{"GISJOIN":"G17014300008","pct_black":78.27},"geometry":{"type":"Polygon","coordinates":[[[-89.60788899948511,40.68707300021682],[-89.62279100032086,40.68682499984259],[-89.62296499968082,40.686635999543526],[-89.62294800038572,40.68780299994781],[-89.6076140002072,40.69478099975687],[-89.60788899948511,40.68707300021682]]]}},{"id":"8","type":"Feature","properties":{"GISJOIN":"G17014300009","pct_black":83.09},"geometry":{"type":"Polygon","coordinates":[[[-89.59931799954963,40.6872710001891],[-89.60637100012005,40.682790000191595],[-89.60792400024974,40.68436999974986],[-89.6076140002072,40.69478099975687],[-89.60574200054975,40.69557899976579],[-89.60104337040889,40.69546196930274],[-89.60099800050843,40.68803700043118],[-89.5999009997867,40.68825200035392],[-89.59931799954963,40.6872710001891]]]}},{"id":"9","type":"Feature","properties":{"GISJOIN":"G17014300010","pct_black":73.98},"geometry":{"type":"Polygon","coordinates":[[[-89.5936959997677,40.69574799966814],[-89.5945809998903,40.69532799992141],[-89.59443499983769,40.69036900025266],[-89.59931799954963,40.6872710001891],[-89.5999009997867,40.68825200035392],[-89.60099800050843,40.68803700043118],[-89.60104337040889,40.69546196930274],[-89.60372000051,40.695554000437575],[-89.60349651628117,40.696909706416825],[-89.60097098837703,40.698221123149075],[-89.59686299964004,40.698750999615385],[-89.5936959997677,40.69574799966814]]]}},{"id":"10","type":"Feature","properties":{"GISJOIN":"G17014300011","pct_black":9.25},"geometry":{"type":"Polygon","coordinates":[[[-89.58395600057946,40.68891100004197],[-89.59215700029573,40.685015000189345],[-89.59459235773073,40.68848453346209],[-89.5945809998903,40.69532799992141],[-89.59058900029295,40.69765700011636],[-89.58539700050518,40.69283700005874],[-89.58395600057946,40.68891100004197]]]}},{"id":"11","type":"Feature","properties":{"GISJOIN":"G17014300012","pct_black":55.46},"geometry":{"type":"Polygon","coordinates":[[[-89.57609700002104,40.69243700038588],[-89.58395600057946,40.68891100004197],[-89.58539700050518,40.69283700005874],[-89.59118600032798,40.698177000104096],[-89.59121399964869,40.69875700010023],[-89.58635499946435,40.70190799954391],[-89.57609700002104,40.69243700038588]]]}},{"id":"12","type":"Feature","properties":{"GISJOIN":"G17014300013","pct_black":5.73},"geometry":{"type":"Polygon","coordinates":[[[-89.56939599969152,40.69543699997828],[-89.57609700002104,40.69243700038588],[-89.58635499946435,40.70190799954391],[-89.58017099981498,40.70582600014506],[-89.56939599969152,40.69543699997828]]]}},{"id":"13","type":"Feature","properties":{"GISJOIN":"G17014300014","pct_black":1.47},"geometry":{"type":"Polygon","coordinates":[[[-89.557195999571,40.701136999658324],[-89.56939599969152,40.69543699997828],[-89.58017099981498,40.70582600014506],[-89.57419600003165,40.70953699986323],[-89.57319600016744,40.70853700043205],[-89.57142999947347,40.709791999759794],[-89.56687999990386,40.70618999963654],[-89.56614299973218,40.706651999589816],[-89.557195999571,40.701136999658324]]]}},{"id":"14","type":"Feature","properties":{"GISJOIN":"G17014300015","pct_black":0.4},"geometry":{"type":"Polygon","coordinates":[[[-89.54650300011178,40.72017399977695],[-89.55529500037782,40.70273700010632],[-89.557195999571,40.701136999658324],[-89.56614299973218,40.706651999589816],[-89.56687999990386,40.70618999963654],[-89.57142999947347,40.709791999759794],[-89.56903099949594,40.71300499997246],[-89.56995299986598,40.714869000353005],[-89.56982299980963,40.71763500025658],[-89.5648930000587,40.717485999813235],[-89.56407900010547,40.71848499963862],[-89.56404499949114,40.71966600037243],[-89.56256299984503,40.72116100011663],[-89.56194099944416,40.7250729999057],[-89.54650300011178,40.72017399977695]]]}},{"id":"15","type":"Feature","properties":{"GISJOIN":"G17014300016","pct_black":2.9},"geometry":{"type":"Polygon","coordinates":[[[-89.57142999947347,40.709791999759794],[-89.57319600016744,40.70853700043205],[-89.57419600003165,40.70953699986323],[-89.5751089994419,40.70912100018163],[-89.58635499946435,40.70190799954391],[-89.58702699969699,40.70427199997779],[-89.5940179997767,40.70432800012902],[-89.59389799977932,40.7123480002742],[-89.57465900025949,40.71234899978425],[-89.57142999947347,40.709791999759794]]]}},{"id":"16","type":"Feature","properties":{"GISJOIN":"G17014300017","pct_black":8.01},"geometry":{"type":"Polygon","coordinates":[[[-89.5940179997767,40.70432800012902],[-89.58702699969699,40.70427199997779],[-89.58635499946435,40.70190799954391],[-89.59100799984688,40.69904399980187],[-89.59118600032798,40.698177000104096],[-89.59058900029295,40.69765700011636],[-89.5936959997677,40.69574799966814],[-89.59686299964004,40.698750999615385],[-89.60097098837703,40.698221123149075],[-89.59889399943962,40.69961499972407],[-89.59880800000077,40.70545000010147],[-89.5940179997767,40.70432800012902]]]}},{"id":"17","type":"Feature","properties":{"GISJOIN":"G17014300018","pct_black":3.22},"geometry":{"type":"Polygon","coordinates":[[[-89.59880800000077,40.70545000010147],[-89.59889399943962,40.69961499972407],[-89.60349651628117,40.696909706416825],[-89.60372000051,40.695554000437575],[-89.60574200054975,40.69557899976579],[-89.60918499961133,40.69412699982705],[-89.61052599944308,40.696346000110736],[-89.61319999994203,40.69637299975833],[-89.61315499945573,40.70687900016756],[-89.60589400000106,40.70674000007324],[-89.59880800000077,40.70545000010147]]]}},{"id":"18","type":"Feature","properties":{"GISJOIN":"G17014300019","pct_black":1.11},"geometry":{"type":"Polygon","coordinates":[[[-89.60918499961133,40.69412699982705],[-89.6205069996462,40.688757999862496],[-89.62294800038572,40.68780299994781],[-89.62283400025852,40.69640600016335],[-89.61052599944308,40.696346000110736],[-89.60918499961133,40.69412699982705]]]}},{"id":"19","type":"Feature","properties":{"GISJOIN":"G17014300020","pct_black":3.46},"geometry":{"type":"Polygon","coordinates":[[[-89.62131999971723,40.72048199964552],[-89.61303699942587,40.714162999974846],[-89.61319999994203,40.69637299975833],[-89.62283400025852,40.69640600016335],[-89.62254899976064,40.69949999962891],[-89.62298400004262,40.69972899958999],[-89.62303300028145,40.70138199987801],[-89.62371700015409,40.70240699988053],[-89.62692999981142,40.702835000014794],[-89.62680799947663,40.703381999877585],[-89.62550200049039,40.70389900015917],[-89.62544599947294,40.70816300019942],[-89.62627399994658,40.7081820000329],[-89.62632299965954,40.70888499994443],[-89.62542699974404,40.70887699993522],[-89.62540699975067,40.709660999984344],[-89.62759600045676,40.709481000035325],[-89.62788999987445,40.70803699954715],[-89.63240099957352,40.70813799965409],[-89.63219100026379,40.71841500008314],[-89.62145999957741,40.71851499953155],[-89.62131999971723,40.72048199964552]]]}},{"id":"20","type":"Feature","properties":{"GISJOIN":"G17014300021","pct_black":10.19},"geometry":{"type":"Polygon","coordinates":[[[-89.59377400057028,40.71762000009431],[-89.5940179997767,40.70432800012902],[-89.60498399939074,40.70663600035459],[-89.61315499945573,40.70687900016756],[-89.61303699942587,40.714162999974846],[-89.61789899989971,40.7179170003582],[-89.59377400057028,40.71762000009431]]]}},{"id":"21","type":"Feature","properties":{"GISJOIN":"G17014300022","pct_black":1.9},"geometry":{"type":"Polygon","coordinates":[[[-89.59363299961673,40.72488300000308],[-89.59377400057028,40.71762000009431],[-89.61789899989971,40.7179170003582],[-89.62131999971723,40.72048199964552],[-89.6197249995412,40.7252469998122],[-89.59363299961673,40.72488300000308]]]}},{"id":"22","type":"Feature","properties":{"GISJOIN":"G17014300023","pct_black":3.12},"geometry":{"type":"Polygon","coordinates":[[[-89.58397399981364,40.73201899967181],[-89.59352300024861,40.73205799982747],[-89.59363299961673,40.72488300000308],[-89.61280200021888,40.725144000150216],[-89.61252100026769,40.73963700030904],[-89.58729800044301,40.73932900038623],[-89.58740100007272,40.739761999904346],[-89.58367900026192,40.73973099980128],[-89.58397399981364,40.73201899967181]]]}},{"id":"23","type":"Feature","properties":{"GISJOIN":"G17014300024","pct_black":4.63},"geometry":{"type":"Polygon","coordinates":[[[-89.57433099948715,40.72998900032853],[-89.5744530003673,40.72498699959424],[-89.57596399995069,40.72124600034293],[-89.57442100005527,40.721129000097854],[-89.57419599984534,40.71923699956558],[-89.59373400027329,40.719476000274994],[-89.59352300024861,40.73205799982747],[-89.5833019999845,40.73202400035596],[-89.58398699989573,40.73143399959034],[-89.58394300002487,40.729849000247945],[-89.58345300027894,40.72994499987315],[-89.583936000125,40.72861400007598],[-89.57916499944943,40.72875100009085],[-89.5791189999595,40.73005600008858],[-89.57433099948715,40.72998900032853]]]}},{"id":"24","type":"Feature","properties":{"GISJOIN":"G17014300025","pct_black":0.0},"geometry":{"type":"Polygon","coordinates":[[[-89.57419599984534,40.71923699956558],[-89.57436800059718,40.717533999617196],[-89.56956900058397,40.71740800013819],[-89.56995299986598,40.714869000353005],[-89.56903099949594,40.71300499997246],[-89.57142999947347,40.709791999759794],[-89.57465900025949,40.71234899978425],[-89.59389799977932,40.7123480002742],[-89.59373400027329,40.719476000274994],[-89.57419599984534,40.71923699956558]]]}},{"id":"25","type":"Feature","properties":{"GISJOIN":"G17014300026","pct_black":0.9},"geometry":{"type":"Polygon","coordinates":[[[-89.55059399981285,40.73873700015628],[-89.54650300011178,40.72017399977695],[-89.56194099944416,40.7250729999057],[-89.56256299984503,40.72116100011663],[-89.56404499949114,40.71966600037243],[-89.56407900010547,40.71848499963862],[-89.56493999972608,40.71745700003699],[-89.57436800059718,40.717533999617196],[-89.57442100005527,40.721129000097854],[-89.57596399995069,40.72124600034293],[-89.5744530003673,40.72498699959424],[-89.5741610001562,40.73912600030362],[-89.55059399981285,40.73873700015628]]]}},{"id":"26","type":"Feature","properties":{"GISJOIN":"G17014300027","pct_black":1.51},"geometry":{"type":"Polygon","coordinates":[[[-89.6197249995412,40.7252469998122],[-89.62111300039372,40.72158300009094],[-89.62145999957741,40.71851499953155],[-89.63219100026379,40.71841500008314],[-89.63227299962699,40.71071500013069],[-89.64192300022182,40.710692999640685],[-89.64226199976447,40.72309699986319],[-89.64148800033738,40.72552199985529],[-89.64311812500829,40.72554066910206],[-89.64314900036824,40.72907699990097],[-89.64147399976649,40.72912099985001],[-89.64134699955407,40.73877399957432],[-89.62959399997233,40.737390000340085],[-89.62431600050671,40.73527400003689],[-89.6213690001027,40.732595999735594],[-89.62020000048946,40.730669000442035],[-89.61950999995287,40.7281019998522],[-89.6197249995412,40.7252469998122]]]}},{"id":"27","type":"Feature","properties":{"GISJOIN":"G17014300028","pct_black":0.88},"geometry":{"type":"Polygon","coordinates":[[[-89.6124800003421,40.746954000254945],[-89.61280200021888,40.725144000150216],[-89.613656000341,40.725151000248815],[-89.6197249995412,40.7252469998122],[-89.61959100015777,40.728660000437905],[-89.62085399998435,40.73187400000666],[-89.62358900012056,40.734770000261754],[-89.62723899976274,40.736717999602334],[-89.6314299996463,40.73767699982293],[-89.65479399979735,40.74026199961953],[-89.65226200029007,40.745368999778776],[-89.650105999617,40.74727000024157],[-89.63097200036843,40.747300999612705],[-89.6124800003421,40.746954000254945]]]}},{"id":"28","type":"Feature","properties":{"GISJOIN":"G17014300029","pct_black":0.77},"geometry":{"type":"Polygon","coordinates":[[[-89.58934499990184,40.753990999997455],[-89.59027099998842,40.75285000003909],[-89.58968900016748,40.75281200023795],[-89.5893203191158,40.7518430578882],[-89.58867489953931,40.751901424705125],[-89.58891500027343,40.75105099987045],[-89.59088199945455,40.75109800006067],[-89.59084000020584,40.746600999590044],[-89.58794000038161,40.74655500014086],[-89.5878510000177,40.74539999970172],[-89.58652900043604,40.74543100019708],[-89.58631699964765,40.746531999759505],[-89.58512799979793,40.74651100039086],[-89.58513399962202,40.74545999983715],[-89.58354999972794,40.74544500015355],[-89.58363399999968,40.74286599979273],[-89.58741599986969,40.74248399986546],[-89.58846400044469,40.7429910002205],[-89.58844199971695,40.74204799966764],[-89.5892490004304,40.74204399985052],[-89.58914914028807,40.74081826039638],[-89.58839600017365,40.740798000214006],[-89.58839399958634,40.73933900029414],[-89.61252100026769,40.73963700030904],[-89.6121150004504,40.76149900003867],[-89.59760299979945,40.76122199974642],[-89.58934499990184,40.753990999997455]]]}},{"id":"29","type":"Feature","properties":{"GISJOIN":"G17014300030","pct_black":0.88},"geometry":{"type":"Polygon","coordinates":[[[-89.6124800003421,40.746954000254945],[-89.63097200036843,40.747300999612705],[-89.650105999617,40.74727000024157],[-89.64770099940422,40.750371000394566],[-89.6480549994848,40.75508699979652],[-89.64609800047145,40.75613700024166],[-89.64329800032576,40.75533699965369],[-89.64069799955384,40.756137000155825],[-89.63840999965261,40.759166000210904],[-89.63628099968845,40.75934700000543],[-89.63229299955391,40.75768900009631],[-89.6321529997519,40.76134499995134],[-89.63192599952775,40.761775000065605],[-89.63057400021864,40.76178300008912],[-89.6121150004504,40.76149900003867],[-89.6124800003421,40.746954000254945]]]}},{"id":"30","type":"Feature","properties":{"GISJOIN":"G17014300031","pct_black":0.61},"geometry":{"type":"Polygon","coordinates":[[[-89.65328899945318,40.790845999708175],[-89.63106900009097,40.790674000102314],[-89.63111300001968,40.78458699981726],[-89.63061783814386,40.783930746543405],[-89.62147699949344,40.78340899963705],[-89.62127999980075,40.77619799994348],[-89.62013499991535,40.77470100012302],[-89.61601200011279,40.77165499973382],[-89.61277400046654,40.76663599978206],[-89.61214899948703,40.76484200039807],[-89.6121150004504,40.76149900003867],[-89.63192599952775,40.761775000065605],[-89.63229299955391,40.75768900009631],[-89.63628099968845,40.75934700000543],[-89.63840999965261,40.759166000210904],[-89.64069799955384,40.756137000155825],[-89.64329800032576,40.75533699965369],[-89.64609800047145,40.75613700024166],[-89.6480549994848,40.75508699979652],[-89.64757200020374,40.75151400033706],[-89.6479170001132,40.74975699981707],[-89.65226200029007,40.745368999778776],[-89.65479399979735,40.74026199961953],[-89.66767000000478,40.7419809997941],[-89.66758100034325,40.74366099967867],[-89.66931600054298,40.748372000021405],[-89.67081599979373,40.750675000153635],[-89.67132100032556,40.752971000139254],[-89.66952700895925,40.77644199434409],[-89.65286600044574,40.776220000069245],[-89.65415099992025,40.77987899992673],[-89.65625799950482,40.79310100020808],[-89.6554310004191,40.79171000033459],[-89.65328899945318,40.790845999708175]]]}},{"id":"31","type":"Feature","properties":{"GISJOIN":"G17014300032","pct_black":0.0},"geometry":{"type":"Polygon","coordinates":[[[-89.59760299979945,40.76122199974642],[-89.6121150004504,40.76149900003867],[-89.61214899948703,40.76484200039807],[-89.61277400046654,40.76663599978206],[-89.61601200011279,40.77165499973382],[-89.62013499991535,40.77470100012302],[-89.62127999980075,40.77619799994348],[-89.62147699949344,40.78340899963705],[-89.60249299991621,40.78331299991975],[-89.60255699967576,40.77127899979455],[-89.60201100015412,40.76857599987137],[-89.60242099958822,40.76849199967344],[-89.59760299979945,40.76122199974642]]]}},{"id":"32","type":"Feature","properties":{"GISJOIN":"G17014300033","pct_black":0.0},"geometry":{"type":"Polygon","coordinates":[[[-89.56389399962387,40.784037000294525],[-89.55569400053311,40.76473699999319],[-89.55599400014322,40.76043699992251],[-89.56422100039849,40.757295999588564],[-89.56487999984324,40.75831000016725],[-89.56658599974351,40.75779099994077],[-89.56668300045318,40.75827400032736],[-89.56753199987475,40.75817099987771],[-89.5677249998556,40.759665999943344],[-89.5695940001949,40.75982800017541],[-89.56948900046733,40.76080100000904],[-89.57257899984737,40.76083499977932],[-89.57266599969898,40.75785499999622],[-89.57396100010524,40.7578650003607],[-89.57485599968248,40.75807000019061],[-89.57504499954935,40.759582000135616],[-89.57693499981967,40.759692999748935],[-89.57692699942557,40.76090200033424],[-89.5834879997122,40.761031999799634],[-89.58358200034313,40.75361399978687],[-89.57375600000354,40.75337899975792],[-89.57379900035029,40.74993400030848],[-89.58066699993338,40.74984499988423],[-89.58115200053336,40.75064400037156],[-89.58196662824774,40.74959503547213],[-89.58319500024311,40.75213700041145],[-89.58485599968223,40.752342000207435],[-89.58483512391282,40.75303701708814],[-89.58560493661885,40.7530369973056],[-89.58499600002708,40.75363700005981],[-89.58605699976681,40.7542759999978],[-89.58859599999937,40.75329499982478],[-89.59760299979945,40.76122199974642],[-89.60242099958822,40.76849199967344],[-89.60201100015412,40.76857599987137],[-89.60255699967576,40.77127899979455],[-89.60244299957488,40.78701700004159],[-89.59750999990902,40.78683000022033],[-89.59744400010123,40.78239400019543],[-89.5831870002761,40.78260399967116],[-89.58309400055667,40.7842329999233],[-89.56389399962387,40.784037000294525]]]}},{"id":"33","type":"Feature","properties":{"GISJOIN":"G17014300034","pct_black":0.0},"geometry":{"type":"Polygon","coordinates":[[[-89.52497299941898,40.849236000328474],[-89.52521300015029,40.842403999579865],[-89.52578900051601,40.840244000336014],[-89.52828500055851,40.83562100000478],[-89.54361300040621,40.81637299997326],[-89.5449579996949,40.8149810000055],[-89.55276599961424,40.810468999673745],[-89.55633399960054,40.80600499956769],[-89.5623940000343,40.793637000273456],[-89.56389399962387,40.784037000294525],[-89.58309400055667,40.7842329999233],[-89.5831870002761,40.78260399967116],[-89.59744400010123,40.78239400019543],[-89.59750999990902,40.78683000022033],[-89.60244299957488,40.78701700004159],[-89.60307499971238,40.79045600017677],[-89.60550800026827,40.793481000359144],[-89.61250600038369,40.805153999844016],[-89.61346500013067,40.82468200035707],[-89.61973199995565,40.83935499957857],[-89.62257200002236,40.84249999990642],[-89.61820099970846,40.843438999539906],[-89.6107089997312,40.84658700031726],[-89.60797599978679,40.84687599963354],[-89.6056349997473,40.84802599969538],[-89.59677000009012,40.850118999829846],[-89.5867659996927,40.850027999930994],[-89.58347799990618,40.84950000028242],[-89.53698999970572,40.849630000336504],[-89.5341729996328,40.84912400036052],[-89.52497299941898,40.849236000328474]]]}},{"id":"34","type":"Feature","properties":{"GISJOIN":"G17014300035","pct_black":0.0},"geometry":{"type":"Polygon","coordinates":[[[-89.60244299957488,40.78701700004159],[-89.60249299991621,40.78331299991975],[-89.62810700021411,40.78352000006931],[-89.63061783814386,40.783930746543405],[-89.63111300001968,40.78458699981726],[-89.63106900009097,40.790674000102314],[-89.64033799983088,40.790757999964335],[-89.63978297974984,40.81591414472882],[-89.64015400042243,40.84220900019492],[-89.62257200002236,40.84249999990642],[-89.6201480003447,40.840039000312025],[-89.61339200015092,40.82435000008828],[-89.61263600057492,40.80552599965036],[-89.60550800026827,40.793481000359144],[-89.60307499971238,40.79045600017677],[-89.60244299957488,40.78701700004159]]]}},{"id":"35","type":"Feature","properties":{"GISJOIN":"G17014300036","pct_black":0.0},"geometry":{"type":"Polygon","coordinates":[[[-89.47232999981854,40.921206000403934],[-89.47423199995946,40.91436300016228],[-89.47522499945451,40.91274100016242],[-89.47962999981358,40.90934699973105],[-89.4834959998661,40.903183999766966],[-89.48846900020311,40.89929899971325],[-89.49190799969702,40.892732999570896],[-89.4934169999863,40.88784600031682],[-89.49957100045893,40.8750359999967],[-89.50746800025073,40.86771599999508],[-89.52497299941898,40.849236000328474],[-89.52431300031846,40.86020300044455],[-89.52403799941806,40.882864000213466],[-89.52438799951285,40.97323900033774],[-89.44769299956663,40.97324600022847],[-89.4492689979038,40.96827801026107],[-89.44797899942455,40.96297399976591],[-89.44812600054726,40.95917900012707],[-89.45506299949987,40.94647099972146],[-89.45516299995165,40.943136000400315],[-89.45399400041495,40.93953799997259],[-89.45530599937308,40.93550700036537],[-89.45886100047677,40.93297799972305],[-89.46437499977785,40.92604200006644],[-89.4729589999074,40.9212029998976],[-89.47232999981854,40.921206000403934]]]}},{"id":"36","type":"Feature","properties":{"GISJOIN":"G17014300037","pct_black":0.0},"geometry":{"type":"Polygon","coordinates":[[[-89.52497299941898,40.849236000328474],[-89.58347799990618,40.84950000028242],[-89.5867659996927,40.850027999930994],[-89.59677000009012,40.850118999829846],[-89.6056349997473,40.84802599969538],[-89.60797599978679,40.84687599963354],[-89.6107089997312,40.84658700031726],[-89.62086300013992,40.8425859996687],[-89.64015400042243,40.84220900019492],[-89.63846100025452,40.973705999614076],[-89.52438799951285,40.97323900033774],[-89.52403799941806,40.882864000213466],[-89.52431300031846,40.86020300044455],[-89.52497299941898,40.849236000328474]]]}},{"id":"37","type":"Feature","properties":{"GISJOIN":"G17014300038","pct_black":0.0},"geometry":{"type":"Polygon","coordinates":[[[-89.63966299992367,40.886353000001684],[-89.81249999975905,40.88658300035451],[-89.9854289997046,40.88764499979058],[-89.9854790001141,40.9744950003994],[-89.93030200041444,40.975035000289814],[-89.83346399967316,40.97498499997165],[-89.75560999986727,40.97393900006858],[-89.63846100025452,40.973705999614076],[-89.63966299992367,40.886353000001684]]]}},{"id":"38","type":"Feature","properties":{"GISJOIN":"G17014300039","pct_black":0.58},"geometry":{"type":"Polygon","coordinates":[[[-89.63966299992367,40.886353000001684],[-89.64009800010125,40.798036999717894],[-89.98533299964042,40.80003200003305],[-89.9854289997046,40.88764499979058],[-89.81249999975905,40.88658300035451],[-89.63966299992367,40.886353000001684]]]}},{"id":"39","type":"Feature","properties":{"GISJOIN":"G17014300040","pct_black":0.0},"geometry":{"type":"Polygon","coordinates":[[[-89.75772399960798,40.71087499956456],[-89.871627999716,40.7112190001485],[-89.87186899965542,40.69105100002634],[-89.87238499945416,40.689965999853705],[-89.87348999987225,40.658110999837675],[-89.87350599963456,40.62458799966257],[-89.89755199982112,40.6253990000685],[-89.98901800015655,40.625835000136455],[-89.98587499947878,40.719673000146635],[-89.98533299964042,40.80003200003305],[-89.75604600010769,40.798629999766426],[-89.75663599968836,40.77526299964189],[-89.75620900053485,40.76868999970469],[-89.75641299996367,40.75169000021867],[-89.75818699974609,40.727262000215724],[-89.75667899958574,40.72526900022944],[-89.75871200052613,40.72151100038811],[-89.75772399960798,40.71087499956456]]]}},{"id":"40","type":"Feature","properties":{"GISJOIN":"G17014300041","pct_black":1.5},"geometry":{"type":"Polygon","coordinates":[[[-89.64033799983088,40.790757999964335],[-89.65328899945318,40.790845999708175],[-89.6554310004191,40.79171000033459],[-89.65625799950482,40.79310100020808],[-89.65415099992025,40.77987899992673],[-89.65286600044574,40.776220000069245],[-89.66952700895925,40.77644199434409],[-89.67132099969488,40.75328100014272],[-89.6709530002663,40.751025000437465],[-89.66931600054298,40.748372000021405],[-89.66758100034325,40.74366099967867],[-89.66767000000478,40.7419809997941],[-89.64134699955407,40.73877399957432],[-89.64147399976649,40.72912099985001],[-89.64314900036824,40.72907699990097],[-89.64311812500829,40.72554066910206],[-89.64148800033738,40.72552199985529],[-89.64226199976447,40.72309699986319],[-89.64192300022182,40.710692999640685],[-89.67616799945164,40.71059699961867],[-89.6967310000584,40.71103200010666],[-89.69884199985461,40.711699999891536],[-89.7052230004178,40.71077899980143],[-89.75772399960798,40.71087499956456],[-89.75871200052613,40.72151100038811],[-89.75667899958574,40.72526900022944],[-89.75818699974609,40.727262000215724],[-89.75641299996367,40.75169000021867],[-89.75620900053485,40.76868999970469],[-89.75663599968836,40.77526299964189],[-89.75604600010769,40.798629999766426],[-89.64009800010125,40.798036999717894],[-89.64033799983088,40.790757999964335]]]}},{"id":"41","type":"Feature","properties":{"GISJOIN":"G17014300042","pct_black":0.0},"geometry":{"type":"Polygon","coordinates":[[[-89.55609400036238,40.74943699971107],[-89.55059399981285,40.73873700015628],[-89.5741610001562,40.73912600030362],[-89.57409799999631,40.741576000356666],[-89.57682399973139,40.74295200020668],[-89.58077199991381,40.74640500028077],[-89.58631699964765,40.746531999759505],[-89.58652900043604,40.74543100019708],[-89.5878510000177,40.74539999970172],[-89.58794000038161,40.74655500014086],[-89.59084000020584,40.746600999590044],[-89.59088199945455,40.75109800006067],[-89.58891500027343,40.75105099987045],[-89.58867489953931,40.751901424705125],[-89.58962899983749,40.75212199966892],[-89.58968900016748,40.75281200023795],[-89.59027099998842,40.75285000003909],[-89.59014100036107,40.7535240003618],[-89.58934499990184,40.753990999997455],[-89.58859599999937,40.75329499982478],[-89.58605699976681,40.7542759999978],[-89.58499600002708,40.75363700005981],[-89.58560493661885,40.7530369973056],[-89.58483512391282,40.75303701708814],[-89.58485599968223,40.752342000207435],[-89.58319500024311,40.75213700041145],[-89.58196662824774,40.74959503547213],[-89.58115200053336,40.75064400037156],[-89.58066699993338,40.74984499988423],[-89.57379900035029,40.74993400030848],[-89.57375600000354,40.75337899975792],[-89.58358200034313,40.75361399978687],[-89.5834879997122,40.761031999799634],[-89.57692699942557,40.76090200033424],[-89.57693499981967,40.759692999748935],[-89.57504499954935,40.759582000135616],[-89.57485599968248,40.75807000019061],[-89.57396100010524,40.7578650003607],[-89.57266599969898,40.75785499999622],[-89.57257899984737,40.76083499977932],[-89.56948900046733,40.76080100000904],[-89.5695940001949,40.75982800017541],[-89.5677249998556,40.759665999943344],[-89.56753199987475,40.75817099987771],[-89.56668300045318,40.75827400032736],[-89.56658599974351,40.75779099994077],[-89.56487999984324,40.75831000016725],[-89.56422100039849,40.757295999588564],[-89.55599400014322,40.76043699992251],[-89.55609400036238,40.74943699971107]]]}},{"id":"42","type":"Feature","properties":{"GISJOIN":"G17014300043","pct_black":1.11},"geometry":{"type":"Polygon","coordinates":[[[-89.57409799999631,40.741576000356666],[-89.57433099948715,40.72998900032853],[-89.5791189999595,40.73005600008858],[-89.57916499944943,40.72875100009085],[-89.583936000125,40.72861400007598],[-89.58345300027894,40.72994499987315],[-89.58394300002487,40.729849000247945],[-89.58398699989573,40.73143399959034],[-89.5833019999845,40.73202400035596],[-89.58397399981364,40.73201899967181],[-89.58367900026192,40.73973099980128],[-89.58839399958634,40.73933900029414],[-89.58839600017365,40.740798000214006],[-89.58914914028807,40.74081826039638],[-89.5892490004304,40.74204399985052],[-89.58844199971695,40.74204799966764],[-89.58846400044469,40.7429910002205],[-89.58741599986969,40.74248399986546],[-89.58363399999968,40.74286599979273],[-89.58354999972794,40.74544500015355],[-89.58513399962202,40.74545999983715],[-89.58512799979793,40.74651100039086],[-89.58077199991381,40.74640500028077],[-89.57682399973139,40.74295200020668],[-89.57409799999631,40.741576000356666]]]}},{"id":"43","type":"Feature","properties":{"GISJOIN":"G17014300044","pct_black":0.64},"geometry":{"type":"Polygon","coordinates":[[[-89.62254899976064,40.69949999962891],[-89.62294800038572,40.68780299994781],[-89.62550999991426,40.68726499983025],[-89.62775300042034,40.68598899977949],[-89.62773100059167,40.68865899975011],[-89.63257400033166,40.68868499957048],[-89.63249600001394,40.6923480002885],[-89.6419069994862,40.692228999657885],[-89.64192300022182,40.710692999640685],[-89.63227299962699,40.71071500013069],[-89.63240099957352,40.70813799965409],[-89.62788999987445,40.70803699954715],[-89.62759600045676,40.709481000035325],[-89.62540699975067,40.709660999984344],[-89.62542699974404,40.70887699993522],[-89.62632299965954,40.70888499994443],[-89.62627399994658,40.7081820000329],[-89.62544599947294,40.70816300019942],[-89.62550200049039,40.70389900015917],[-89.62680799947663,40.703381999877585],[-89.62692999981142,40.702835000014794],[-89.62371700015409,40.70240699988053],[-89.62303300028145,40.70138199987801],[-89.62298400004262,40.69972899958999],[-89.62254899976064,40.69949999962891]]]}},{"id":"44","type":"Feature","properties":{"GISJOIN":"G17014300045","pct_black":0.71},"geometry":{"type":"Polygon","coordinates":[[[-89.64192300022182,40.710692999640685],[-89.64215699946806,40.68147199982618],[-89.64795600023099,40.682033000034956],[-89.65831999953531,40.68108000015369],[-89.66222100022435,40.68193099986883],[-89.67052400005173,40.686824000311056],[-89.67720300020497,40.68882599975822],[-89.698270000042,40.688690999762464],[-89.7138829997209,40.69148499988573],[-89.73034699942461,40.69202000012487],[-89.73509600052176,40.69426400026853],[-89.73722999958343,40.69466999965775],[-89.75658699950249,40.69355200029278],[-89.75772399960798,40.71087499956456],[-89.7052230004178,40.71077899980143],[-89.69884199985461,40.711699999891536],[-89.6967310000584,40.71103200010666],[-89.67616799945164,40.71059699961867],[-89.64192300022182,40.710692999640685]]]}},{"id":"45","type":"Feature","properties":{"GISJOIN":"G17014300046","pct_black":0.0},"geometry":{"type":"Polygon","coordinates":[[[-89.64244399957222,40.65429100029117],[-89.64216400014516,40.652166000135054],[-89.61033899944955,40.65198999964447],[-89.61038699966059,40.650405999968704],[-89.61145899942174,40.647910000166924],[-89.61760300027547,40.63946299970509],[-89.62131600000022,40.635527000085226],[-89.63640099974465,40.623238000281496],[-89.68046299954614,40.62352799993794],[-89.68030800046363,40.65584799969632],[-89.67060300058361,40.65593799979755],[-89.66291400024247,40.65413400045139],[-89.65729999958447,40.653846000062394],[-89.65353600033055,40.65454900024808],[-89.64821700025448,40.6540019999188],[-89.64712699976238,40.65464399981704],[-89.6464800000699,40.65386499974701],[-89.64244399957222,40.65429100029117]],[[-89.65409458031344,40.64157906361522],[-89.66619285373916,40.641298065044076],[-89.66609150476062,40.63278053543108],[-89.67093366754155,40.63268383825332],[-89.67094460808941,40.630889645437904],[-89.65260300014135,40.630915999588865],[-89.65154399981542,40.63522900042954],[-89.65198831972765,40.64084788211664],[-89.654071959338,40.6408035785146],[-89.65409458031344,40.64157906361522]]]}},{"id":"46","type":"Feature","properties":{"GISJOIN":"G17014300047","pct_black":5.88},"geometry":{"type":"Polygon","coordinates":[[[-89.65409458031344,40.64157906361522],[-89.654071959338,40.6408035785146],[-89.65198831972765,40.64084788211664],[-89.65154399981542,40.63522900042954],[-89.65260300014135,40.630915999588865],[-89.67094460808941,40.630889645437904],[-89.67093366754155,40.63268383825332],[-89.66609150476062,40.63278053543108],[-89.66619285373916,40.641298065044076],[-89.65409458031344,40.64157906361522]]]}},{"id":"47","type":"Feature","properties":{"GISJOIN":"G17014300048","pct_black":0.06},"geometry":{"type":"Polygon","coordinates":[[[-89.64215699946806,40.68147199982618],[-89.64219799994846,40.680453000041254],[-89.6459939996393,40.68003600031087],[-89.64608000035184,40.67932900023502],[-89.6459000000775,40.6767370004121],[-89.6446000003067,40.67673700029214],[-89.64459999997747,40.67593699973996],[-89.64332400043367,40.67588100018062],[-89.64226399974712,40.6778399999077],[-89.64229699974071,40.670536999616935],[-89.64429999958011,40.66993700030988],[-89.64420600055269,40.668536000394084],[-89.64231100016713,40.66902100010688],[-89.64244399957222,40.65429100029117],[-89.6464800000699,40.65386499974701],[-89.64712699976238,40.65464399981704],[-89.64821700025448,40.6540019999188],[-89.65353600033055,40.65454900024808],[-89.65729999958447,40.653846000062394],[-89.66291400024247,40.65413400045139],[-89.67060300058361,40.65593799979755],[-89.68030800046363,40.65584799969632],[-89.68046299954614,40.62352799993794],[-89.75650699976187,40.62403500043263],[-89.75658699950249,40.69355200029278],[-89.73722999958343,40.69466999965775],[-89.73509600052176,40.69426400026853],[-89.73034699942461,40.69202000012487],[-89.7138829997209,40.69148499988573],[-89.698270000042,40.688690999762464],[-89.6776069999094,40.688877000034076],[-89.67052400005173,40.686824000311056],[-89.66425200042426,40.68287600046106],[-89.65998900061501,40.68126799972703],[-89.64795600023099,40.682033000034956],[-89.64215699946806,40.68147199982618]]]}},{"id":"48","type":"Feature","properties":{"GISJOIN":"G17014300049","pct_black":1.28},"geometry":{"type":"Polygon","coordinates":[[[-89.75658699950249,40.69355200029278],[-89.75650699976187,40.62403500043263],[-89.63640099974465,40.623238000281496],[-89.64150099978033,40.61773799975911],[-89.65850199969596,40.60155799970621],[-89.66006999990044,40.59645400038291],[-89.65879000038106,40.58917400003577],[-89.65429400049985,40.57978200034267],[-89.65400199958246,40.57823799956107],[-89.65460099950896,40.57303800022618],[-89.65560200011,40.570437999968505],[-89.65800300012768,40.567437999991654],[-89.67540399982543,40.55393799965349],[-89.67946399988388,40.55258199976376],[-89.68365600045065,40.55304599964217],[-89.68688799965591,40.556869999579746],[-89.69184799993694,40.56051800029666],[-89.69899999992435,40.5616059996809],[-89.70079199981389,40.561429999779754],[-89.70781699977861,40.55723800031265],[-89.718328999591,40.55599000025486],[-89.72404099951746,40.5538619996631],[-89.73217000056952,40.552966000181115],[-89.74048999945863,40.55090199985005],[-89.75010599951635,40.55102099998903],[-89.77041199987575,40.5531490000116],[-89.77646700008938,40.55240000028699],[-89.78591100026503,40.548706999942894],[-89.80454099937991,40.54297900036951],[-89.81245900033304,40.54110399965042],[-89.83285299946338,40.530793999983125],[-89.85862399944052,40.51996800009331],[-89.87246300030861,40.513127000311194],[-89.87201800052364,40.5805589997914],[-89.87421999977265,40.58064800019207],[-89.87444400030638,40.58158699978202],[-89.87350599963456,40.62458799966257],[-89.87348999987225,40.658110999837675],[-89.87238499945416,40.689965999853705],[-89.87186899965542,40.69105100002634],[-89.871627999716,40.7112190001485],[-89.75772399960798,40.71087499956456],[-89.75658699950249,40.69355200029278]]]}}]}