{"type":"FeatureCollection","features":[{"id":"820","type":"Feature","properties":{"GISJOIN":"G40014300001","pct_black":0.03},"geometry":{"type":"Polygon","coordinates":[[[-95.91907999990852,36.20653499975942],[-95.91732599971228,36.20568399978399],[-95.91615599997333,36.20608500023899],[-95.90461099985438,36.20613699988038],[-95.90455899999233,36.17707900042747],[-95.92250299957175,36.1770680003756],[-95.92251000013923,36.20609499977114],[-95.91907999990852,36.20653499975942]]]}},{"id":"821","type":"Feature","properties":{"GISJOIN":"G40014300002","pct_black":96.23},"geometry":{"type":"Polygon","coordinates":[[[-95.95571400041999,36.2061470004266],[-95.92251000013923,36.20609499977114],[-95.92244600003738,36.191576000433756],[-95.97547300026547,36.19140000027807],[-95.97547399980294,36.19693299973865],[-95.97480000019638,36.197621000258614],[-95.95571400041999,36.2061470004266]]]}},{"id":"822","type":"Feature","properties":{"GISJOIN":"G40014300003","pct_black":0.13},"geometry":{"type":"Polygon","coordinates":[[[-95.94030700021649,36.19157299980678],[-95.92244600003738,36.191576000433756],[-95.92250299957175,36.1770680003756],[-95.94028200033088,36.17713000041818],[-95.94030700021649,36.19157299980678]]]}},{"id":"823","type":"Feature","properties":{"GISJOIN":"G40014300004","pct_black":0.0},"geometry":{"type":"Polygon","coordinates":[[[-95.95133399954582,36.19159899958029],[-95.94030700021649,36.19157299980678],[-95.94028200033088,36.17713000041818],[-95.95823899981905,36.177128999834316],[-95.95824699969266,36.18661900039914],[-95.95133399954582,36.19159899958029]]]}},{"id":"824","type":"Feature","properties":{"GISJOIN":"G40014300005","pct_black":98.96},"geometry":{"type":"Polygon","coordinates":[[[-95.97547300026547,36.19140000027807],[-95.95133399954582,36.19159899958029],[-95.97169999969896,36.177016999928966],[-95.9732439998158,36.177016999601875],[-95.97298900040589,36.17774499965715],[-95.97347899961318,36.178040999639244],[-95.97417500043426,36.17761400042667],[-95.97349400039128,36.17698099989336],[-95.97545900015986,36.176929999718524],[-95.97547300026547,36.19140000027807]]]}},{"id":"825","type":"Feature","properties":{"GISJOIN":"G40014300006","pct_black":99.61},"geometry":{"type":"Polygon","coordinates":[[[-95.9813220002589,36.1913869998914],[-95.97547300026547,36.19140000027807],[-95.97545900015986,36.176929999718524],[-95.98804900045974,36.17696800032114],[-95.98797500012478,36.18104700008153],[-95.9845940003004,36.18107499997812],[-95.98447199953372,36.182327999632086],[-95.98360000046667,36.18234999966874],[-95.98362600048047,36.18425000030166],[-95.98454299952064,36.184253000251246],[-95.98448999975955,36.18687099961562],[-95.98375700005876,36.1877099998567],[-95.98176700027851,36.18771400021968],[-95.9813220002589,36.1913869998914]]]}},{"id":"826","type":"Feature","properties":{"GISJOIN":"G40014300007","pct_black":77.98},"geometry":{"type":"Polygon","coordinates":[[[-95.99354600006126,36.19145399964783],[-95.9813220002589,36.1913869998914],[-95.98176700027851,36.18771400021968],[-95.98375700005876,36.1877099998567],[-95.98448999975955,36.18687099961562],[-95.98454299952064,36.184253000251246],[-95.98362600048047,36.18425000030166],[-95.98360000046667,36.18234999966874],[-95.98447199953372,36.182327999632086],[-95.9845940003004,36.18107499997812],[-95.98797500012478,36.18104700008153],[-95.98804900045974,36.17696800032114],[-95.9935049996551,36.17691299964946],[-95.99354600006126,36.19145399964783]]]}},{"id":"827","type":"Feature","properties":{"GISJOIN":"G40014300008","pct_black":1.87},"geometry":{"type":"Polygon","coordinates":[[[-96.00109600045236,36.191481999847625],[-95.99354600006126,36.19145399964783],[-95.9935049996551,36.17691299964946],[-96.0013579995214,36.176918999973495],[-96.00109600045236,36.191481999847625]]]}},{"id":"828","type":"Feature","properties":{"GISJOIN":"G40014300009","pct_black":16.68},"geometry":{"type":"Polygon","coordinates":[[[-96.0013579995214,36.176918999973495],[-95.9935049996551,36.17691299964946],[-95.9935330005253,36.164259000388704],[-95.99292500020739,36.16235599994335],[-96.00010097849913,36.15923553598617],[-96.00112214713315,36.161179331826716],[-96.00147500022233,36.16499200002331],[-96.00107499993263,36.16659200006603],[-96.0013579995214,36.176918999973495]]]}},{"id":"829","type":"Feature","properties":{"GISJOIN":"G40014300010","pct_black":99.81},"geometry":{"type":"Polygon","coordinates":[[[-95.9935049996551,36.17691299964946],[-95.98325699964302,36.1769600002714],[-95.9847630001563,36.16363500009794],[-95.98389083999717,36.15943135343579],[-95.98643675194054,36.158201073152355],[-95.98721700055135,36.15940899965647],[-95.98958700011998,36.15854599984476],[-95.99175199948077,36.16257599990563],[-95.99292500020739,36.16235599994335],[-95.99356299962798,36.16519600006071],[-95.9935049996551,36.17691299964946]]]}},{"id":"830","type":"Feature","properties":{"GISJOIN":"G40014300011","pct_black":99.83},"geometry":{"type":"Polygon","coordinates":[[[-95.9732439998158,36.177016999601875],[-95.97169999969896,36.177016999928966],[-95.9796730005323,36.171411000365744],[-95.97997174423051,36.17060149389112],[-95.9765030078578,36.17054034366089],[-95.97657293401721,36.16758110321439],[-95.98040384139408,36.16757095644179],[-95.98004880408048,36.1645374329941],[-95.98108853502839,36.164526975041156],[-95.98107743195425,36.16299281784581],[-95.98177472825827,36.16261901860345],[-95.98162890782328,36.16185001632322],[-95.98114586149622,36.16208354273812],[-95.98119300007414,36.16057100014818],[-95.98279500043064,36.160302000014966],[-95.98395826003932,36.15920429812863],[-95.9847630001563,36.16363500009794],[-95.98325699964302,36.1769600002714],[-95.97349400039128,36.17698099989336],[-95.97417500043426,36.17761400042667],[-95.97347899961318,36.178040999639244],[-95.97298900040589,36.17774499965715],[-95.9732439998158,36.177016999601875]]]}},{"id":"831","type":"Feature","properties":{"GISJOIN":"G40014300012","pct_black":1.01},"geometry":{"type":"Polygon","coordinates":[[[-95.96706100048905,36.18029400020058],[-95.96709799995297,36.15967900031892],[-95.98096199982756,36.15979500010316],[-95.98102134465363,36.15869288531116],[-95.98208665346341,36.158815116421174],[-95.98153899979772,36.159954999697575],[-95.98279500043064,36.160302000014966],[-95.98119300007414,36.16057100014818],[-95.98114586149622,36.16208354273812],[-95.98162890782328,36.16185001632322],[-95.98177472825827,36.16261901860345],[-95.98107743195425,36.16299281784581],[-95.98108853502839,36.164526975041156],[-95.98004880408048,36.1645374329941],[-95.98040384139408,36.16757095644179],[-95.97657293401721,36.16758110321439],[-95.9765030078578,36.17054034366089],[-95.97997174423051,36.17060149389112],[-95.9796730005323,36.171411000365744],[-95.96706100048905,36.18029400020058]]]}},{"id":"832","type":"Feature","properties":{"GISJOIN":"G40014300013","pct_black":0.0},"geometry":{"type":"Polygon","coordinates":[[[-95.95824699969266,36.18661900039914],[-95.95817799963538,36.15983399982832],[-95.96709799995297,36.15967900031892],[-95.96705200020867,36.18039100018356],[-95.95824699969266,36.18661900039914]]]}},{"id":"833","type":"Feature","properties":{"GISJOIN":"G40014300014","pct_black":0.01},"geometry":{"type":"Polygon","coordinates":[[[-95.95823899981905,36.177128999834316],[-95.94028200033088,36.17713000041818],[-95.9403019998018,36.16078600040764],[-95.95817299962415,36.16095700002522],[-95.95823899981905,36.177128999834316]]]}},{"id":"834","type":"Feature","properties":{"GISJOIN":"G40014300015","pct_black":0.02},"geometry":{"type":"Polygon","coordinates":[[[-95.94028200033088,36.17713000041818],[-95.92250299957175,36.1770680003756],[-95.92247999946231,36.160740999981165],[-95.9403019998018,36.16078600040764],[-95.94028200033088,36.17713000041818]]]}},{"id":"835","type":"Feature","properties":{"GISJOIN":"G40014300016","pct_black":0.0},"geometry":{"type":"Polygon","coordinates":[[[-95.90455899999233,36.17707900042747],[-95.90456999997842,36.160741000107855],[-95.9144980004809,36.1608339996752],[-95.91569199973121,36.16007900032041],[-95.91567800023383,36.160773999944674],[-95.92247999946231,36.160740999981165],[-95.92250299957175,36.1770680003756],[-95.90455899999233,36.17707900042747]]]}},{"id":"836","type":"Feature","properties":{"GISJOIN":"G40014300017","pct_black":0.0},"geometry":{"type":"Polygon","coordinates":[[[-95.91410299993612,36.16082799983667],[-95.90456999997842,36.160741000107855],[-95.90454699946197,36.14792999981112],[-95.92251299975923,36.14775800040831],[-95.92247999946231,36.160740999981165],[-95.91567800023383,36.160773999944674],[-95.91569199973121,36.16007900032041],[-95.91410299993612,36.16082799983667]]]}},{"id":"837","type":"Feature","properties":{"GISJOIN":"G40014300018","pct_black":0.0},"geometry":{"type":"Polygon","coordinates":[[[-95.9314069996848,36.16073799986779],[-95.92247999946231,36.160740999981165],[-95.92251299975923,36.14775800040831],[-95.93145299995402,36.14779299999015],[-95.9314069996848,36.16073799986779]]]}},{"id":"838","type":"Feature","properties":{"GISJOIN":"G40014300019","pct_black":0.0},"geometry":{"type":"Polygon","coordinates":[[[-95.9314069996848,36.16073799986779],[-95.93145299995402,36.14779299999015],[-95.94039999976658,36.147835999975456],[-95.9403019998018,36.16078600040764],[-95.9314069996848,36.16073799986779]]]}},{"id":"839","type":"Feature","properties":{"GISJOIN":"G40014300020","pct_black":0.0},"geometry":{"type":"Polygon","coordinates":[[[-95.95817299962415,36.16095700002522],[-95.9403019998018,36.16078600040764],[-95.94031699989259,36.154692999880126],[-95.958185999807,36.15467699966597],[-95.95817299962415,36.16095700002522]]]}},{"id":"840","type":"Feature","properties":{"GISJOIN":"G40014300021","pct_black":0.0},"geometry":{"type":"Polygon","coordinates":[[[-95.958185999807,36.15467699966597],[-95.94031699989259,36.154692999880126],[-95.94039999976658,36.147835999975456],[-95.95818400032549,36.147783000186706],[-95.958185999807,36.15467699966597]]]}},{"id":"841","type":"Feature","properties":{"GISJOIN":"G40014300022","pct_black":0.05},"geometry":{"type":"Polygon","coordinates":[[[-95.9756049997368,36.15966500001719],[-95.95817799963538,36.15983399982832],[-95.95818400032549,36.147783000186706],[-95.95997000044247,36.1478009999346],[-95.96257300046888,36.15089100033012],[-95.96711099983668,36.15285600012875],[-95.96710200038355,36.155698000098845],[-95.97561299975389,36.155698000097274],[-95.9756049997368,36.15966500001719]]]}},{"id":"842","type":"Feature","properties":{"GISJOIN":"G40014300023","pct_black":0.0},"geometry":{"type":"Polygon","coordinates":[[[-95.96710200038355,36.155698000098845],[-95.96711099983668,36.15285600012875],[-95.96257300046888,36.15089100033012],[-95.95997000044247,36.1478009999346],[-95.97560200023815,36.14788900033633],[-95.97561299975389,36.155698000097274],[-95.96710200038355,36.155698000098845]]]}},{"id":"843","type":"Feature","properties":{"GISJOIN":"G40014300024","pct_black":0.0},"geometry":{"type":"Polygon","coordinates":[[[-95.98096199982756,36.15979500010316],[-95.9756049997368,36.15966500001719],[-95.97560200023815,36.14788900033633],[-95.9829850001209,36.148221000364714],[-95.98337847780782,36.1493342902925],[-95.9821092066311,36.14984798157129],[-95.98256331569354,36.15049053997041],[-95.98215215965175,36.15057026946617],[-95.98218041701071,36.157856960456],[-95.9816578575187,36.15867533766438],[-95.98102134465363,36.15869288531116],[-95.98096199982756,36.15979500010316]]]}},{"id":"844","type":"Feature","properties":{"GISJOIN":"G40014300025","pct_black":1.72},"geometry":{"type":"Polygon","coordinates":[[[-95.99175199948077,36.16257599990563],[-95.98958700011998,36.15854599984476],[-95.98721700055135,36.15940899965647],[-95.98643675194054,36.158201073152355],[-95.98386647559283,36.15922209004082],[-95.98279500043064,36.160302000014966],[-95.98153899979772,36.159954999697575],[-95.98221399961491,36.157627999861475],[-95.98215215965175,36.15057026946617],[-95.98256331569354,36.15049053997041],[-95.9821092066311,36.14984798157129],[-95.98337847780782,36.1493342902925],[-95.9829850001209,36.148221000364714],[-95.98901299955484,36.14593900010633],[-95.99232499984385,36.145995000139706],[-95.99259999947864,36.14834999956961],[-95.9937519999455,36.147858000104016],[-96.00010097849913,36.15923553598617],[-95.99292500020739,36.16235599994335],[-95.99175199948077,36.16257599990563]]]}},{"id":"845","type":"Feature","properties":{"GISJOIN":"G40014300026","pct_black":0.05},"geometry":{"type":"Polygon","coordinates":[[[-95.99946399957396,36.15848100013282],[-95.9937519999455,36.147858000104016],[-96.0021435494396,36.1479825404779],[-96.00222383040797,36.1453670863773],[-96.00473600032232,36.14258199976608],[-96.00677499947301,36.14389200018682],[-96.00696099946553,36.14797200001091],[-96.00588800050716,36.14797599991377],[-96.0058700005002,36.150250000026126],[-96.00753699976046,36.15012499976823],[-96.00753799954165,36.15486899983264],[-96.00655700019634,36.15491299980567],[-96.00680800055329,36.15590700025939],[-95.99946399957396,36.15848100013282]]]}},{"id":"846","type":"Feature","properties":{"GISJOIN":"G40014300027","pct_black":0.0},"geometry":{"type":"Polygon","coordinates":[[[-96.01985199995548,36.16125200015574],[-96.00105499962524,36.16129400023833],[-95.99945982357696,36.158482164446674],[-96.00680800055329,36.15590700025939],[-96.00655700019634,36.15491299980567],[-96.00753799954165,36.15486899983264],[-96.00753699976046,36.15012499976823],[-96.0058700005002,36.150250000026126],[-96.00588800050716,36.14797599991377],[-96.00696099946553,36.14797200001091],[-96.00677499947301,36.14389200018682],[-96.0113749998778,36.14589199985345],[-96.02044400046633,36.14665499975624],[-96.02034900047873,36.15979399988393],[-96.01985199995548,36.16125200015574]]]}},{"id":"847","type":"Feature","properties":{"GISJOIN":"G40014300028","pct_black":0.0},"geometry":{"type":"Polygon","coordinates":[[[-96.01985199995548,36.16125200015574],[-96.02044400046633,36.14665499975624],[-96.02530282373687,36.14601596614513],[-96.0262114636178,36.14518070484475],[-96.02927599973232,36.14429100001063],[-96.02923299964714,36.16122000000992],[-96.01985199995548,36.16125200015574]]]}},{"id":"848","type":"Feature","properties":{"GISJOIN":"G40014300029","pct_black":0.0},"geometry":{"type":"Polygon","coordinates":[[[-96.02923299964714,36.16122000000992],[-96.02922400012314,36.1568820002193],[-96.03256499968394,36.157387000245215],[-96.03478300003225,36.157119000192914],[-96.0834299994517,36.14258299994959],[-96.08319900055508,36.158497999639394],[-96.08373099991623,36.16041199988737],[-96.08327099953307,36.16091600029636],[-96.02923299964714,36.16122000000992]]]}},{"id":"849","type":"Feature","properties":{"GISJOIN":"G40014300030","pct_black":0.0},"geometry":{"type":"Polygon","coordinates":[[[-96.02922400012314,36.1568820002193],[-96.02927599973232,36.14429100001063],[-96.04105999962835,36.14077199989877],[-96.04737699972783,36.14027200022356],[-96.04719500045707,36.153362999889055],[-96.03478300003225,36.157119000192914],[-96.03256499968394,36.157387000245215],[-96.02922400012314,36.1568820002193]]]}},{"id":"850","type":"Feature","properties":{"GISJOIN":"G40014300031","pct_black":0.33},"geometry":{"type":"Polygon","coordinates":[[[-95.99259999947864,36.14834999956961],[-95.99232499984385,36.145995000139706],[-95.98901299955484,36.14593900010633],[-95.98754400014911,36.14669799997134],[-95.98732099960056,36.144942000170694],[-95.98736000031681,36.13605800006986],[-95.98889999995983,36.134294000121784],[-95.98887699983658,36.13336900028053],[-95.99217799949444,36.13182900030929],[-96.0008259995392,36.14004899980539],[-96.00473600032232,36.14258199976608],[-96.00222383040797,36.1453670863773],[-96.0021435494396,36.1479825404779],[-95.9937519999455,36.147858000104016],[-95.99259999947864,36.14834999956961]]]}},{"id":"851","type":"Feature","properties":{"GISJOIN":"G40014300032","pct_black":0.52},"geometry":{"type":"Polygon","coordinates":[[[-95.98270499980426,36.14812900040415],[-95.97560200023815,36.14788900033633],[-95.97563600049588,36.13335399962347],[-95.98887699983658,36.13336900028053],[-95.98889999995983,36.134294000121784],[-95.98736000031681,36.13605800006986],[-95.98754400014911,36.14669799997134],[-95.98270499980426,36.14812900040415]]]}},{"id":"852","type":"Feature","properties":{"GISJOIN":"G40014300033","pct_black":0.2},"geometry":{"type":"Polygon","coordinates":[[[-95.97565399963797,36.140620999938456],[-95.95821499948858,36.140513999870535],[-95.95819899946791,36.13323000010324],[-95.97563600049588,36.13335399962347],[-95.97565399963797,36.140620999938456]]]}},{"id":"853","type":"Feature","properties":{"GISJOIN":"G40014300034","pct_black":0.09},"geometry":{"type":"Polygon","coordinates":[[[-95.97560200023815,36.14788900033633],[-95.95818400032549,36.147783000186706],[-95.95821499948858,36.140513999870535],[-95.97565399963797,36.140620999938456],[-95.97560200023815,36.14788900033633]]]}},{"id":"854","type":"Feature","properties":{"GISJOIN":"G40014300035","pct_black":0.09},"geometry":{"type":"Polygon","coordinates":[[[-95.94039999976658,36.147835999975456],[-95.94032300040494,36.14055800028765],[-95.95821499948858,36.140513999870535],[-95.95818400032549,36.147783000186706],[-95.94039999976658,36.147835999975456]]]}},{"id":"855","type":"Feature","properties":{"GISJOIN":"G40014300036","pct_black":0.13},"geometry":{"type":"Polygon","coordinates":[[[-95.95821499948858,36.140513999870535],[-95.94032300040494,36.14055800028765],[-95.94035500046955,36.13323599976505],[-95.95819899946791,36.13323000010324],[-95.95821499948858,36.140513999870535]]]}},{"id":"856","type":"Feature","properties":{"GISJOIN":"G40014300037","pct_black":0.0},"geometry":{"type":"Polygon","coordinates":[[[-95.94039999976658,36.147835999975456],[-95.92251299975923,36.14775800040831],[-95.92247699962942,36.1333089999449],[-95.94035500046955,36.13323599976505],[-95.94039999976658,36.147835999975456]]]}},{"id":"857","type":"Feature","properties":{"GISJOIN":"G40014300038","pct_black":0.07},"geometry":{"type":"Polygon","coordinates":[[[-95.90454699946197,36.14792999981112],[-95.90461600005999,36.133427999940245],[-95.92247699962942,36.1333089999449],[-95.92251299975923,36.14775800040831],[-95.90454699946197,36.14792999981112]]]}},{"id":"858","type":"Feature","properties":{"GISJOIN":"G40014300039","pct_black":0.0},"geometry":{"type":"Polygon","coordinates":[[[-95.94035500046955,36.13323599976505],[-95.92247699962942,36.1333089999449],[-95.92236699971923,36.11880900019399],[-95.94027099968515,36.11876599974879],[-95.94035500046955,36.13323599976505]]]}},{"id":"859","type":"Feature","properties":{"GISJOIN":"G40014300040","pct_black":0.0},"geometry":{"type":"Polygon","coordinates":[[[-95.94027099968515,36.11876599974879],[-95.92236699971923,36.11880900019399],[-95.92232999944183,36.10435800036129],[-95.94021599981821,36.10431299961179],[-95.94027099968515,36.11876599974879]]]}},{"id":"860","type":"Feature","properties":{"GISJOIN":"G40014300041","pct_black":0.94},"geometry":{"type":"Polygon","coordinates":[[[-95.9424364304704,36.12605311979272],[-95.9403009999001,36.12523199995211],[-95.94021599981821,36.10431299961179],[-95.95798999958035,36.104251999951224],[-95.95817600023463,36.12603200036909],[-95.9424364304704,36.12605311979272]]]}},{"id":"861","type":"Feature","properties":{"GISJOIN":"G40014300042","pct_black":0.18},"geometry":{"type":"Polygon","coordinates":[[[-95.95819899946791,36.13323000010324],[-95.94035500046955,36.13323599976505],[-95.9403009999001,36.12523199995211],[-95.94274200039271,36.12613599969005],[-95.95817600023463,36.12603200036909],[-95.95819899946791,36.13323000010324]]]}},{"id":"862","type":"Feature","properties":{"GISJOIN":"G40014300043","pct_black":1.06},"geometry":{"type":"Polygon","coordinates":[[[-95.97563600049588,36.13335399962347],[-95.95819899946791,36.13323000010324],[-95.95798999958035,36.104251999951224],[-95.96698100000904,36.10428899969658],[-95.96701000035875,36.1151409999854],[-95.97569099982447,36.11523499990456],[-95.97563600049588,36.13335399962347]]]}},{"id":"863","type":"Feature","properties":{"GISJOIN":"G40014300044","pct_black":0.05},"geometry":{"type":"Polygon","coordinates":[[[-95.97569099982447,36.11523499990456],[-95.96701000035875,36.1151409999854],[-95.96698100000904,36.10428899969658],[-95.98587299972075,36.104292999853676],[-95.98666204300808,36.11482859220361],[-95.97571299954258,36.114764999816174],[-95.97569099982447,36.11523499990456]]]}},{"id":"864","type":"Feature","properties":{"GISJOIN":"G40014300045","pct_black":0.49},"geometry":{"type":"Polygon","coordinates":[[[-95.98942600002289,36.13326400037337],[-95.97563600049588,36.13335399962347],[-95.97571299954258,36.114764999816174],[-95.98666204300808,36.11482859220361],[-95.98740100026885,36.12119800002256],[-95.99217799949444,36.13182900030929],[-95.98942600002289,36.13326400037337]]]}},{"id":"865","type":"Feature","properties":{"GISJOIN":"G40014300046","pct_black":0.0},"geometry":{"type":"Polygon","coordinates":[[[-96.00537199993393,36.14286599987487],[-96.0008259995392,36.14004899980539],[-95.99217799949444,36.13182900030929],[-95.99580199971268,36.129898000218475],[-95.99770100003644,36.12979800036143],[-95.99763081571847,36.126210129573295],[-96.0070419997405,36.126255999977616],[-96.00700300029793,36.12663400000144],[-96.00818899968353,36.12666200036388],[-96.00873299997967,36.124389000435116],[-96.00896499965145,36.12908199967044],[-96.0100149999156,36.130773999956396],[-96.00959099967302,36.133274000066045],[-96.01147100034301,36.13310999969913],[-96.01157867071858,36.13844573993674],[-96.00828159830695,36.138504179015804],[-96.00805520780288,36.13998757223404],[-96.00537199993393,36.14286599987487]]]}},{"id":"866","type":"Feature","properties":{"GISJOIN":"G40014300047","pct_black":0.0},"geometry":{"type":"Polygon","coordinates":[[[-96.01614922416744,36.11043732354042],[-96.01251309897594,36.110114067689295],[-96.02010700042794,36.10492499995638],[-96.02393699947007,36.10411899987436],[-96.03091300034029,36.09878499968997],[-96.03426900041933,36.095112999578504],[-96.0342549994627,36.094278999836455],[-96.03892399974193,36.089894000153954],[-96.04012200050427,36.08782200014077],[-96.0426210001105,36.08597300022356],[-96.04742700041137,36.080769000048754],[-96.04736000048644,36.10449299972467],[-96.03073599944263,36.104466000300846],[-96.0306860004381,36.10767599983936],[-96.02816100013034,36.10762900024557],[-96.02838699952855,36.1087190001976],[-96.02167699988428,36.10868800032782],[-96.0216529995047,36.10761800000742],[-96.019972999841,36.10762499986025],[-96.01614922416744,36.11043732354042]]]}},{"id":"867","type":"Feature","properties":{"GISJOIN":"G40014300048","pct_black":0.2},"geometry":{"type":"Polygon","coordinates":[[[-96.01251309897594,36.110114067689295],[-96.01157599946822,36.10656500003773],[-96.01167699996805,36.0889590003932],[-96.03409699999249,36.08904499984812],[-96.04012200050427,36.08782200014077],[-96.03892399974193,36.089894000153954],[-96.0342549994627,36.094278999836455],[-96.03426900041933,36.095112999578504],[-96.02948699979086,36.09999699962451],[-96.02359199964818,36.10432000035992],[-96.02010700042794,36.10492499995638],[-96.01251309897594,36.110114067689295]]]}},{"id":"868","type":"Feature","properties":{"GISJOIN":"G40014300049","pct_black":0.0},"geometry":{"type":"Polygon","coordinates":[[[-95.98740100026885,36.12119800002256],[-95.98587299972075,36.104292999853676],[-95.98795499975907,36.089952999931],[-95.9954130003015,36.089974000312864],[-96.00194399990195,36.08900300020936],[-96.01167699996805,36.0889590003932],[-96.01161100001038,36.108058000092626],[-96.01251309897594,36.110114067689295],[-96.01011108993433,36.11205944144521],[-96.00967730185619,36.11336244902302],[-96.0086752419642,36.11777727477954],[-96.00873299997967,36.124389000435116],[-96.00818899968353,36.12666200036388],[-96.00700300029793,36.12663400000144],[-96.0070419997405,36.126255999977616],[-95.99763081571847,36.126210129573295],[-95.99770100003644,36.12979800036143],[-95.99580199971268,36.129898000218475],[-95.99217799949444,36.13182900030929],[-95.98740100026885,36.12119800002256]]]}},{"id":"869","type":"Feature","properties":{"GISJOIN":"G40014300050","pct_black":0.0},"geometry":{"type":"Polygon","coordinates":[[[-95.98587299972075,36.104292999853676],[-95.96699679417695,36.10428903085499],[-95.96688699969177,36.08974499977149],[-95.98795499975907,36.089952999931],[-95.98587299972075,36.104292999853676]]]}},{"id":"870","type":"Feature","properties":{"GISJOIN":"G40014300051","pct_black":0.28},"geometry":{"type":"Polygon","coordinates":[[[-95.96699679417695,36.10428903085499],[-95.94021599981821,36.10431299961179],[-95.94013800026553,36.08979200029776],[-95.9668660003877,36.089554000276856],[-95.96699679417695,36.10428903085499]]]}},{"id":"871","type":"Feature","properties":{"GISJOIN":"G40014300052","pct_black":0.03},"geometry":{"type":"Polygon","coordinates":[[[-95.92232999944183,36.10435800036129],[-95.92223099966289,36.08982700004586],[-95.93988499990778,36.08979199984348],[-95.94021599981821,36.10431299961179],[-95.92232999944183,36.10435800036129]]]}},{"id":"872","type":"Feature","properties":{"GISJOIN":"G40014300053","pct_black":0.0},"geometry":{"type":"Polygon","coordinates":[[[-95.90461600005999,36.133427999940245],[-95.9045410002023,36.11889700030061],[-95.92236699971923,36.11880900019399],[-95.92247699962942,36.1333089999449],[-95.90461600005999,36.133427999940245]]]}},{"id":"873","type":"Feature","properties":{"GISJOIN":"G40014300054","pct_black":0.03},"geometry":{"type":"Polygon","coordinates":[[[-95.86623599976919,36.42375199984621],[-95.7943700002786,36.42358000017778],[-95.79424999965948,36.394456000226484],[-95.8121889996654,36.39433899970473],[-95.812220000443,36.33651999971909],[-95.86634800002592,36.336670999881704],[-95.866300999579,36.38017200015399],[-95.86673599956158,36.38040400017917],[-95.86624499974302,36.38133400006804],[-95.86623599976919,36.42375199984621]]]}},{"id":"874","type":"Feature","properties":{"GISJOIN":"G40014300055","pct_black":0.0},"geometry":{"type":"Polygon","coordinates":[[[-95.86623599976919,36.42375199984621],[-95.86624499974302,36.38133400006804],[-95.86673599956158,36.38040400017917],[-95.866300999579,36.38017200015399],[-95.86634800002592,36.336670999881704],[-96.00140100014389,36.33661199995192],[-96.0013180003279,36.37020200020642],[-96.00085300043214,36.375083999733945],[-96.00130699952405,36.39648900004208],[-96.00077099983055,36.40608399998982],[-96.00129099973977,36.409741999584554],[-96.00127799991873,36.419821000262],[-96.00077500035364,36.42271200019543],[-96.0011709999095,36.42368599986216],[-95.86623599976919,36.42375199984621]]]}},{"id":"875","type":"Feature","properties":{"GISJOIN":"G40014300056","pct_black":0.06},"geometry":{"type":"Polygon","coordinates":[[[-96.00140100014389,36.33661199995192],[-95.92011300047375,36.336599999617654],[-95.91978900020085,36.27860499975194],[-95.99487500009938,36.27859099984369],[-95.99612300919195,36.27998700432165],[-95.99796500002823,36.2784059997839],[-96.00138199982722,36.27936999961848],[-96.00140100014389,36.33661199995192]]]}},{"id":"876","type":"Feature","properties":{"GISJOIN":"G40014300057","pct_black":0.0},"geometry":{"type":"Polygon","coordinates":[[[-95.9755459995443,36.23501100024707],[-95.92851099945152,36.235085999624154],[-95.92638500020877,36.23468999995776],[-95.92277100000383,36.23139299975219],[-95.9265909999926,36.22918700007385],[-95.94597300016565,36.224992000136865],[-95.94757300027588,36.223292000100294],[-95.9492729994674,36.22319200031023],[-95.94907300045698,36.22139199979481],[-95.9510729998803,36.21909199957258],[-95.95177300004472,36.21899200030165],[-95.9526729996208,36.22059200026371],[-95.97553800032189,36.220512999590724],[-95.9755459995443,36.23501100024707]]]}},{"id":"877","type":"Feature","properties":{"GISJOIN":"G40014300058","pct_black":0.1},"geometry":{"type":"Polygon","coordinates":[[[-95.92011300047375,36.336599999617654],[-95.812220000443,36.33651999971909],[-95.81206199951698,36.2495299997618],[-95.83684953322093,36.24948081977967],[-95.83880343893127,36.24878307087161],[-95.83968768548537,36.249484306282824],[-95.86607899953151,36.24949300042194],[-95.86763799994854,36.247842999569855],[-95.8688089996371,36.24526000001435],[-95.86910399977548,36.233633999656746],[-95.87755199976581,36.233372999563805],[-95.88026500036278,36.23403100014373],[-95.88366099955606,36.23394599986339],[-95.8864739994619,36.23179700023164],[-95.88656900021263,36.23319400008269],[-95.88716900030752,36.23169400040329],[-95.89016900043278,36.230392999602515],[-95.893169999998,36.2327930004299],[-95.89497000049731,36.2326929995731],[-95.89776999992377,36.22849300026567],[-95.90086999982339,36.228093000375395],[-95.90276999993976,36.22949300012584],[-95.90497000023986,36.22999300008624],[-95.90436999998101,36.22609299963445],[-95.9082700003324,36.226893000180866],[-95.91077000022165,36.2232930000689],[-95.91607099991108,36.222092999817775],[-95.92067100023058,36.22409300029617],[-95.92157100021734,36.225793000308684],[-95.91907100000701,36.22889299955773],[-95.92638500020877,36.23468999995776],[-95.92253499971723,36.23511100014393],[-95.9226130003874,36.24955199998558],[-95.91989000006971,36.24952400037996],[-95.92011300047375,36.336599999617654]]]}},{"id":"878","type":"Feature","properties":{"GISJOIN":"G40014300059","pct_black":3.87},"geometry":{"type":"Polygon","coordinates":[[[-95.81534000032549,36.24952999984168],[-95.81496099996829,36.22229800031703],[-95.81541499949371,36.16063100005422],[-95.86872299971449,36.16066599957482],[-95.86886999961465,36.24230900001052],[-95.8688089996371,36.24526000001435],[-95.86763799994854,36.247842999569855],[-95.86607899953151,36.24949300042194],[-95.83968768548537,36.249484306282824],[-95.83880343893127,36.24878307087161],[-95.83684953322093,36.24948081977967],[-95.81534000032549,36.24952999984168]]]}},{"id":"879","type":"Feature","properties":{"GISJOIN":"G40014300060","pct_black":0.01},"geometry":{"type":"Polygon","coordinates":[[[-95.90455899999233,36.17707900042747],[-95.8867000004745,36.17707000034263],[-95.88671800025534,36.16072099993903],[-95.90456999997842,36.160741000107855],[-95.90455899999233,36.17707900042747]]]}},{"id":"880","type":"Feature","properties":{"GISJOIN":"G40014300061","pct_black":4.6},"geometry":{"type":"Polygon","coordinates":[[[-95.86880200021982,36.234099999663954],[-95.86874400010376,36.17705300028767],[-95.8867000004745,36.17707000034263],[-95.8867824650902,36.19000270457574],[-95.88817692405654,36.19147956952447],[-95.89796999970383,36.19157700000633],[-95.90106700023475,36.190913000290465],[-95.90216100056111,36.19154399973089],[-95.90458399963978,36.19157599981846],[-95.90461099985438,36.20613699988038],[-95.91615599997333,36.20608500023899],[-95.91732599971228,36.20568399978399],[-95.91907999990852,36.20653499975942],[-95.92056600038259,36.2060520002953],[-95.95571400041999,36.2061470004266],[-95.9582040004681,36.204778000285444],[-95.95827499997144,36.22065600021813],[-95.9526729996208,36.22059200026371],[-95.95177300004472,36.21899200030165],[-95.9510729998803,36.21909199957258],[-95.94907300045698,36.22139199979481],[-95.9492729994674,36.22319200031023],[-95.94757300027588,36.223292000100294],[-95.94597300016565,36.224992000136865],[-95.9265909999926,36.22918700007385],[-95.92277100000383,36.23139299975219],[-95.91997099973442,36.22999300022038],[-95.91907100000701,36.22889299955773],[-95.92157100021734,36.225793000308684],[-95.92067100023058,36.22409300029617],[-95.91607099991108,36.222092999817775],[-95.91457100034901,36.22219299994282],[-95.91077000022165,36.2232930000689],[-95.9082700003324,36.226893000180866],[-95.90436999998101,36.22609299963445],[-95.90497000023986,36.22999300008624],[-95.90276999993976,36.22949300012584],[-95.90086999982339,36.228093000375395],[-95.89776999992377,36.22849300026567],[-95.89497000049731,36.2326929995731],[-95.893169999998,36.2327930004299],[-95.89016900043278,36.230392999602515],[-95.88716900030752,36.23169400040329],[-95.88656900021263,36.23319400008269],[-95.8864739994619,36.23179700023164],[-95.88366099955606,36.23394599986339],[-95.86980499991456,36.23334400031131],[-95.86880200021982,36.234099999663954]]]}},{"id":"881","type":"Feature","properties":{"GISJOIN":"G40014300062","pct_black":8.49},"geometry":{"type":"Polygon","coordinates":[[[-95.9582040004681,36.204778000285444],[-95.97480000019638,36.197621000258614],[-95.97547399980294,36.19693299973865],[-95.97547300026547,36.19140000027807],[-96.00109600045236,36.191481999847625],[-96.00137000007574,36.205917000243204],[-95.95825300034615,36.20614000033376],[-95.9582040004681,36.204778000285444]]]}},{"id":"882","type":"Feature","properties":{"GISJOIN":"G40014300063","pct_black":6.96},"geometry":{"type":"Polygon","coordinates":[[[-96.11275199959005,36.156400999648625],[-96.10859000048428,36.15578799961121],[-96.10901599973094,36.15491499960483],[-96.10896999949661,36.148158000255954],[-96.1010797122494,36.14817800303449],[-96.10114798560876,36.14968024865391],[-96.09937586917982,36.149776955872824],[-96.09937000051389,36.1481709997877],[-96.09638000003196,36.148190999627516],[-96.09638100054426,36.14697699995179],[-96.0966909995027,36.145290999977654],[-96.0998589998668,36.14406799977535],[-96.10269099980526,36.144608000217765],[-96.10324499996531,36.14437499982924],[-96.10303299980812,36.14354100036207],[-96.10633200045687,36.14352900027001],[-96.1062950001051,36.13844999967646],[-96.10130299972556,36.138507000376414],[-96.10115270698995,36.13707997411331],[-96.10969307763744,36.13426315378716],[-96.11031062400927,36.130399354595845],[-96.11601769568912,36.12999378004107],[-96.11521599977743,36.13617600027237],[-96.11910899959338,36.13643100023753],[-96.11914431122246,36.15176577961801],[-96.11288799979916,36.15171799956892],[-96.11275199959005,36.156400999648625]]]}},{"id":"883","type":"Feature","properties":{"GISJOIN":"G40014300064","pct_black":0.35},"geometry":{"type":"Polygon","coordinates":[[[-96.2681729994628,36.16197999991263],[-96.16578200007372,36.16088500005728],[-96.08293899953918,36.160950999721805],[-96.08373099991623,36.16041199988737],[-96.08319900055508,36.158497999639394],[-96.08359499950052,36.15345199997539],[-96.08337800023541,36.13088899983746],[-96.08824600000781,36.12877700026696],[-96.09187900047861,36.128287999918776],[-96.09539099985196,36.12677200003079],[-96.10218299959713,36.12713999984156],[-96.1061029997491,36.12578799991422],[-96.11074299965404,36.125476000066975],[-96.11382299960032,36.124639000167015],[-96.11602899972,36.12321400001464],[-96.12298000052897,36.123186999701865],[-96.12710399958581,36.124095000199475],[-96.13056800044804,36.12599899995525],[-96.1354799995814,36.1271019998888],[-96.137175999546,36.12832599982961],[-96.1401810001737,36.132585999870265],[-96.14118500038495,36.13535799957858],[-96.14400899981888,36.13709800034595],[-96.14659300000102,36.14033800025467],[-96.15056100032471,36.143142000069695],[-96.15422599964334,36.14441700030907],[-96.1564900000033,36.144177000221504],[-96.16134599957097,36.14567299999032],[-96.17095400019005,36.14661699994018],[-96.18933099981908,36.14590799958871],[-96.1916349997412,36.146712000354476],[-96.19372299954098,36.14600400034063],[-96.20357999961108,36.14507500030569],[-96.22285800018025,36.13998300030228],[-96.23043000010973,36.13903800021711],[-96.23706099972861,36.139109999607115],[-96.24294200019969,36.1413570004326],[-96.24956300034336,36.14854500003415],[-96.26184999965582,36.15440599999783],[-96.26629800038047,36.15806499991848],[-96.2681729994628,36.16197999991263]],[[-96.11288799979916,36.15171799956892],[-96.11914431122246,36.15176577961801],[-96.11910899959338,36.13643100023753],[-96.11521599977743,36.13617600027237],[-96.11601769568912,36.12999378004107],[-96.11031062400927,36.130399354595845],[-96.10969307763744,36.13426315378716],[-96.10115270698995,36.13707997411331],[-96.10130299972556,36.138507000376414],[-96.1062950001051,36.13844999967646],[-96.10633200045687,36.14352900027001],[-96.10303299980812,36.14354100036207],[-96.10324499996531,36.14437499982924],[-96.10269099980526,36.144608000217765],[-96.0998589998668,36.14406799977535],[-96.0966909995027,36.145290999977654],[-96.09638100054426,36.14697699995179],[-96.09638000003196,36.148190999627516],[-96.09937000051389,36.1481709997877],[-96.09937586917982,36.149776955872824],[-96.10114798560876,36.14968024865391],[-96.1010797122494,36.14817800303449],[-96.10896999949661,36.148158000255954],[-96.10901599973094,36.15491499960483],[-96.10859000048428,36.15578799961121],[-96.11062100053451,36.156392000000885],[-96.11275199959005,36.156400999648625],[-96.11288799979916,36.15171799956892]]]}},{"id":"884","type":"Feature","properties":{"GISJOIN":"G40014300065","pct_black":9.05},"geometry":{"type":"Polygon","coordinates":[[[-96.29788799944149,36.16227899976061],[-96.26828699969754,36.16198000004898],[-96.26629800038047,36.15806499991848],[-96.26184999965582,36.15440599999783],[-96.24956300034336,36.14854500003415],[-96.24294200019969,36.1413570004326],[-96.23706099972861,36.139109999607115],[-96.23043000010973,36.13903800021711],[-96.22285800018025,36.13998300030228],[-96.20357999961108,36.14507500030569],[-96.19372299954098,36.14600400034063],[-96.1916349997412,36.146712000354476],[-96.18933099981908,36.14590799958871],[-96.17095400019005,36.14661699994018],[-96.16320200044275,36.14592500030325],[-96.1564900000033,36.144177000221504],[-96.15422599964334,36.14441700030907],[-96.14924899995458,36.142422000234085],[-96.14568100054662,36.139486000050454],[-96.14400899981888,36.13709800034595],[-96.14118500038495,36.13535799957858],[-96.1383929999519,36.129786000045506],[-96.1354799995814,36.1271019998888],[-96.13056800044804,36.12599899995525],[-96.12710399958581,36.124095000199475],[-96.12298000052897,36.123186999701865],[-96.11602899972,36.12321400001464],[-96.11600299945366,36.11999999961268],[-96.11323100017133,36.12089099991191],[-96.10442000047611,36.121142000392844],[-96.09836799983623,36.123809000399625],[-96.09041600045482,36.12595800032171],[-96.08678165898746,36.12426118310175],[-96.07066399950392,36.12457600018892],[-96.0697080005064,36.124503999806365],[-96.06967400003867,36.12284900010649],[-96.0652230003719,36.1227769995926],[-96.06523599965176,36.105821000280024],[-96.06279599962677,36.104142999648445],[-96.06321800016478,36.103274999609944],[-96.06532900039346,36.10204400031512],[-96.06543099952917,36.075506000430835],[-96.20372800034653,36.07586700031421],[-96.2105979995234,36.075775000006495],[-96.21184200044016,36.075179000020725],[-96.21381300000644,36.075722999923926],[-96.29778600023313,36.07577899970192],[-96.29788799944149,36.16227899976061]]]}},{"id":"885","type":"Feature","properties":{"GISJOIN":"G40014300066","pct_black":0.03},"geometry":{"type":"Polygon","coordinates":[[[-96.02042494032044,36.146653918145226],[-96.0113749998778,36.14589199985345],[-96.005676999706,36.14303299963845],[-96.00805520780288,36.13998757223404],[-96.00828159830695,36.138504179015804],[-96.01157867071858,36.13844573993674],[-96.01147100034301,36.13310999969913],[-96.00959099967302,36.133274000066045],[-96.0100149999156,36.130773999956396],[-96.00896499965145,36.12908199967044],[-96.00872400005916,36.12746000037254],[-96.0086752419642,36.11777727477954],[-96.01009109608728,36.11210181942573],[-96.01251309897594,36.110114067689295],[-96.01614922416744,36.11043732354042],[-96.019972999841,36.10762499986025],[-96.0216529995047,36.10761800000742],[-96.02167699988428,36.10868800032782],[-96.02838699952855,36.1087190001976],[-96.02816100013034,36.10762900024557],[-96.0306860004381,36.10767599983936],[-96.03073599944263,36.104466000300846],[-96.04736000048644,36.10449299972467],[-96.04742700041137,36.080769000048754],[-96.05000600048744,36.077964999619084],[-96.05375499974252,36.0754910004456],[-96.06543099952917,36.075506000430835],[-96.06532900039346,36.10204400031512],[-96.06321800016478,36.103274999609944],[-96.06279599962677,36.104142999648445],[-96.06523599965176,36.105821000280024],[-96.0652230003719,36.1227769995926],[-96.06967400003867,36.12284900010649],[-96.0697080005064,36.124503999806365],[-96.07066399950392,36.12457600018892],[-96.08678165898746,36.12426118310175],[-96.09041600045482,36.12595800032171],[-96.09836799983623,36.123809000399625],[-96.10442000047611,36.121142000392844],[-96.11323100017133,36.12089099991191],[-96.11600299945366,36.11999999961268],[-96.11602899972,36.12321400001464],[-96.11382299960032,36.124639000167015],[-96.11074299965404,36.125476000066975],[-96.1061029997491,36.12578799991422],[-96.10218299959713,36.12713999984156],[-96.09539099985196,36.12677200003079],[-96.09187900047861,36.128287999918776],[-96.08824600000781,36.12877700026696],[-96.06917800013578,36.13638900044059],[-96.05081699964161,36.13893799957503],[-96.04737699972783,36.14027200022356],[-96.04105999962835,36.14077199989877],[-96.0262114636178,36.14518070484475],[-96.02530282373687,36.14601596614513],[-96.02042494032044,36.146653918145226]]]}},{"id":"886","type":"Feature","properties":{"GISJOIN":"G40014300067","pct_black":11.6},"geometry":{"type":"Polygon","coordinates":[[[-95.99440699969463,36.08996300016508],[-95.98795499975907,36.089952999931],[-95.98607299964779,36.075193999804966],[-95.97869100044991,36.06001000004808],[-95.97577199956689,36.047994999655366],[-95.97447199957564,36.046294999907715],[-95.96993599950942,36.04427100031099],[-95.96596800031166,36.04100300035305],[-95.96358400040502,36.038523000023886],[-95.96210299982405,36.033055000092695],[-95.95735900021174,36.030938999832685],[-95.95464699986273,36.02829900017754],[-95.95305699963984,36.02541499993221],[-95.95198900013442,36.0247580002994],[-95.9504459996167,36.018914000177105],[-95.94978300030259,36.008635999746666],[-95.94777100008453,36.004095999986745],[-95.948798999467,36.00082799962832],[-95.94591800037225,35.99731599963617],[-95.94024147277936,35.99271702160373],[-95.94024199985702,35.98116000025565],[-95.94448599975595,35.98133700037921],[-95.94569100053708,35.98616699956615],[-95.95116499959826,35.9915230002444],[-95.95399199947093,35.9930080003833],[-95.95649800029216,35.99544499976033],[-95.95854000006855,35.996248000443764],[-95.96027599987426,35.99587700023863],[-95.96260299964673,35.99647799967122],[-95.96916899983606,35.99567799994267],[-95.97591800039727,35.99564899998495],[-95.97594599954692,35.9883469996368],[-96.02954400020337,35.98838700044239],[-96.02958300053871,36.075366000039445],[-96.05375499974252,36.0754910004456],[-96.05000600048744,36.077964999619084],[-96.0426210001105,36.08597300022356],[-96.03888400055948,36.088316999992884],[-96.03409699999249,36.08904499984812],[-96.00194399990195,36.08900300020936],[-95.99440699969463,36.08996300016508]]]}},{"id":"887","type":"Feature","properties":{"GISJOIN":"G40014300068","pct_black":0.0},"geometry":{"type":"Polygon","coordinates":[[[-95.98795499975907,36.089952999931],[-95.95794399997813,36.08976100024149],[-95.95800700042953,36.07528099966181],[-95.98607299964779,36.075193999804966],[-95.98795499975907,36.089952999931]]]}},{"id":"888","type":"Feature","properties":{"GISJOIN":"G40014300069","pct_black":0.31},"geometry":{"type":"Polygon","coordinates":[[[-95.90453200024264,36.104364999598864],[-95.86869299986655,36.104481000181615],[-95.8685600005456,36.07541499996753],[-95.94012299982718,36.075326999794605],[-95.94012699953821,36.090229000304525],[-95.93988499990778,36.08979199984348],[-95.90435299977717,36.08989700035193],[-95.90453200024264,36.104364999598864]]]}},{"id":"889","type":"Feature","properties":{"GISJOIN":"G40014300070","pct_black":0.11},"geometry":{"type":"Polygon","coordinates":[[[-95.9045410002023,36.11889700030061],[-95.90453200024264,36.104364999598864],[-95.92232999944183,36.10435800036129],[-95.92236699971923,36.11880900019399],[-95.9045410002023,36.11889700030061]]]}},{"id":"890","type":"Feature","properties":{"GISJOIN":"G40014300071","pct_black":0.05},"geometry":{"type":"Polygon","coordinates":[[[-95.86457499963029,36.14797899955331],[-95.86458100005844,36.1334939998689],[-95.90461600005999,36.133427999940245],[-95.90454699946197,36.14792999981112],[-95.86457499963029,36.14797899955331]]]}},{"id":"891","type":"Feature","properties":{"GISJOIN":"G40014300072","pct_black":0.0},"geometry":{"type":"Polygon","coordinates":[[[-95.90456999997842,36.160741000107855],[-95.88671800025534,36.16072099993903],[-95.88666499956693,36.14799000001722],[-95.90454699946197,36.14792999981112],[-95.90456999997842,36.160741000107855]]]}},{"id":"892","type":"Feature","properties":{"GISJOIN":"G40014300073","pct_black":0.0},"geometry":{"type":"Polygon","coordinates":[[[-95.76164999950528,36.16275000007981],[-95.76176200037236,36.11890399984261],[-95.8643343742654,36.11899567643444],[-95.86488100001992,36.13590200040575],[-95.86457499963029,36.14797899955331],[-95.85117799992359,36.14800999968654],[-95.85119599981356,36.16065999988331],[-95.81541499949371,36.16063100005422],[-95.81540000024266,36.162629999770076],[-95.76164999950528,36.16275000007981]]]}},{"id":"893","type":"Feature","properties":{"GISJOIN":"G40014300074","pct_black":0.03},"geometry":{"type":"Polygon","coordinates":[[[-95.78649264070816,36.06099887873626],[-95.7877555455883,36.06099057898176],[-95.78778447018117,36.058822767265276],[-95.78568065604638,36.05900046796082],[-95.78577682148315,36.059792552094514],[-95.78310188003898,36.05989156108149],[-95.78312373945097,36.05694026432381],[-95.78400513821856,36.056876600818185],[-95.78399151472885,36.056349372971965],[-95.78777900011416,36.056424000271235],[-95.78771772551889,36.05518652849605],[-95.78176700040224,36.055876999885946],[-95.78171040410334,36.05333973976735],[-95.77953199957244,36.053715000113534],[-95.7795580000446,36.052383000320106],[-95.7777661175859,36.05250702926527],[-95.77765176527527,36.05021880695515],[-95.77955200016278,36.05018399959033],[-95.7795329998454,36.04649900014954],[-95.78578500051444,36.04642600036222],[-95.78580792659777,36.049493552418824],[-95.78788199992238,36.04919899971137],[-95.78773127524613,36.04433071382166],[-95.78711631303989,36.044313693673054],[-95.78710229593119,36.043413824503745],[-95.79076199994033,36.043459000166834],[-95.79080228658687,36.032946457775616],[-95.79552399998227,36.03344800033529],[-95.7959009995269,36.033609999812846],[-95.7957609997742,36.03540499961295],[-95.79749200025925,36.03541800033361],[-95.79758499968015,36.038750999566076],[-95.79259000036416,36.03873999977497],[-95.7927728752743,36.04097867361058],[-95.79204199985529,36.04347299978825],[-95.79520999947967,36.04345100035509],[-95.79631999963154,36.042607000251515],[-95.79623822827762,36.04179476388684],[-95.79748399971865,36.04186500006381],[-95.79745099999408,36.043536000411386],[-95.79884399962911,36.04357200022564],[-95.79952900043789,36.04422100016469],[-95.79744215605486,36.04525811389574],[-95.79744899961793,36.0474369999472],[-95.79965939953983,36.047340519869515],[-95.79996468267116,36.05703590354368],[-95.80269376077062,36.057434302509414],[-95.80269231193218,36.06095520734495],[-95.79980800048587,36.0609569997206],[-95.79967500024377,36.05896799984785],[-95.7974169997114,36.05902299981352],[-95.79743900000594,36.06098800032948],[-95.79462900053196,36.06098699958764],[-95.79398799958497,36.06157800035528],[-95.79364400039083,36.060983000279194],[-95.79134399978724,36.060977999657005],[-95.79050400006757,36.064159999876374],[-95.78667213259658,36.06420931578122],[-95.78649264070816,36.06099887873626]]]}},{"id":"894","type":"Feature","properties":{"GISJOIN":"G40014300075","pct_black":0.24},"geometry":{"type":"Polygon","coordinates":[[[-95.77946299994589,36.07544899976354],[-95.76165200002943,36.07545099974081],[-95.76185199995238,35.933103999798156],[-95.7614629994466,35.91799999991937],[-95.76378300049113,35.91887600007663],[-95.76747899996626,35.92512400043504],[-95.76981499964515,35.93276800034381],[-95.77206299946882,35.937599999724846],[-95.77070300050582,35.94212399981479],[-95.7709029995729,35.94591600008063],[-95.7747269994725,35.94824800043498],[-95.7790790005486,35.952451999953595],[-95.78923899945276,35.95810799989298],[-95.794127999489,35.96292400028463],[-95.79591200023019,35.96279199979252],[-95.79905599991258,35.96000400036942],[-95.80071999950951,35.95929599993782],[-95.81509700052875,35.95964699976231],[-95.81688100048132,35.95916300034888],[-95.81841599960113,35.95525599957028],[-95.83039999976158,35.93812600043979],[-95.83302799992337,35.93091900017375],[-95.83444099984423,35.929018999931515],[-95.83581699994289,35.92837500017863],[-95.83752999953943,35.928646999981254],[-95.84562600051778,35.93168699972674],[-95.85139399995542,35.932533000092995],[-95.85140100006757,35.94059700011103],[-95.85414399955941,35.940599000024186],[-95.85569800011079,35.944126999885285],[-95.85826600046445,35.94611100018228],[-95.86345099976886,35.948511000343125],[-95.86768300012191,35.948345999907005],[-95.86866699984793,35.94879800020595],[-95.8685600005456,36.07541499996753],[-95.79744799979568,36.07540299970184],[-95.79512100015914,36.07558099976289],[-95.7934020004031,36.07679300029303],[-95.77946299994589,36.07544899976354]],[[-95.78667213259658,36.06420931578122],[-95.79050400006757,36.064159999876374],[-95.79134399978724,36.060977999657005],[-95.79364400039083,36.060983000279194],[-95.79398799958497,36.06157800035528],[-95.79462900053196,36.06098699958764],[-95.79743900000594,36.06098800032948],[-95.7974169997114,36.05902299981352],[-95.79967500024377,36.05896799984785],[-95.79980800048587,36.0609569997206],[-95.80269231193218,36.06095520734495],[-95.80269376077062,36.057434302509414],[-95.79996468267116,36.05703590354368],[-95.79965939953983,36.047340519869515],[-95.79744899961793,36.0474369999472],[-95.79744215605486,36.04525811389574],[-95.79952900043789,36.04422100016469],[-95.79884399962911,36.04357200022564],[-95.79745099999408,36.043536000411386],[-95.79748399971865,36.04186500006381],[-95.79623822827762,36.04179476388684],[-95.79631999963154,36.042607000251515],[-95.79520999947967,36.04345100035509],[-95.79204199985529,36.04347299978825],[-95.7927728752743,36.04097867361058],[-95.79259000036416,36.03873999977497],[-95.79758499968015,36.038750999566076],[-95.79749200025925,36.03541800033361],[-95.7957609997742,36.03540499961295],[-95.7959009995269,36.033609999812846],[-95.79270799966983,36.03293099963141],[-95.79080228658687,36.032946457775616],[-95.79076199994033,36.043459000166834],[-95.78710229593119,36.043413824503745],[-95.78711631303989,36.044313693673054],[-95.78773127524613,36.04433071382166],[-95.78800876882276,36.04907503715476],[-95.78580792659777,36.049493552418824],[-95.78578500051444,36.04642600036222],[-95.7795329998454,36.04649900014954],[-95.77955200016278,36.05018399959033],[-95.77765176527527,36.05021880695515],[-95.7777661175859,36.05250702926527],[-95.7795580000446,36.052383000320106],[-95.77953199957244,36.053715000113534],[-95.78171040410334,36.05333973976735],[-95.78176700040224,36.055876999885946],[-95.78771772551889,36.05518652849605],[-95.78777900011416,36.056424000271235],[-95.78399151472885,36.056349372971965],[-95.78400513821856,36.056876600818185],[-95.78312373945097,36.05694026432381],[-95.78310188003898,36.05989156108149],[-95.78577682148315,36.059792552094514],[-95.78568065604638,36.05900046796082],[-95.78778447018117,36.058822767265276],[-95.7877555455883,36.06099057898176],[-95.78649264070816,36.06099887873626],[-95.78667213259658,36.06420931578122]]]}},{"id":"895","type":"Feature","properties":{"GISJOIN":"G40014300076","pct_black":2.23},"geometry":{"type":"Polygon","coordinates":[[[-95.95009999987238,36.07560699969665],[-95.8685600005456,36.07541499996753],[-95.86866699984793,35.94879800020595],[-95.87815499974165,35.952818000153584],[-95.88510800039504,35.95782999986949],[-95.89005199993115,35.95754200020367],[-95.89264400020447,35.95833399986227],[-95.89522000041798,35.96040600031825],[-95.90246000007541,35.96383399992888],[-95.90446799954324,35.965398000234714],[-95.90675699946992,35.96854100036144],[-95.91016899952348,35.97099700038357],[-95.91215700044201,35.97211699979173],[-95.91586900038455,35.97292099964502],[-95.9174930000842,35.974200999581605],[-95.9219890004911,35.97553299993689],[-95.9256690003065,35.978488999730196],[-95.92750900004172,35.981745000327535],[-95.92786100020923,35.98389300028542],[-95.93036600014561,35.98664100028589],[-95.93237000042419,35.99039699975728],[-95.93879005380776,35.99377602782545],[-95.93880609019199,35.99235597855949],[-95.93982999875776,35.99242400020202],[-95.94848700024222,35.99994799955725],[-95.948798999467,36.00082799962832],[-95.94777100008453,36.004095999986745],[-95.94978300030259,36.008635999746666],[-95.9504459996167,36.018914000177105],[-95.95198900013442,36.0247580002994],[-95.95305699963984,36.02541499993221],[-95.95464699986273,36.02829900017754],[-95.95735900021174,36.030938999832685],[-95.96210299982405,36.033055000092695],[-95.96358400040502,36.038523000023886],[-95.96596800031166,36.04100300035305],[-95.96993599950942,36.04427100031099],[-95.97447199957564,36.046294999907715],[-95.97577199956689,36.047994999655366],[-95.97869100044991,36.06001000004808],[-95.98607299964779,36.075193999804966],[-95.95009999987238,36.07560699969665]]]}},{"id":"896","type":"Feature","properties":{"GISJOIN":"G40014300077","pct_black":0.42},"geometry":{"type":"Polygon","coordinates":[[[-95.96157392418158,35.99639725249189],[-95.96027599987426,35.99587700023863],[-95.9577660002121,35.99616400031065],[-95.95399199947093,35.9930080003833],[-95.95116499959826,35.9915230002444],[-95.94569100053708,35.98616699956615],[-95.94448599975595,35.98133700037921],[-95.94024199985702,35.98116000025565],[-95.94029799979353,35.90110500004944],[-95.9439489995133,35.9010649999613],[-95.94407300010081,35.85657999975007],[-95.99675600000513,35.857153000174854],[-96.03311799949304,35.85682399971119],[-96.03327499949353,35.901099000024864],[-96.02957000054461,35.90110599971592],[-96.02954600004645,35.90190499984863],[-96.02954400020337,35.98838700044239],[-95.97594599954692,35.9883469996368],[-95.97591800039727,35.99564899998495],[-95.96157392418158,35.99639725249189]]]}},{"id":"897","type":"Feature","properties":{"GISJOIN":"G40014300078","pct_black":3.65},"geometry":{"type":"Polygon","coordinates":[[[-95.93237000042419,35.99039699975728],[-95.93036600014561,35.98664100028589],[-95.92786100020923,35.98389300028542],[-95.92750900004172,35.981745000327535],[-95.9256690003065,35.978488999730196],[-95.9219890004911,35.97553299993689],[-95.9174930000842,35.974200999581605],[-95.91586900038455,35.97292099964502],[-95.91215700044201,35.97211699979173],[-95.91016899952348,35.97099700038357],[-95.90675699946992,35.96854100036144],[-95.90446799954324,35.965398000234714],[-95.90246000007541,35.96383399992888],[-95.89522000041798,35.96040600031825],[-95.89264400020447,35.95833399986227],[-95.89005199993115,35.95754200020367],[-95.88510800039504,35.95782999986949],[-95.87815499974165,35.952818000153584],[-95.86768300012191,35.948345999907005],[-95.86345099976886,35.948511000343125],[-95.85705799982311,35.945515000134286],[-95.85569800011079,35.944126999885285],[-95.85414399955941,35.940599000024186],[-95.85140100006757,35.94059700011103],[-95.85139399995542,35.932533000092995],[-95.84562600051778,35.93168699972674],[-95.83752999953943,35.928646999981254],[-95.83581699994289,35.92837500017863],[-95.83444099984423,35.929018999931515],[-95.83302799992337,35.93091900017375],[-95.83039999976158,35.93812600043979],[-95.81841599960113,35.95525599957028],[-95.81688100048132,35.95916300034888],[-95.81509700052875,35.95964699976231],[-95.80071999950951,35.95929599993782],[-95.79905599991258,35.96000400036942],[-95.79591200023019,35.96279199979252],[-95.794127999489,35.96292400028463],[-95.78923899945276,35.95810799989298],[-95.7790790005486,35.952451999953595],[-95.77515099955804,35.948587999949176],[-95.77073499944836,35.94561200019145],[-95.77070300050582,35.94212399981479],[-95.77206299946882,35.937599999724846],[-95.76981499964515,35.93276800034381],[-95.76747899996626,35.92512400043504],[-95.76378300049113,35.91887600007663],[-95.7614629994466,35.91799999991937],[-95.76168700008007,35.900811000337114],[-95.81945500052075,35.9010950000006],[-95.81926500048955,35.88502000005235],[-95.81996399982687,35.85589999979315],[-95.94407300010081,35.85657999975007],[-95.9439489995133,35.9010649999613],[-95.94029799979353,35.90110500004944],[-95.94024147277936,35.99271702160373],[-95.93880609019199,35.99235597855949],[-95.93879005380776,35.99377602782545],[-95.93237000042419,35.99039699975728]]]}},{"id":"898","type":"Feature","properties":{"GISJOIN":"G40014300079","pct_black":0.06},"geometry":{"type":"Polygon","coordinates":[[[-95.9755459995443,36.23501100024707],[-95.97553800032189,36.220512999590724],[-96.0014179996363,36.220637000328885],[-96.00139899975372,36.23495299998336],[-95.9755459995443,36.23501100024707]]]}},{"id":"899","type":"Feature","properties":{"GISJOIN":"G40014300080","pct_black":0.09},"geometry":{"type":"Polygon","coordinates":[[[-95.95827499997144,36.22065600021813],[-95.95825300034615,36.20614000033376],[-96.00137000007574,36.205917000243204],[-96.00135100051918,36.22055300036661],[-95.95827499997144,36.22065600021813]]]}},{"id":"900","type":"Feature","properties":{"GISJOIN":"G40014300081","pct_black":0.12},"geometry":{"type":"Polygon","coordinates":[[[-95.89458645151475,36.19158801550416],[-95.88817692405654,36.19147956952447],[-95.8867824650902,36.19000270457574],[-95.8867000004745,36.17707000034263],[-95.90455899999233,36.17707900042747],[-95.90458399963978,36.19157599981846],[-95.90216100056111,36.19154399973089],[-95.90093099957225,36.19091300006177],[-95.89458645151475,36.19158801550416]]]}},{"id":"901","type":"Feature","properties":{"GISJOIN":"G40014300082","pct_black":0.0},"geometry":{"type":"Polygon","coordinates":[[[-95.8867000004745,36.17707000034263],[-95.86874400010376,36.17705300028767],[-95.86872299971449,36.16066599957482],[-95.88671800025534,36.16072099993903],[-95.8867000004745,36.17707000034263]]]}},{"id":"902","type":"Feature","properties":{"GISJOIN":"G40014300083","pct_black":0.05},"geometry":{"type":"Polygon","coordinates":[[[-95.88671800025534,36.16072099993903],[-95.86872299971449,36.16066599957482],[-95.86882000031807,36.147975999646256],[-95.88666499956693,36.14799000001722],[-95.88671800025534,36.16072099993903]]]}},{"id":"903","type":"Feature","properties":{"GISJOIN":"G40014300084","pct_black":0.04},"geometry":{"type":"Polygon","coordinates":[[[-95.90461600005999,36.133427999940245],[-95.8866700000376,36.13349599958621],[-95.88660100053184,36.11889299961672],[-95.9045410002023,36.11889700030061],[-95.90461600005999,36.133427999940245]]]}},{"id":"904","type":"Feature","properties":{"GISJOIN":"G40014300085","pct_black":0.0},"geometry":{"type":"Polygon","coordinates":[[[-95.8866700000376,36.13349599958621],[-95.86458100005844,36.1334939998689],[-95.8643343742654,36.11899567643444],[-95.86867899945838,36.118951999981576],[-95.86869299986655,36.104481000181615],[-95.90453200024264,36.104364999598864],[-95.9045410002023,36.11889700030061],[-95.88660100053184,36.11889299961672],[-95.8866700000376,36.13349599958621]]]}},{"id":"905","type":"Feature","properties":{"GISJOIN":"G40014300086","pct_black":0.0},"geometry":{"type":"Polygon","coordinates":[[[-95.92232999944183,36.10435800036129],[-95.90453200024264,36.104364999598864],[-95.90435299977717,36.08989700035193],[-95.92223099966289,36.08982700004586],[-95.92232999944183,36.10435800036129]]]}},{"id":"906","type":"Feature","properties":{"GISJOIN":"G40014300087","pct_black":0.09},"geometry":{"type":"Polygon","coordinates":[[[-95.95794399997813,36.08976100024149],[-95.94013800026553,36.08979200029776],[-95.94012299982718,36.075326999794605],[-95.95800700042953,36.07528099966181],[-95.95794399997813,36.08976100024149]]]}},{"id":"907","type":"Feature","properties":{"GISJOIN":"G40014300088","pct_black":0.1},"geometry":{"type":"Polygon","coordinates":[[[-96.04719500045707,36.153362999889055],[-96.04737699972783,36.14027200022356],[-96.05081699964161,36.13893799957503],[-96.06917800013578,36.13638900044059],[-96.08337800023541,36.13088899983746],[-96.0834299994517,36.14258299994959],[-96.04719500045707,36.153362999889055]]]}},{"id":"908","type":"Feature","properties":{"GISJOIN":"G40014300089","pct_black":0.0},"geometry":{"type":"Polygon","coordinates":[[[-95.86872299971449,36.16066599957482],[-95.85119599981356,36.16065999988331],[-95.85117799992359,36.14800999968654],[-95.86882000031807,36.147975999646256],[-95.86872299971449,36.16066599957482]]]}},{"id":"909","type":"Feature","properties":{"GISJOIN":"G40014300090","pct_black":13.79},"geometry":{"type":"Polygon","coordinates":[[[-95.86867899945838,36.118951999981576],[-95.7616410003154,36.118895000418945],[-95.76165200002943,36.07545099974081],[-95.77946299994589,36.07544899976354],[-95.7934020004031,36.07679300029303],[-95.79512100015914,36.07558099976289],[-95.79744799979568,36.07540299970184],[-95.8685600005456,36.07541499996753],[-95.86867899945838,36.118951999981576]]]}},{"id":"910","type":"Feature","properties":{"GISJOIN":"G40014300091","pct_black":0.83},"geometry":{"type":"Polygon","coordinates":[[[-95.99487500009938,36.27859099984369],[-95.91978900020085,36.27860499975194],[-95.91989000006971,36.24952400037996],[-95.9226130003874,36.24955199998558],[-95.92253499971723,36.23511100014393],[-95.92709799959222,36.23465099995341],[-95.92949100008934,36.235147999884916],[-95.93586199953839,36.23518100012392],[-96.00139899975372,36.23495299998336],[-96.00138199982722,36.27936999961848],[-95.99796500002823,36.2784059997839],[-95.99612300919195,36.27998700432165],[-95.99487500009938,36.27859099984369]]]}}]}