{"type":"FeatureCollection","features":[{"id":"1009","type":"Feature","properties":{"GISJOIN":"G40014300001","pct_black":0.0},"geometry":{"type":"Polygon","coordinates":[[[-95.91907999990852,36.20653499975942],[-95.91732599971228,36.20568399978399],[-95.91615599997333,36.20608500023899],[-95.90461099985438,36.20613699988038],[-95.90455899999233,36.17707900042747],[-95.92250299957175,36.1770680003756],[-95.92251000013923,36.20609499977114],[-95.91907999990852,36.20653499975942]]]}},{"id":"1010","type":"Feature","properties":{"GISJOIN":"G40014300002","pct_black":91.3},"geometry":{"type":"Polygon","coordinates":[[[-95.95571400041999,36.2061470004266],[-95.92251000013923,36.20609499977114],[-95.92244600003738,36.191576000433756],[-95.97547300026547,36.19140000027807],[-95.97547399980294,36.19693299973865],[-95.97480000019638,36.197621000258614],[-95.95571400041999,36.2061470004266]]]}},{"id":"1011","type":"Feature","properties":{"GISJOIN":"G40014300003","pct_black":11.39},"geometry":{"type":"Polygon","coordinates":[[[-95.94030700021649,36.19157299980678],[-95.92244600003738,36.191576000433756],[-95.92250299957175,36.1770680003756],[-95.94028200033088,36.17713000041818],[-95.94030700021649,36.19157299980678]]]}},{"id":"1012","type":"Feature","properties":{"GISJOIN":"G40014300004","pct_black":0.57},"geometry":{"type":"Polygon","coordinates":[[[-95.95133399954582,36.19159899958029],[-95.94030700021649,36.19157299980678],[-95.94028200033088,36.17713000041818],[-95.95823899981905,36.177128999834316],[-95.95824699969266,36.18661900039914],[-95.95133399954582,36.19159899958029]]]}},{"id":"1013","type":"Feature","properties":{"GISJOIN":"G40014300005","pct_black":99.24},"geometry":{"type":"Polygon","coordinates":[[[-95.97547300026547,36.19140000027807],[-95.95133399954582,36.19159899958029],[-95.97169999969896,36.177016999928966],[-95.9732439998158,36.177016999601875],[-95.97298900040589,36.17774499965715],[-95.97347899961318,36.178040999639244],[-95.97417500043426,36.17761400042667],[-95.97349400039128,36.17698099989336],[-95.97545900015986,36.176929999718524],[-95.97547300026547,36.19140000027807]]]}},{"id":"1014","type":"Feature","properties":{"GISJOIN":"G40014300006","pct_black":98.98},"geometry":{"type":"Polygon","coordinates":[[[-95.9813220002589,36.1913869998914],[-95.97547300026547,36.19140000027807],[-95.97545900015986,36.176929999718524],[-95.98804900045974,36.17696800032114],[-95.98797500012478,36.18104700008153],[-95.9845940003004,36.18107499997812],[-95.98447199953372,36.182327999632086],[-95.98360000046667,36.18234999966874],[-95.98362600048047,36.18425000030166],[-95.98454299952064,36.184253000251246],[-95.98448999975955,36.18687099961562],[-95.98375700005876,36.1877099998567],[-95.98176700027851,36.18771400021968],[-95.9813220002589,36.1913869998914]]]}},{"id":"1015","type":"Feature","properties":{"GISJOIN":"G40014300007","pct_black":95.06},"geometry":{"type":"Polygon","coordinates":[[[-95.99354600006126,36.19145399964783],[-95.9813220002589,36.1913869998914],[-95.98176700027851,36.18771400021968],[-95.98375700005876,36.1877099998567],[-95.98448999975955,36.18687099961562],[-95.98454299952064,36.184253000251246],[-95.98362600048047,36.18425000030166],[-95.98360000046667,36.18234999966874],[-95.98447199953372,36.182327999632086],[-95.9845940003004,36.18107499997812],[-95.98797500012478,36.18104700008153],[-95.98804900045974,36.17696800032114],[-95.9935049996551,36.17691299964946],[-95.99354600006126,36.19145399964783]]]}},{"id":"1016","type":"Feature","properties":{"GISJOIN":"G40014300008","pct_black":78.7},"geometry":{"type":"Polygon","coordinates":[[[-96.00109600045236,36.191481999847625],[-95.99354600006126,36.19145399964783],[-95.9935049996551,36.17691299964946],[-96.0013579995214,36.176918999973495],[-96.00109600045236,36.191481999847625]]]}},{"id":"1017","type":"Feature","properties":{"GISJOIN":"G40014300009","pct_black":48.94},"geometry":{"type":"Polygon","coordinates":[[[-96.0013579995214,36.176918999973495],[-95.9935049996551,36.17691299964946],[-95.9935330005253,36.164259000388704],[-95.99286099990954,36.16221299966943],[-95.99903600035927,36.160520999699195],[-96.00060100041931,36.15807799958914],[-95.9999150004945,36.159697999868385],[-96.00054600027534,36.161297000194836],[-96.00105499962524,36.16129400023833],[-96.00147500022233,36.16499200002331],[-96.00107499993263,36.16659200006603],[-96.0013579995214,36.176918999973495]]]}},{"id":"1018","type":"Feature","properties":{"GISJOIN":"G40014300010","pct_black":92.75},"geometry":{"type":"Polygon","coordinates":[[[-95.9935049996551,36.17691299964946],[-95.98325699964302,36.1769600002714],[-95.9847630001563,36.16363500009794],[-95.98393699953736,36.16057300004693],[-95.98693399950388,36.16103599965633],[-95.99030800030053,36.16237700001148],[-95.99286099990954,36.16221299966943],[-95.99346000014094,36.16346400032774],[-95.9935049996551,36.17691299964946]]]}},{"id":"1019","type":"Feature","properties":{"GISJOIN":"G40014300011","pct_black":98.79},"geometry":{"type":"Polygon","coordinates":[[[-95.9732439998158,36.177016999601875],[-95.97169999969896,36.177016999928966],[-95.97989500268298,36.171006987677316],[-95.97997174423051,36.17060149389112],[-95.9765030078578,36.17054034366089],[-95.97657293401721,36.16758110321439],[-95.98040384139408,36.16757095644179],[-95.98004880408048,36.1645374329941],[-95.98108853502839,36.164526975041156],[-95.98107743195425,36.16299281784581],[-95.98177472825827,36.16261901860345],[-95.98162890782328,36.16185001632322],[-95.98114586149622,36.16208354273812],[-95.98119300007414,36.16057100014818],[-95.98393699953736,36.16057300004693],[-95.9847630001563,36.16363500009794],[-95.98325699964302,36.1769600002714],[-95.97349400039128,36.17698099989336],[-95.97417500043426,36.17761400042667],[-95.97347899961318,36.178040999639244],[-95.97298900040589,36.17774499965715],[-95.9732439998158,36.177016999601875]]]}},{"id":"1020","type":"Feature","properties":{"GISJOIN":"G40014300012","pct_black":0.0},"geometry":{"type":"Polygon","coordinates":[[[-95.96706100048905,36.18029400020058],[-95.96709799995297,36.15967900031892],[-95.98096199982756,36.15979500010316],[-95.98114586149622,36.16208354273812],[-95.98162890782328,36.16185001632322],[-95.98177472825827,36.16261901860345],[-95.98107743195425,36.16299281784581],[-95.98108853502839,36.164526975041156],[-95.98004880408048,36.1645374329941],[-95.98040384139408,36.16757095644179],[-95.97657293401721,36.16758110321439],[-95.9765030078578,36.17054034366089],[-95.97997174423051,36.17060149389112],[-95.9796730005323,36.171411000365744],[-95.96706100048905,36.18029400020058]]]}},{"id":"1021","type":"Feature","properties":{"GISJOIN":"G40014300013","pct_black":0.0},"geometry":{"type":"Polygon","coordinates":[[[-95.95824699969266,36.18661900039914],[-95.95817799963538,36.15983399982832],[-95.96709799995297,36.15967900031892],[-95.96705200020867,36.18039100018356],[-95.95824699969266,36.18661900039914]]]}},{"id":"1022","type":"Feature","properties":{"GISJOIN":"G40014300014","pct_black":0.0},"geometry":{"type":"Polygon","coordinates":[[[-95.95823899981905,36.177128999834316],[-95.94028200033088,36.17713000041818],[-95.9403019998018,36.16078600040764],[-95.95817299962415,36.16095700002522],[-95.95823899981905,36.177128999834316]]]}},{"id":"1023","type":"Feature","properties":{"GISJOIN":"G40014300015","pct_black":0.0},"geometry":{"type":"Polygon","coordinates":[[[-95.94028200033088,36.17713000041818],[-95.92250299957175,36.1770680003756],[-95.92247999946231,36.160740999981165],[-95.9403019998018,36.16078600040764],[-95.94028200033088,36.17713000041818]]]}},{"id":"1024","type":"Feature","properties":{"GISJOIN":"G40014300016","pct_black":0.0},"geometry":{"type":"Polygon","coordinates":[[[-95.90455899999233,36.17707900042747],[-95.90456999997842,36.160741000107855],[-95.9144980004809,36.1608339996752],[-95.91569199973121,36.16007900032041],[-95.91567800023383,36.160773999944674],[-95.92247999946231,36.160740999981165],[-95.92250299957175,36.1770680003756],[-95.90455899999233,36.17707900042747]]]}},{"id":"1025","type":"Feature","properties":{"GISJOIN":"G40014300017","pct_black":0.0},"geometry":{"type":"Polygon","coordinates":[[[-95.91410299993612,36.16082799983667],[-95.90456999997842,36.160741000107855],[-95.90454699946197,36.14792999981112],[-95.92251299975923,36.14775800040831],[-95.92247999946231,36.160740999981165],[-95.91567800023383,36.160773999944674],[-95.91569199973121,36.16007900032041],[-95.91410299993612,36.16082799983667]]]}},{"id":"1026","type":"Feature","properties":{"GISJOIN":"G40014300018","pct_black":0.0},"geometry":{"type":"Polygon","coordinates":[[[-95.9314069996848,36.16073799986779],[-95.92247999946231,36.160740999981165],[-95.92251299975923,36.14775800040831],[-95.93145299995402,36.14779299999015],[-95.9314069996848,36.16073799986779]]]}},{"id":"1027","type":"Feature","properties":{"GISJOIN":"G40014300019","pct_black":0.0},"geometry":{"type":"Polygon","coordinates":[[[-95.9314069996848,36.16073799986779],[-95.93145299995402,36.14779299999015],[-95.94039999976658,36.147835999975456],[-95.9403019998018,36.16078600040764],[-95.9314069996848,36.16073799986779]]]}},{"id":"1028","type":"Feature","properties":{"GISJOIN":"G40014300020","pct_black":0.0},"geometry":{"type":"Polygon","coordinates":[[[-95.95817299962415,36.16095700002522],[-95.9403019998018,36.16078600040764],[-95.94031699989259,36.154692999880126],[-95.958185999807,36.15467699966597],[-95.95817299962415,36.16095700002522]]]}},{"id":"1029","type":"Feature","properties":{"GISJOIN":"G40014300021","pct_black":0.83},"geometry":{"type":"Polygon","coordinates":[[[-95.958185999807,36.15467699966597],[-95.94031699989259,36.154692999880126],[-95.94039999976658,36.147835999975456],[-95.95818400032549,36.147783000186706],[-95.958185999807,36.15467699966597]]]}},{"id":"1030","type":"Feature","properties":{"GISJOIN":"G40014300022","pct_black":0.0},"geometry":{"type":"Polygon","coordinates":[[[-95.9756049997368,36.15966500001719],[-95.95817799963538,36.15983399982832],[-95.95818400032549,36.147783000186706],[-95.95997000044247,36.1478009999346],[-95.96257300046888,36.15089100033012],[-95.96711099983668,36.15285600012875],[-95.96710200038355,36.155698000098845],[-95.97561299975389,36.155698000097274],[-95.9756049997368,36.15966500001719]]]}},{"id":"1031","type":"Feature","properties":{"GISJOIN":"G40014300023","pct_black":0.52},"geometry":{"type":"Polygon","coordinates":[[[-95.96710200038355,36.155698000098845],[-95.96711099983668,36.15285600012875],[-95.96257300046888,36.15089100033012],[-95.95997000044247,36.1478009999346],[-95.97560200023815,36.14788900033633],[-95.97561299975389,36.155698000097274],[-95.96710200038355,36.155698000098845]]]}},{"id":"1032","type":"Feature","properties":{"GISJOIN":"G40014300024","pct_black":0.0},"geometry":{"type":"Polygon","coordinates":[[[-95.98096199982756,36.15979500010316],[-95.9756049997368,36.15966500001719],[-95.97560200023815,36.14788900033633],[-95.98064200000366,36.14789400018508],[-95.98102134465363,36.15869288531116],[-95.98096199982756,36.15979500010316]]]}},{"id":"1033","type":"Feature","properties":{"GISJOIN":"G40014300025","pct_black":3.73},"geometry":{"type":"Polygon","coordinates":[[[-95.99030800030053,36.16237700001148],[-95.98279500043064,36.160302000014966],[-95.98119300007414,36.16057100014818],[-95.98096800043328,36.15036700044142],[-95.97975899992272,36.14426000015513],[-95.98115100020424,36.141779999808044],[-95.98735799965739,36.14242900032121],[-95.9873240005288,36.14377800024822],[-95.99458664224647,36.14363655592031],[-95.99472050276714,36.14515585311065],[-95.99880399955137,36.14484400018621],[-95.99913075204923,36.14370506379073],[-96.00220006130438,36.14473326521418],[-96.00217500038751,36.14869300030616],[-96.0026919997329,36.148368000327174],[-96.00269499980027,36.150193999743756],[-96.00153999951604,36.1548829999092],[-96.0016979998508,36.15608300041326],[-95.99903600035927,36.160520999699195],[-95.99210699993144,36.162331000405175],[-95.99030800030053,36.16237700001148]]]}},{"id":"1034","type":"Feature","properties":{"GISJOIN":"G40014300026","pct_black":0.0},"geometry":{"type":"Polygon","coordinates":[[[-96.0009110000289,36.157985000097455],[-96.00269499980027,36.150193999743756],[-96.0026919997329,36.148368000327174],[-96.00217500038751,36.14869300030616],[-96.00220006130438,36.14473326521418],[-96.00270163957713,36.144891519037934],[-96.00473600032232,36.14258199976608],[-96.00677499947301,36.14389200018682],[-96.00696099946553,36.14797200001091],[-96.00588800050716,36.14797599991377],[-96.0058700005002,36.150250000026126],[-96.00753699976046,36.15012499976823],[-96.00753799954165,36.15486899983264],[-96.00655700019634,36.15491299980567],[-96.00680800055329,36.15590700025939],[-96.0009110000289,36.157985000097455]]]}},{"id":"1035","type":"Feature","properties":{"GISJOIN":"G40014300027","pct_black":0.0},"geometry":{"type":"Polygon","coordinates":[[[-96.00054600027534,36.161297000194836],[-95.9999150004945,36.159697999868385],[-96.00060100041931,36.15807799958914],[-96.00680800055329,36.15590700025939],[-96.00655700019634,36.15491299980567],[-96.00753799954165,36.15486899983264],[-96.00753699976046,36.15012499976823],[-96.0058700005002,36.150250000026126],[-96.00588800050716,36.14797599991377],[-96.00696099946553,36.14797200001091],[-96.00677499947301,36.14389200018682],[-96.01077499972322,36.145692000171266],[-96.01106399965516,36.14770399978339],[-96.01156499953608,36.14800299957971],[-96.01677200051695,36.14919500024233],[-96.02017599975169,36.14909099982966],[-96.02034900047873,36.15979399988393],[-96.01985199995548,36.16125200015574],[-96.00054600027534,36.161297000194836]]]}},{"id":"1036","type":"Feature","properties":{"GISJOIN":"G40014300028","pct_black":0.0},"geometry":{"type":"Polygon","coordinates":[[[-96.01985199995548,36.16125200015574],[-96.02017599975169,36.14909099982966],[-96.02202157268135,36.149023005267026],[-96.0262114636178,36.14518070484475],[-96.02927599973232,36.14429100001063],[-96.02923299964714,36.16122000000992],[-96.01985199995548,36.16125200015574]]]}},{"id":"1037","type":"Feature","properties":{"GISJOIN":"G40014300029","pct_black":0.0},"geometry":{"type":"Polygon","coordinates":[[[-96.02923299964714,36.16122000000992],[-96.02922400012314,36.1568820002193],[-96.03256499968394,36.157387000245215],[-96.03478300003225,36.157119000192914],[-96.0834299994517,36.14258299994959],[-96.08319900055508,36.158497999639394],[-96.08373099991623,36.16041199988737],[-96.08327099953307,36.16091600029636],[-96.02923299964714,36.16122000000992]]]}},{"id":"1038","type":"Feature","properties":{"GISJOIN":"G40014300030","pct_black":0.0},"geometry":{"type":"Polygon","coordinates":[[[-96.02922400012314,36.1568820002193],[-96.02927599973232,36.14429100001063],[-96.04105999962835,36.14077199989877],[-96.04737699972783,36.14027200022356],[-96.04719500045707,36.153362999889055],[-96.03478300003225,36.157119000192914],[-96.03256499968394,36.157387000245215],[-96.02922400012314,36.1568820002193]]]}},{"id":"1039","type":"Feature","properties":{"GISJOIN":"G40014300031","pct_black":0.25},"geometry":{"type":"Polygon","coordinates":[[[-95.99456372469196,36.14384870487499],[-95.9873240005288,36.14377800024822],[-95.98736000031681,36.13605800006986],[-95.98889999995983,36.134294000121784],[-95.98887699983658,36.13336900028053],[-95.99217799949444,36.13182900030929],[-96.0008259995392,36.14004899980539],[-96.00473600032232,36.14258199976608],[-96.00270163957713,36.144891519037934],[-95.99913075204923,36.14370506379073],[-95.99880399955137,36.14484400018621],[-95.99472050276714,36.14515585311065],[-95.99456372469196,36.14384870487499]]]}},{"id":"1040","type":"Feature","properties":{"GISJOIN":"G40014300032","pct_black":0.15},"geometry":{"type":"Polygon","coordinates":[[[-95.98064200000366,36.14789400018508],[-95.97560200023815,36.14788900033633],[-95.97563600049588,36.13335399962347],[-95.98887699983658,36.13336900028053],[-95.98889999995983,36.134294000121784],[-95.98736000031681,36.13605800006986],[-95.98735799965739,36.14242900032121],[-95.98115100020424,36.141779999808044],[-95.97975899992272,36.14426000015513],[-95.98064200000366,36.14789400018508]]]}},{"id":"1041","type":"Feature","properties":{"GISJOIN":"G40014300033","pct_black":0.16},"geometry":{"type":"Polygon","coordinates":[[[-95.97565399963797,36.140620999938456],[-95.95821499948858,36.140513999870535],[-95.95819899946791,36.13323000010324],[-95.97563600049588,36.13335399962347],[-95.97565399963797,36.140620999938456]]]}},{"id":"1042","type":"Feature","properties":{"GISJOIN":"G40014300034","pct_black":0.4},"geometry":{"type":"Polygon","coordinates":[[[-95.97560200023815,36.14788900033633],[-95.95818400032549,36.147783000186706],[-95.95821499948858,36.140513999870535],[-95.97565399963797,36.140620999938456],[-95.97560200023815,36.14788900033633]]]}},{"id":"1043","type":"Feature","properties":{"GISJOIN":"G40014300035","pct_black":0.0},"geometry":{"type":"Polygon","coordinates":[[[-95.94039999976658,36.147835999975456],[-95.94032300040494,36.14055800028765],[-95.95821499948858,36.140513999870535],[-95.95818400032549,36.147783000186706],[-95.94039999976658,36.147835999975456]]]}},{"id":"1044","type":"Feature","properties":{"GISJOIN":"G40014300036","pct_black":0.0},"geometry":{"type":"Polygon","coordinates":[[[-95.95821499948858,36.140513999870535],[-95.94032300040494,36.14055800028765],[-95.94035500046955,36.13323599976505],[-95.95819899946791,36.13323000010324],[-95.95821499948858,36.140513999870535]]]}},{"id":"1045","type":"Feature","properties":{"GISJOIN":"G40014300037","pct_black":0.0},"geometry":{"type":"Polygon","coordinates":[[[-95.94039999976658,36.147835999975456],[-95.92251299975923,36.14775800040831],[-95.92247699962942,36.1333089999449],[-95.94035500046955,36.13323599976505],[-95.94039999976658,36.147835999975456]]]}},{"id":"1046","type":"Feature","properties":{"GISJOIN":"G40014300038","pct_black":0.0},"geometry":{"type":"Polygon","coordinates":[[[-95.90454699946197,36.14792999981112],[-95.90461600005999,36.133427999940245],[-95.92247699962942,36.1333089999449],[-95.92251299975923,36.14775800040831],[-95.90454699946197,36.14792999981112]]]}},{"id":"1047","type":"Feature","properties":{"GISJOIN":"G40014300039","pct_black":0.0},"geometry":{"type":"Polygon","coordinates":[[[-95.94035500046955,36.13323599976505],[-95.92247699962942,36.1333089999449],[-95.92236699971923,36.11880900019399],[-95.94027099968515,36.11876599974879],[-95.94035500046955,36.13323599976505]]]}},{"id":"1048","type":"Feature","properties":{"GISJOIN":"G40014300040","pct_black":0.0},"geometry":{"type":"Polygon","coordinates":[[[-95.94027099968515,36.11876599974879],[-95.92236699971923,36.11880900019399],[-95.92232999944183,36.10435800036129],[-95.94021599981821,36.10431299961179],[-95.94027099968515,36.11876599974879]]]}},{"id":"1049","type":"Feature","properties":{"GISJOIN":"G4001430004101","pct_black":0.16},"geometry":{"type":"Polygon","coordinates":[[[-95.95814999994236,36.11878899971773],[-95.94027099968515,36.11876599974879],[-95.94021599981821,36.10431299961179],[-95.95798999958035,36.104251999951224],[-95.95814999994236,36.11878899971773]]]}},{"id":"1050","type":"Feature","properties":{"GISJOIN":"G4001430004102","pct_black":0.0},"geometry":{"type":"Polygon","coordinates":[[[-95.9424364304704,36.12605311979272],[-95.9403009999001,36.12523199995211],[-95.94027099968515,36.11876599974879],[-95.95814999994236,36.11878899971773],[-95.95817600023463,36.12603200036909],[-95.9424364304704,36.12605311979272]]]}},{"id":"1051","type":"Feature","properties":{"GISJOIN":"G40014300042","pct_black":0.0},"geometry":{"type":"Polygon","coordinates":[[[-95.95819899946791,36.13323000010324],[-95.94035500046955,36.13323599976505],[-95.9403009999001,36.12523199995211],[-95.94274200039271,36.12613599969005],[-95.95817600023463,36.12603200036909],[-95.95819899946791,36.13323000010324]]]}},{"id":"1052","type":"Feature","properties":{"GISJOIN":"G4001430004301","pct_black":0.52},"geometry":{"type":"Polygon","coordinates":[[[-95.97563600049588,36.13335399962347],[-95.95819899946791,36.13323000010324],[-95.95814999994236,36.11878899971773],[-95.97574599994765,36.11886999968412],[-95.97563600049588,36.13335399962347]]]}},{"id":"1053","type":"Feature","properties":{"GISJOIN":"G4001430004302","pct_black":0.0},"geometry":{"type":"Polygon","coordinates":[[[-95.97574599994765,36.11886999968412],[-95.95814999994236,36.11878899971773],[-95.95798999958035,36.104251999951224],[-95.9757300003044,36.104313000420134],[-95.97574599994765,36.11886999968412]]]}},{"id":"1054","type":"Feature","properties":{"GISJOIN":"G40014300044","pct_black":0.0},"geometry":{"type":"Polygon","coordinates":[[[-95.98697399963886,36.118993000353946],[-95.97574599994765,36.11886999968412],[-95.9757300003044,36.104313000420134],[-95.98587299972075,36.104292999853676],[-95.98697399963886,36.118993000353946]]]}},{"id":"1055","type":"Feature","properties":{"GISJOIN":"G40014300045","pct_black":0.61},"geometry":{"type":"Polygon","coordinates":[[[-95.98942600002289,36.13326400037337],[-95.97563600049588,36.13335399962347],[-95.97574599994765,36.11886999968412],[-95.98697399963886,36.118993000353946],[-95.98740100026885,36.12119800002256],[-95.99217799949444,36.13182900030929],[-95.98942600002289,36.13326400037337]]]}},{"id":"1056","type":"Feature","properties":{"GISJOIN":"G40014300046","pct_black":0.0},"geometry":{"type":"Polygon","coordinates":[[[-96.00537199993393,36.14286599987487],[-96.0008259995392,36.14004899980539],[-95.99217799949444,36.13182900030929],[-95.99580199971268,36.129898000218475],[-95.99770100003644,36.12979800036143],[-95.99763081571847,36.126210129573295],[-96.0070419997405,36.126255999977616],[-96.00700300029793,36.12663400000144],[-96.00818899968353,36.12666200036388],[-96.00873299997967,36.124389000435116],[-96.00896499965145,36.12908199967044],[-96.0100149999156,36.130773999956396],[-96.00959099967302,36.133274000066045],[-96.01147100034301,36.13310999969913],[-96.01157867071858,36.13844573993674],[-96.00828159830695,36.138504179015804],[-96.00805520780288,36.13998757223404],[-96.00537199993393,36.14286599987487]]]}},{"id":"1057","type":"Feature","properties":{"GISJOIN":"G40014300047","pct_black":0.0},"geometry":{"type":"Polygon","coordinates":[[[-96.01614922416744,36.11043732354042],[-96.01251309897594,36.110114067689295],[-96.02010700042794,36.10492499995638],[-96.02393699947007,36.10411899987436],[-96.03091300034029,36.09878499968997],[-96.03426900041933,36.095112999578504],[-96.0342549994627,36.094278999836455],[-96.03892399974193,36.089894000153954],[-96.04012200050427,36.08782200014077],[-96.0426210001105,36.08597300022356],[-96.04742700041137,36.080769000048754],[-96.04736000048644,36.10449299972467],[-96.03073599944263,36.104466000300846],[-96.0306860004381,36.10767599983936],[-96.02816100013034,36.10762900024557],[-96.02838699952855,36.1087190001976],[-96.02167699988428,36.10868800032782],[-96.0216529995047,36.10761800000742],[-96.019972999841,36.10762499986025],[-96.01614922416744,36.11043732354042]]]}},{"id":"1058","type":"Feature","properties":{"GISJOIN":"G40014300048","pct_black":0.0},"geometry":{"type":"Polygon","coordinates":[[[-96.01251309897594,36.110114067689295],[-96.01157599946822,36.10656500003773],[-96.01167699996805,36.0889590003932],[-96.03409699999249,36.08904499984812],[-96.04012200050427,36.08782200014077],[-96.03892399974193,36.089894000153954],[-96.0342549994627,36.094278999836455],[-96.03426900041933,36.095112999578504],[-96.02948699979086,36.09999699962451],[-96.02359199964818,36.10432000035992],[-96.02010700042794,36.10492499995638],[-96.01251309897594,36.110114067689295]]]}},{"id":"1059","type":"Feature","properties":{"GISJOIN":"G40014300049","pct_black":0.0},"geometry":{"type":"Polygon","coordinates":[[[-95.98740100026885,36.12119800002256],[-95.98587299972075,36.104292999853676],[-95.98795499975907,36.089952999931],[-95.9954130003015,36.089974000312864],[-96.00194399990195,36.08900300020936],[-96.01167699996805,36.0889590003932],[-96.01161100001038,36.108058000092626],[-96.01251309897594,36.110114067689295],[-96.01011108993433,36.11205944144521],[-96.00967730185619,36.11336244902302],[-96.0086752419642,36.11777727477954],[-96.00873299997967,36.124389000435116],[-96.00818899968353,36.12666200036388],[-96.00700300029793,36.12663400000144],[-96.0070419997405,36.126255999977616],[-95.99763081571847,36.126210129573295],[-95.99770100003644,36.12979800036143],[-95.99580199971268,36.129898000218475],[-95.99217799949444,36.13182900030929],[-95.98740100026885,36.12119800002256]]]}},{"id":"1060","type":"Feature","properties":{"GISJOIN":"G4001430005001","pct_black":0.42},"geometry":{"type":"Polygon","coordinates":[[[-95.98587299972075,36.104292999853676],[-95.9757300003044,36.104313000420134],[-95.97569200010129,36.089806000408245],[-95.98795499975907,36.089952999931],[-95.98587299972075,36.104292999853676]]]}},{"id":"1061","type":"Feature","properties":{"GISJOIN":"G4001430005002","pct_black":0.08},"geometry":{"type":"Polygon","coordinates":[[[-95.9757300003044,36.104313000420134],[-95.95798999958035,36.104251999951224],[-95.95795199999858,36.09080700041779],[-95.96620399973617,36.08972999974182],[-95.97569200010129,36.089806000408245],[-95.9757300003044,36.104313000420134]]]}},{"id":"1062","type":"Feature","properties":{"GISJOIN":"G40014300051","pct_black":0.25},"geometry":{"type":"Polygon","coordinates":[[[-95.95798999958035,36.104251999951224],[-95.94021599981821,36.10431299961179],[-95.94013400010772,36.090791999730776],[-95.95195500018642,36.09041100000649],[-95.95795199999858,36.09080700041779],[-95.95798999958035,36.104251999951224]]]}},{"id":"1063","type":"Feature","properties":{"GISJOIN":"G40014300052","pct_black":0.0},"geometry":{"type":"Polygon","coordinates":[[[-95.92232999944183,36.10435800036129],[-95.92223099966289,36.08982700004586],[-95.93988499990778,36.08979199984348],[-95.94021599981821,36.10431299961179],[-95.92232999944183,36.10435800036129]]]}},{"id":"1064","type":"Feature","properties":{"GISJOIN":"G40014300053","pct_black":0.0},"geometry":{"type":"Polygon","coordinates":[[[-95.90461600005999,36.133427999940245],[-95.9045410002023,36.11889700030061],[-95.92236699971923,36.11880900019399],[-95.92247699962942,36.1333089999449],[-95.90461600005999,36.133427999940245]]]}},{"id":"1065","type":"Feature","properties":{"GISJOIN":"G40014300054","pct_black":0.0},"geometry":{"type":"Polygon","coordinates":[[[-95.86623599976919,36.42375199984621],[-95.7943700002786,36.42358000017778],[-95.79424999965948,36.394456000226484],[-95.8121889996654,36.39433899970473],[-95.812220000443,36.33651999971909],[-95.86634800002592,36.336670999881704],[-95.866300999579,36.38017200015399],[-95.86673599956158,36.38040400017917],[-95.86624499974302,36.38133400006804],[-95.86623599976919,36.42375199984621]]]}},{"id":"1066","type":"Feature","properties":{"GISJOIN":"G40014300055","pct_black":0.0},"geometry":{"type":"Polygon","coordinates":[[[-95.86623599976919,36.42375199984621],[-95.86624499974302,36.38133400006804],[-95.86673599956158,36.38040400017917],[-95.866300999579,36.38017200015399],[-95.86634800002592,36.336670999881704],[-96.00140100014389,36.33661199995192],[-96.0013180003279,36.37020200020642],[-96.00085300043214,36.375083999733945],[-96.00130699952405,36.39648900004208],[-96.00077099983055,36.40608399998982],[-96.00129099973977,36.409741999584554],[-96.00127799991873,36.419821000262],[-96.00077500035364,36.42271200019543],[-96.0011709999095,36.42368599986216],[-95.86623599976919,36.42375199984621]]]}},{"id":"1067","type":"Feature","properties":{"GISJOIN":"G40014300056","pct_black":0.21},"geometry":{"type":"Polygon","coordinates":[[[-96.00140100014389,36.33661199995192],[-95.92011300047375,36.336599999617654],[-95.91978900020085,36.27860499975194],[-95.99487500009938,36.27859099984369],[-95.99612300919195,36.27998700432165],[-95.99796500002823,36.2784059997839],[-96.00138199982722,36.27936999961848],[-96.00140100014389,36.33661199995192]]]}},{"id":"1068","type":"Feature","properties":{"GISJOIN":"G40014300057","pct_black":2.95},"geometry":{"type":"Polygon","coordinates":[[[-95.9755459995443,36.23501100024707],[-95.92851099945152,36.235085999624154],[-95.92638500020877,36.23468999995776],[-95.92277100000383,36.23139299975219],[-95.9265909999926,36.22918700007385],[-95.94597300016565,36.224992000136865],[-95.94757300027588,36.223292000100294],[-95.9492729994674,36.22319200031023],[-95.94907300045698,36.22139199979481],[-95.9510729998803,36.21909199957258],[-95.95177300004472,36.21899200030165],[-95.9526729996208,36.22059200026371],[-95.97553800032189,36.220512999590724],[-95.9755459995443,36.23501100024707]]]}},{"id":"1069","type":"Feature","properties":{"GISJOIN":"G40014300058","pct_black":0.0},"geometry":{"type":"Polygon","coordinates":[[[-95.92011300047375,36.336599999617654],[-95.812220000443,36.33651999971909],[-95.81206199951698,36.2495299997618],[-95.83684953322093,36.24948081977967],[-95.83880343893127,36.24878307087161],[-95.83968768548537,36.249484306282824],[-95.86607899953151,36.24949300042194],[-95.86763799994854,36.247842999569855],[-95.8688089996371,36.24526000001435],[-95.86910399977548,36.233633999656746],[-95.87755199976581,36.233372999563805],[-95.88026500036278,36.23403100014373],[-95.88366099955606,36.23394599986339],[-95.8864739994619,36.23179700023164],[-95.88656900021263,36.23319400008269],[-95.88716900030752,36.23169400040329],[-95.89016900043278,36.230392999602515],[-95.893169999998,36.2327930004299],[-95.89497000049731,36.2326929995731],[-95.89776999992377,36.22849300026567],[-95.90086999982339,36.228093000375395],[-95.90276999993976,36.22949300012584],[-95.90497000023986,36.22999300008624],[-95.90436999998101,36.22609299963445],[-95.9082700003324,36.226893000180866],[-95.91077000022165,36.2232930000689],[-95.91607099991108,36.222092999817775],[-95.92067100023058,36.22409300029617],[-95.92157100021734,36.225793000308684],[-95.91907100000701,36.22889299955773],[-95.92638500020877,36.23468999995776],[-95.92253499971723,36.23511100014393],[-95.9226130003874,36.24955199998558],[-95.91989000006971,36.24952400037996],[-95.92011300047375,36.336599999617654]]]}},{"id":"1070","type":"Feature","properties":{"GISJOIN":"G40014300059","pct_black":1.27},"geometry":{"type":"Polygon","coordinates":[[[-95.81534000032549,36.24952999984168],[-95.81496099996829,36.22229800031703],[-95.81541499949371,36.16063100005422],[-95.86872299971449,36.16066599957482],[-95.86886999961465,36.24230900001052],[-95.8688089996371,36.24526000001435],[-95.86763799994854,36.247842999569855],[-95.86607899953151,36.24949300042194],[-95.83968768548537,36.249484306282824],[-95.83880343893127,36.24878307087161],[-95.83684953322093,36.24948081977967],[-95.81534000032549,36.24952999984168]]]}},{"id":"1071","type":"Feature","properties":{"GISJOIN":"G40014300060","pct_black":0.06},"geometry":{"type":"Polygon","coordinates":[[[-95.90455899999233,36.17707900042747],[-95.8867000004745,36.17707000034263],[-95.88671800025534,36.16072099993903],[-95.90456999997842,36.160741000107855],[-95.90455899999233,36.17707900042747]]]}},{"id":"1072","type":"Feature","properties":{"GISJOIN":"G40014300061","pct_black":15.59},"geometry":{"type":"Polygon","coordinates":[[[-95.86880200021982,36.234099999663954],[-95.86874400010376,36.17705300028767],[-95.8867000004745,36.17707000034263],[-95.8867824650902,36.19000270457574],[-95.88817692405654,36.19147956952447],[-95.89796999970383,36.19157700000633],[-95.90106700023475,36.190913000290465],[-95.90216100056111,36.19154399973089],[-95.90458399963978,36.19157599981846],[-95.90461099985438,36.20613699988038],[-95.91615599997333,36.20608500023899],[-95.91732599971228,36.20568399978399],[-95.91907999990852,36.20653499975942],[-95.92056600038259,36.2060520002953],[-95.95571400041999,36.2061470004266],[-95.9582040004681,36.204778000285444],[-95.95827499997144,36.22065600021813],[-95.9526729996208,36.22059200026371],[-95.95177300004472,36.21899200030165],[-95.9510729998803,36.21909199957258],[-95.94907300045698,36.22139199979481],[-95.9492729994674,36.22319200031023],[-95.94757300027588,36.223292000100294],[-95.94597300016565,36.224992000136865],[-95.9265909999926,36.22918700007385],[-95.92277100000383,36.23139299975219],[-95.91997099973442,36.22999300022038],[-95.91907100000701,36.22889299955773],[-95.92157100021734,36.225793000308684],[-95.92067100023058,36.22409300029617],[-95.91607099991108,36.222092999817775],[-95.91457100034901,36.22219299994282],[-95.91077000022165,36.2232930000689],[-95.9082700003324,36.226893000180866],[-95.90436999998101,36.22609299963445],[-95.90497000023986,36.22999300008624],[-95.90276999993976,36.22949300012584],[-95.90086999982339,36.228093000375395],[-95.89776999992377,36.22849300026567],[-95.89497000049731,36.2326929995731],[-95.893169999998,36.2327930004299],[-95.89016900043278,36.230392999602515],[-95.88716900030752,36.23169400040329],[-95.88656900021263,36.23319400008269],[-95.8864739994619,36.23179700023164],[-95.88366099955606,36.23394599986339],[-95.86980499991456,36.23334400031131],[-95.86880200021982,36.234099999663954]]]}},{"id":"1073","type":"Feature","properties":{"GISJOIN":"G40014300062","pct_black":89.1},"geometry":{"type":"Polygon","coordinates":[[[-95.9582040004681,36.204778000285444],[-95.97480000019638,36.197621000258614],[-95.97547399980294,36.19693299973865],[-95.97547300026547,36.19140000027807],[-96.00109600045236,36.191481999847625],[-96.00137000007574,36.205917000243204],[-95.95825300034615,36.20614000033376],[-95.9582040004681,36.204778000285444]]]}},{"id":"1074","type":"Feature","properties":{"GISJOIN":"G4001430006301","pct_black":0.29},"geometry":{"type":"Polygon","coordinates":[[[-96.10573899987028,36.16110099967741],[-96.08293899953918,36.160950999721805],[-96.08373099991623,36.16041199988737],[-96.08319900055508,36.158497999639394],[-96.08341800020672,36.14316599995002],[-96.10041600046631,36.13833400027035],[-96.10876199970801,36.13735599981142],[-96.10901599973094,36.15491499960483],[-96.10712499968217,36.157567000027065],[-96.10708900033151,36.16010599997819],[-96.10573899987028,36.16110099967741]]]}},{"id":"1075","type":"Feature","properties":{"GISJOIN":"G4001430006302","pct_black":40.69},"geometry":{"type":"Polygon","coordinates":[[[-96.08341700040921,36.14296099994565],[-96.08337800023541,36.13088899983746],[-96.08824600000781,36.12877700026696],[-96.09187900047861,36.128287999918776],[-96.09539099985196,36.12677200003079],[-96.10218299959713,36.12713999984156],[-96.1061029997491,36.12578799991422],[-96.11074299965404,36.125476000066975],[-96.11382299960032,36.124639000167015],[-96.11602899972,36.12321400001464],[-96.11760600033378,36.123052000088414],[-96.12288900026843,36.12317399973935],[-96.12710399958581,36.124095000199475],[-96.13056800044804,36.12599899995525],[-96.1354799995814,36.1271019998888],[-96.1383929999519,36.129786000045506],[-96.14118500038495,36.13535799957858],[-96.14400899981888,36.13709800034595],[-96.14623984636228,36.14000808345997],[-96.1462559048954,36.140733936016694],[-96.14518100251529,36.14128599570947],[-96.14407100013548,36.14309999966912],[-96.13347899948329,36.14201000005464],[-96.129986999692,36.1415429998698],[-96.11871800017366,36.137116999703906],[-96.11538900049173,36.136775999930265],[-96.10041600046631,36.13833400027035],[-96.08341700040921,36.14296099994565]]]}},{"id":"1076","type":"Feature","properties":{"GISJOIN":"G4001430006401","pct_black":0.0},"geometry":{"type":"Polygon","coordinates":[[[-96.12150999968456,36.143488999848],[-96.10894700025055,36.14350099962308],[-96.10876199970801,36.13735599981142],[-96.11538900049173,36.136775999930265],[-96.11871800017366,36.137116999703906],[-96.12684800015566,36.14034899999466],[-96.12718899963855,36.14098100039521],[-96.12715199991042,36.144085000108625],[-96.12465300044123,36.144424999740124],[-96.12150999968456,36.143488999848]]]}},{"id":"1077","type":"Feature","properties":{"GISJOIN":"G4001430006402","pct_black":0.13},"geometry":{"type":"Polygon","coordinates":[[[-96.2681729994628,36.16197999991263],[-96.16578200007372,36.16088500005728],[-96.10573899987028,36.16110099967741],[-96.10744200040202,36.15946199988245],[-96.10712499968217,36.157567000027065],[-96.10901599973094,36.15491499960483],[-96.10894700025055,36.14350099962308],[-96.12290699970191,36.143551000427934],[-96.12465300044123,36.144424999740124],[-96.12715199991042,36.144085000108625],[-96.12684800015566,36.14034899999466],[-96.13120699982537,36.14175100013342],[-96.14407100013548,36.14309999966912],[-96.14518100251529,36.14128599570947],[-96.1462559048954,36.140733936016694],[-96.14623984636228,36.14000808345997],[-96.148400999633,36.14188599978242],[-96.15156100027872,36.14353000024213],[-96.15422599964334,36.14441700030907],[-96.1564900000033,36.144177000221504],[-96.16134599957097,36.14567299999032],[-96.17095400019005,36.14661699994018],[-96.18933099981908,36.14590799958871],[-96.1916349997412,36.146712000354476],[-96.19372299954098,36.14600400034063],[-96.20357999961108,36.14507500030569],[-96.22285800018025,36.13998300030228],[-96.23401900003843,36.1389659998801],[-96.23879800040575,36.13947100036477],[-96.24294200019969,36.1413570004326],[-96.24956300034336,36.14854500003415],[-96.26184999965582,36.15440599999783],[-96.26548900030298,36.15719300011077],[-96.26750899955272,36.159809999678444],[-96.2681729994628,36.16197999991263]]]}},{"id":"1078","type":"Feature","properties":{"GISJOIN":"G4001430006501","pct_black":10.53},"geometry":{"type":"Polygon","coordinates":[[[-96.09041600045482,36.12595800032171],[-96.08678165898746,36.12426118310175],[-96.0697080005064,36.124503999806365],[-96.06967400003867,36.12284900010649],[-96.0652230003719,36.1227769995926],[-96.06523599965176,36.105821000280024],[-96.06279599962677,36.104142999648445],[-96.06321800016478,36.103274999609944],[-96.06532900039346,36.10204400031512],[-96.06543099952917,36.075506000430835],[-96.11901799970191,36.075641999571545],[-96.11899299955255,36.089612000135055],[-96.12068299972174,36.09457800044412],[-96.11977199944484,36.098172000355824],[-96.11736000038944,36.10189500020422],[-96.11890800050308,36.10415199978466],[-96.11917099948757,36.11282600043467],[-96.11865899988686,36.11871100011489],[-96.11783199966371,36.11991600006591],[-96.11629900019403,36.11928000004264],[-96.11600299945366,36.11999999961268],[-96.11323100017133,36.12089099991191],[-96.10442000047611,36.121142000392844],[-96.09603300028415,36.124565000253725],[-96.09041600045482,36.12595800032171]]]}},{"id":"1079","type":"Feature","properties":{"GISJOIN":"G4001430006502","pct_black":2.7},"geometry":{"type":"Polygon","coordinates":[[[-96.29788799944149,36.16227899976061],[-96.26828699969754,36.16198000004898],[-96.26629800038047,36.15806499991848],[-96.26184999965582,36.15440599999783],[-96.24956300034336,36.14854500003415],[-96.24294200019969,36.1413570004326],[-96.23706099972861,36.139109999607115],[-96.23043000010973,36.13903800021711],[-96.22285800018025,36.13998300030228],[-96.20357999961108,36.14507500030569],[-96.19372299954098,36.14600400034063],[-96.1916349997412,36.146712000354476],[-96.18933099981908,36.14590799958871],[-96.18380300027393,36.14645200021508],[-96.16887399947335,36.14644899958312],[-96.16134599957097,36.14567299999032],[-96.1564900000033,36.144177000221504],[-96.15422599964334,36.14441700030907],[-96.15056100032471,36.143142000069695],[-96.14659300000102,36.14033800025467],[-96.14400899981888,36.13709800034595],[-96.14118500038495,36.13535799957858],[-96.1383929999519,36.129786000045506],[-96.1354799995814,36.1271019998888],[-96.13056800044804,36.12599899995525],[-96.12710399958581,36.124095000199475],[-96.12298000052897,36.123186999701865],[-96.11602899972,36.12321400001464],[-96.11620800039128,36.11934600034414],[-96.11783199966371,36.11991600006591],[-96.11905299977663,36.1173370001546],[-96.11890800050308,36.10415199978466],[-96.11736000038944,36.10189500020422],[-96.11977199944484,36.098172000355824],[-96.12068299972174,36.09457800044412],[-96.11899299955255,36.089612000135055],[-96.11901799970191,36.075641999571545],[-96.20372800034653,36.07586700031421],[-96.2105979995234,36.075775000006495],[-96.21184200044016,36.075179000020725],[-96.21381300000644,36.075722999923926],[-96.29778600023313,36.07577899970192],[-96.29788799944149,36.16227899976061]]]}},{"id":"1080","type":"Feature","properties":{"GISJOIN":"G40014300066","pct_black":0.0},"geometry":{"type":"Polygon","coordinates":[[[-96.01106399965516,36.14770399978339],[-96.01077499972322,36.145692000171266],[-96.005676999706,36.14303299963845],[-96.00805520780288,36.13998757223404],[-96.00828159830695,36.138504179015804],[-96.01157867071858,36.13844573993674],[-96.01147100034301,36.13310999969913],[-96.00959099967302,36.133274000066045],[-96.0100149999156,36.130773999956396],[-96.00896499965145,36.12908199967044],[-96.00872400005916,36.12746000037254],[-96.0086752419642,36.11777727477954],[-96.01011108993433,36.11205944144521],[-96.01251309897594,36.110114067689295],[-96.01614922416744,36.11043732354042],[-96.019972999841,36.10762499986025],[-96.0216529995047,36.10761800000742],[-96.02167699988428,36.10868800032782],[-96.02838699952855,36.1087190001976],[-96.02816100013034,36.10762900024557],[-96.0306860004381,36.10767599983936],[-96.03073599944263,36.104466000300846],[-96.04736000048644,36.10449299972467],[-96.04742700041137,36.080769000048754],[-96.05000600048744,36.077964999619084],[-96.05375499974252,36.0754910004456],[-96.06543099952917,36.075506000430835],[-96.06532900039346,36.10204400031512],[-96.06321800016478,36.103274999609944],[-96.06279599962677,36.104142999648445],[-96.06523599965176,36.105821000280024],[-96.0652230003719,36.1227769995926],[-96.06967400003867,36.12284900010649],[-96.0697080005064,36.124503999806365],[-96.07066399950392,36.12457600018892],[-96.08678165898746,36.12426118310175],[-96.09041600045482,36.12595800032171],[-96.09836799983623,36.123809000399625],[-96.10442000047611,36.121142000392844],[-96.11323100017133,36.12089099991191],[-96.11600299945366,36.11999999961268],[-96.11602899972,36.12321400001464],[-96.11382299960032,36.124639000167015],[-96.11074299965404,36.125476000066975],[-96.1061029997491,36.12578799991422],[-96.10218299959713,36.12713999984156],[-96.09539099985196,36.12677200003079],[-96.09187900047861,36.128287999918776],[-96.08824600000781,36.12877700026696],[-96.06917800013578,36.13638900044059],[-96.05081699964161,36.13893799957503],[-96.04737699972783,36.14027200022356],[-96.04105999962835,36.14077199989877],[-96.0262114636178,36.14518070484475],[-96.02202157268135,36.149023005267026],[-96.01677200051695,36.14919500024233],[-96.01106399965516,36.14770399978339]]]}},{"id":"1081","type":"Feature","properties":{"GISJOIN":"G4001430006701","pct_black":16.32},"geometry":{"type":"Polygon","coordinates":[[[-95.99440699969463,36.08996300016508],[-95.98795499975907,36.089952999931],[-95.98607299964779,36.075193999804966],[-96.05375499974252,36.0754910004456],[-96.05000600048744,36.077964999619084],[-96.0426210001105,36.08597300022356],[-96.03888400055948,36.088316999992884],[-96.03409699999249,36.08904499984812],[-96.00194399990195,36.08900300020936],[-95.99440699969463,36.08996300016508]]]}},{"id":"1082","type":"Feature","properties":{"GISJOIN":"G4001430006702","pct_black":0.0},"geometry":{"type":"Polygon","coordinates":[[[-96.02958300053871,36.075366000039445],[-95.98607299964779,36.075193999804966],[-95.97869100044991,36.06001000004808],[-95.97577199956689,36.047994999655366],[-95.97447199957564,36.046294999907715],[-95.96993599950942,36.04427100031099],[-95.96596800031166,36.04100300035305],[-95.96358400040502,36.038523000023886],[-95.96210299982405,36.033055000092695],[-95.95735900021174,36.030938999832685],[-95.95464699986273,36.02829900017754],[-95.95305699963984,36.02541499993221],[-95.95198900013442,36.0247580002994],[-95.9504459996167,36.018914000177105],[-95.94978300030259,36.008635999746666],[-95.94777100008453,36.004095999986745],[-95.948798999467,36.00082799962832],[-95.94591800037225,35.99731599963617],[-95.94024147277936,35.99271702160373],[-95.94024199985702,35.98116000025565],[-95.94448599975595,35.98133700037921],[-95.94569100053708,35.98616699956615],[-95.95116499959826,35.9915230002444],[-95.95399199947093,35.9930080003833],[-95.95649800029216,35.99544499976033],[-95.95854000006855,35.996248000443764],[-95.96027599987426,35.99587700023863],[-95.96260299964673,35.99647799967122],[-95.96916899983606,35.99567799994267],[-95.97591800039727,35.99564899998495],[-95.97594599954692,35.9883469996368],[-96.02954400020337,35.98838700044239],[-96.02958300053871,36.075366000039445]]]}},{"id":"1083","type":"Feature","properties":{"GISJOIN":"G4001430006801","pct_black":0.0},"geometry":{"type":"Polygon","coordinates":[[[-95.98795499975907,36.089952999931],[-95.97569200010129,36.089806000408245],[-95.97577800047256,36.07521399978298],[-95.98607299964779,36.075193999804966],[-95.98795499975907,36.089952999931]]]}},{"id":"1084","type":"Feature","properties":{"GISJOIN":"G4001430006802","pct_black":0.0},"geometry":{"type":"Polygon","coordinates":[[[-95.95795199999858,36.09080700041779],[-95.95800700042953,36.07528099966181],[-95.97577800047256,36.07521399978298],[-95.97569200010129,36.089806000408245],[-95.96620399973617,36.08972999974182],[-95.95795199999858,36.09080700041779]]]}},{"id":"1085","type":"Feature","properties":{"GISJOIN":"G4001430006901","pct_black":0.0},"geometry":{"type":"Polygon","coordinates":[[[-95.93988499990778,36.08979199984348],[-95.92223099966289,36.08982700004586],[-95.92213800011824,36.07532600014858],[-95.94012299982718,36.075326999794605],[-95.94012699953821,36.090229000304525],[-95.93988499990778,36.08979199984348]]]}},{"id":"1086","type":"Feature","properties":{"GISJOIN":"G4001430006902","pct_black":0.28},"geometry":{"type":"Polygon","coordinates":[[[-95.90435299977717,36.08989700035193],[-95.90432999989395,36.07538799994921],[-95.92213800011824,36.07532600014858],[-95.92223099966289,36.08982700004586],[-95.90435299977717,36.08989700035193]]]}},{"id":"1087","type":"Feature","properties":{"GISJOIN":"G4001430006903","pct_black":0.0},"geometry":{"type":"Polygon","coordinates":[[[-95.88652600004447,36.089900000256584],[-95.88639799959324,36.07534799992813],[-95.90432999989395,36.07538799994921],[-95.90435299977717,36.08989700035193],[-95.88652600004447,36.089900000256584]]]}},{"id":"1088","type":"Feature","properties":{"GISJOIN":"G4001430006904","pct_black":0.4},"geometry":{"type":"Polygon","coordinates":[[[-95.8866120003811,36.104423999720126],[-95.86869299986655,36.104481000181615],[-95.8685600005456,36.07541499996753],[-95.88639799959324,36.07534799992813],[-95.8866120003811,36.104423999720126]]]}},{"id":"1089","type":"Feature","properties":{"GISJOIN":"G4001430006905","pct_black":0.0},"geometry":{"type":"Polygon","coordinates":[[[-95.8866120003811,36.104423999720126],[-95.88652600004447,36.089900000256584],[-95.90435299977717,36.08989700035193],[-95.90453200024264,36.104364999598864],[-95.8866120003811,36.104423999720126]]]}},{"id":"1090","type":"Feature","properties":{"GISJOIN":"G40014300070","pct_black":0.0},"geometry":{"type":"Polygon","coordinates":[[[-95.9045410002023,36.11889700030061],[-95.90453200024264,36.104364999598864],[-95.92232999944183,36.10435800036129],[-95.92236699971923,36.11880900019399],[-95.9045410002023,36.11889700030061]]]}},{"id":"1091","type":"Feature","properties":{"GISJOIN":"G4001430007101","pct_black":0.0},"geometry":{"type":"Polygon","coordinates":[[[-95.90454699946197,36.14792999981112],[-95.88666499956693,36.14799000001722],[-95.8866700000376,36.13349599958621],[-95.90461600005999,36.133427999940245],[-95.90454699946197,36.14792999981112]]]}},{"id":"1092","type":"Feature","properties":{"GISJOIN":"G4001430007102","pct_black":0.0},"geometry":{"type":"Polygon","coordinates":[[[-95.86457499963029,36.14797899955331],[-95.86458100005844,36.1334939998689],[-95.8866700000376,36.13349599958621],[-95.88666499956693,36.14799000001722],[-95.86457499963029,36.14797899955331]]]}},{"id":"1093","type":"Feature","properties":{"GISJOIN":"G40014300072","pct_black":0.0},"geometry":{"type":"Polygon","coordinates":[[[-95.90456999997842,36.160741000107855],[-95.88671800025534,36.16072099993903],[-95.88666499956693,36.14799000001722],[-95.90454699946197,36.14792999981112],[-95.90456999997842,36.160741000107855]]]}},{"id":"1094","type":"Feature","properties":{"GISJOIN":"G4001430007301","pct_black":0.0},"geometry":{"type":"Polygon","coordinates":[[[-95.83335300007651,36.1606450004384],[-95.83323600043082,36.11892599980257],[-95.86987700016161,36.11896299976388],[-95.869667999646,36.12505999956046],[-95.86921499973484,36.12573800013782],[-95.87029699972048,36.133471000000654],[-95.86458100005844,36.1334939998689],[-95.86457499963029,36.14797899955331],[-95.85117799992359,36.14800999968654],[-95.85119599981356,36.16065999988331],[-95.83335300007651,36.1606450004384]]]}},{"id":"1095","type":"Feature","properties":{"GISJOIN":"G4001430007302","pct_black":0.0},"geometry":{"type":"Polygon","coordinates":[[[-95.76164999950528,36.16275000007981],[-95.76176200037236,36.11890399984261],[-95.83323600043082,36.11892599980257],[-95.83335300007651,36.1606450004384],[-95.81541499949371,36.16063100005422],[-95.81540000024266,36.162629999770076],[-95.76164999950528,36.16275000007981]]]}},{"id":"1096","type":"Feature","properties":{"GISJOIN":"G40014300074","pct_black":0.09},"geometry":{"type":"Polygon","coordinates":[[[-95.77946299994589,36.07544899976354],[-95.76165200002943,36.07545099974081],[-95.76163200038317,36.04643499971616],[-95.86834200037589,36.04641399963781],[-95.8685600005456,36.07541499996753],[-95.79744799979568,36.07540299970184],[-95.79512100015914,36.07558099976289],[-95.7934020004031,36.07679300029303],[-95.77946299994589,36.07544899976354]]]}},{"id":"1097","type":"Feature","properties":{"GISJOIN":"G4001430007501","pct_black":0.1},"geometry":{"type":"Polygon","coordinates":[[[-95.86834200037589,36.04641399963781],[-95.76163200038317,36.04643499971616],[-95.76165000048555,36.01743900014525],[-95.86852999951795,36.01737800034615],[-95.86834200037589,36.04641399963781]]]}},{"id":"1098","type":"Feature","properties":{"GISJOIN":"G4001430007502","pct_black":0.0},"geometry":{"type":"Polygon","coordinates":[[[-95.76165000048555,36.01743900014525],[-95.76185199995238,35.933103999798156],[-95.7614629994466,35.91799999991937],[-95.76378300049113,35.91887600007663],[-95.76747899996626,35.92512400043504],[-95.76981499964515,35.93276800034381],[-95.77206299946882,35.937599999724846],[-95.77070300050582,35.94212399981479],[-95.7709029995729,35.94591600008063],[-95.7747269994725,35.94824800043498],[-95.7790790005486,35.952451999953595],[-95.78923899945276,35.95810799989298],[-95.794127999489,35.96292400028463],[-95.79591200023019,35.96279199979252],[-95.79905599991258,35.96000400036942],[-95.80071999950951,35.95929599993782],[-95.81509700052875,35.95964699976231],[-95.81688100048132,35.95916300034888],[-95.81841599960113,35.95525599957028],[-95.83039999976158,35.93812600043979],[-95.83302799992337,35.93091900017375],[-95.83444099984423,35.929018999931515],[-95.83581699994289,35.92837500017863],[-95.84562600051778,35.93168699972674],[-95.85139399995542,35.932533000092995],[-95.85140100006757,35.94059700011103],[-95.85414399955941,35.940599000024186],[-95.85569800011079,35.944126999885285],[-95.85826600046445,35.94611100018228],[-95.86345099976886,35.948511000343125],[-95.86768300012191,35.948345999907005],[-95.86866699984793,35.94879800020595],[-95.86852999951795,36.01737800034615],[-95.76165000048555,36.01743900014525]]]}},{"id":"1099","type":"Feature","properties":{"GISJOIN":"G4001430007601","pct_black":0.72},"geometry":{"type":"Polygon","coordinates":[[[-95.98607299964779,36.075193999804966],[-95.95800700042953,36.07528099966181],[-95.9578330004128,36.046412000273456],[-95.97447199957564,36.046294999907715],[-95.97577199956689,36.047994999655366],[-95.97869100044991,36.06001000004808],[-95.98607299964779,36.075193999804966]]]}},{"id":"1100","type":"Feature","properties":{"GISJOIN":"G4001430007602","pct_black":1.22},"geometry":{"type":"Polygon","coordinates":[[[-95.9434450000459,36.077153999573596],[-95.94012299982718,36.075326999794605],[-95.93988999970594,36.05564700040157],[-95.94119900015852,36.052830999972045],[-95.93989500021135,36.04770499957071],[-95.94001999995173,36.046410999798866],[-95.9578330004128,36.046412000273456],[-95.95800700042953,36.07528099966181],[-95.95069699991996,36.07529600040358],[-95.9484019998883,36.0771040004231],[-95.9434450000459,36.077153999573596]]]}},{"id":"1101","type":"Feature","properties":{"GISJOIN":"G4001430007603","pct_black":0.0},"geometry":{"type":"Polygon","coordinates":[[[-95.94012299982718,36.075326999794605],[-95.92213800011824,36.07532600014858],[-95.92212799973153,36.04638399991465],[-95.94001999995173,36.046410999798866],[-95.93989500021135,36.04770499957071],[-95.94119900015852,36.052830999972045],[-95.93988999970594,36.05564700040157],[-95.94012299982718,36.075326999794605]]]}},{"id":"1102","type":"Feature","properties":{"GISJOIN":"G4001430007604","pct_black":0.7},"geometry":{"type":"Polygon","coordinates":[[[-95.92213800011824,36.07532600014858],[-95.8685600005456,36.07541499996753],[-95.86848499994225,36.06091000042474],[-95.92207000029188,36.06082500008248],[-95.92213800011824,36.07532600014858]]]}},{"id":"1103","type":"Feature","properties":{"GISJOIN":"G4001430007605","pct_black":0.0},"geometry":{"type":"Polygon","coordinates":[[[-95.92207000029188,36.06082500008248],[-95.86848499994225,36.06091000042474],[-95.86834200037589,36.04641399963781],[-95.92212799973153,36.04638399991465],[-95.92207000029188,36.06082500008248]]]}},{"id":"1104","type":"Feature","properties":{"GISJOIN":"G4001430007606","pct_black":0.44},"geometry":{"type":"Polygon","coordinates":[[[-95.86834200037589,36.04641399963781],[-95.868387999911,35.99650399998378],[-95.86886100038457,35.99611999991424],[-95.86866699984793,35.94879800020595],[-95.87815499974165,35.952818000153584],[-95.88510800039504,35.95782999986949],[-95.89005199993115,35.95754200020367],[-95.89264400020447,35.95833399986227],[-95.89522000041798,35.96040600031825],[-95.90246000007541,35.96383399992888],[-95.90446799954324,35.965398000234714],[-95.90422599986077,36.0463420003782],[-95.86834200037589,36.04641399963781]]]}},{"id":"1105","type":"Feature","properties":{"GISJOIN":"G4001430007607","pct_black":2.0},"geometry":{"type":"Polygon","coordinates":[[[-95.97447199957564,36.046294999907715],[-95.90422599986077,36.0463420003782],[-95.90446799954324,35.965398000234714],[-95.90675699946992,35.96854100036144],[-95.91016899952348,35.97099700038357],[-95.91215700044201,35.97211699979173],[-95.91586900038455,35.97292099964502],[-95.91784500007822,35.9743329995587],[-95.92108500040058,35.97508100017576],[-95.92487699966662,35.97764100040128],[-95.92750900004172,35.981745000327535],[-95.92786100020923,35.98389300028542],[-95.93036600014561,35.98664100028589],[-95.93237000042419,35.99039699975728],[-95.93879005380776,35.99377602782545],[-95.93880609019199,35.99235597855949],[-95.93982999875776,35.99242400020202],[-95.94848700024222,35.99994799955725],[-95.948798999467,36.00082799962832],[-95.94777100008453,36.004095999986745],[-95.94978300030259,36.008635999746666],[-95.9504459996167,36.018914000177105],[-95.95198900013442,36.0247580002994],[-95.95305699963984,36.02541499993221],[-95.95464699986273,36.02829900017754],[-95.95735900021174,36.030938999832685],[-95.96210299982405,36.033055000092695],[-95.96358400040502,36.038523000023886],[-95.96596800031166,36.04100300035305],[-95.96993599950942,36.04427100031099],[-95.97447199957564,36.046294999907715]]]}},{"id":"1106","type":"Feature","properties":{"GISJOIN":"G40014300077","pct_black":0.28},"geometry":{"type":"Polygon","coordinates":[[[-95.96157392418158,35.99639725249189],[-95.96027599987426,35.99587700023863],[-95.9577660002121,35.99616400031065],[-95.95399199947093,35.9930080003833],[-95.95116499959826,35.9915230002444],[-95.94569100053708,35.98616699956615],[-95.94448599975595,35.98133700037921],[-95.94024199985702,35.98116000025565],[-95.94029799979353,35.90110500004944],[-95.9439489995133,35.9010649999613],[-95.94407300010081,35.85657999975007],[-95.99675600000513,35.857153000174854],[-96.03311799949304,35.85682399971119],[-96.03327499949353,35.901099000024864],[-96.02957000054461,35.90110599971592],[-96.02954600004645,35.90190499984863],[-96.02954400020337,35.98838700044239],[-95.97594599954692,35.9883469996368],[-95.97591800039727,35.99564899998495],[-95.96157392418158,35.99639725249189]]]}},{"id":"1107","type":"Feature","properties":{"GISJOIN":"G40014300078","pct_black":1.64},"geometry":{"type":"Polygon","coordinates":[[[-95.93237000042419,35.99039699975728],[-95.93036600014561,35.98664100028589],[-95.92786100020923,35.98389300028542],[-95.92750900004172,35.981745000327535],[-95.9256690003065,35.978488999730196],[-95.9219890004911,35.97553299993689],[-95.9174930000842,35.974200999581605],[-95.91586900038455,35.97292099964502],[-95.91215700044201,35.97211699979173],[-95.91016899952348,35.97099700038357],[-95.90675699946992,35.96854100036144],[-95.90446799954324,35.965398000234714],[-95.90246000007541,35.96383399992888],[-95.89522000041798,35.96040600031825],[-95.89264400020447,35.95833399986227],[-95.89005199993115,35.95754200020367],[-95.88510800039504,35.95782999986949],[-95.87815499974165,35.952818000153584],[-95.86768300012191,35.948345999907005],[-95.86345099976886,35.948511000343125],[-95.85705799982311,35.945515000134286],[-95.85569800011079,35.944126999885285],[-95.85414399955941,35.940599000024186],[-95.85140100006757,35.94059700011103],[-95.85139399995542,35.932533000092995],[-95.84562600051778,35.93168699972674],[-95.83752999953943,35.928646999981254],[-95.83581699994289,35.92837500017863],[-95.83444099984423,35.929018999931515],[-95.83302799992337,35.93091900017375],[-95.83039999976158,35.93812600043979],[-95.81841599960113,35.95525599957028],[-95.81688100048132,35.95916300034888],[-95.81509700052875,35.95964699976231],[-95.80071999950951,35.95929599993782],[-95.79905599991258,35.96000400036942],[-95.79591200023019,35.96279199979252],[-95.794127999489,35.96292400028463],[-95.78923899945276,35.95810799989298],[-95.7790790005486,35.952451999953595],[-95.77515099955804,35.948587999949176],[-95.77073499944836,35.94561200019145],[-95.77070300050582,35.94212399981479],[-95.77206299946882,35.937599999724846],[-95.76981499964515,35.93276800034381],[-95.76747899996626,35.92512400043504],[-95.76378300049113,35.91887600007663],[-95.7614629994466,35.91799999991937],[-95.76168700008007,35.900811000337114],[-95.81945500052075,35.9010950000006],[-95.81926500048955,35.88502000005235],[-95.81996399982687,35.85589999979315],[-95.94407300010081,35.85657999975007],[-95.9439489995133,35.9010649999613],[-95.94029799979353,35.90110500004944],[-95.94024147277936,35.99271702160373],[-95.93880609019199,35.99235597855949],[-95.93879005380776,35.99377602782545],[-95.93237000042419,35.99039699975728]]]}},{"id":"1108","type":"Feature","properties":{"GISJOIN":"G40014300079","pct_black":10.74},"geometry":{"type":"Polygon","coordinates":[[[-95.9755459995443,36.23501100024707],[-95.97553800032189,36.220512999590724],[-96.0014179996363,36.220637000328885],[-96.00139899975372,36.23495299998336],[-95.9755459995443,36.23501100024707]]]}},{"id":"1109","type":"Feature","properties":{"GISJOIN":"G40014300080","pct_black":60.67},"geometry":{"type":"Polygon","coordinates":[[[-95.95827499997144,36.22065600021813],[-95.95825300034615,36.20614000033376],[-96.00137000007574,36.205917000243204],[-96.00135100051918,36.22055300036661],[-95.95827499997144,36.22065600021813]]]}},{"id":"1110","type":"Feature","properties":{"GISJOIN":"G40014300081","pct_black":0.0},"geometry":{"type":"Polygon","coordinates":[[[-95.89458645151475,36.19158801550416],[-95.88817692405654,36.19147956952447],[-95.8867824650902,36.19000270457574],[-95.8867000004745,36.17707000034263],[-95.90455899999233,36.17707900042747],[-95.90458399963978,36.19157599981846],[-95.90216100056111,36.19154399973089],[-95.90093099957225,36.19091300006177],[-95.89458645151475,36.19158801550416]]]}},{"id":"1111","type":"Feature","properties":{"GISJOIN":"G40014300082","pct_black":0.0},"geometry":{"type":"Polygon","coordinates":[[[-95.8867000004745,36.17707000034263],[-95.86874400010376,36.17705300028767],[-95.86872299971449,36.16066599957482],[-95.88671800025534,36.16072099993903],[-95.8867000004745,36.17707000034263]]]}},{"id":"1112","type":"Feature","properties":{"GISJOIN":"G40014300083","pct_black":0.19},"geometry":{"type":"Polygon","coordinates":[[[-95.88671800025534,36.16072099993903],[-95.86872299971449,36.16066599957482],[-95.86882000031807,36.147975999646256],[-95.88666499956693,36.14799000001722],[-95.88671800025534,36.16072099993903]]]}},{"id":"1113","type":"Feature","properties":{"GISJOIN":"G40014300084","pct_black":0.0},"geometry":{"type":"Polygon","coordinates":[[[-95.90461600005999,36.133427999940245],[-95.8866700000376,36.13349599958621],[-95.88660100053184,36.11889299961672],[-95.9045410002023,36.11889700030061],[-95.90461600005999,36.133427999940245]]]}},{"id":"1114","type":"Feature","properties":{"GISJOIN":"G4001430008501","pct_black":0.0},"geometry":{"type":"Polygon","coordinates":[[[-95.8866700000376,36.13349599958621],[-95.87029699972048,36.133471000000654],[-95.86921499973484,36.12573800013782],[-95.869667999646,36.12505999956046],[-95.86987700016161,36.11896299976388],[-95.88660100053184,36.11889299961672],[-95.8866700000376,36.13349599958621]]]}},{"id":"1115","type":"Feature","properties":{"GISJOIN":"G4001430008502","pct_black":0.0},"geometry":{"type":"Polygon","coordinates":[[[-95.9045410002023,36.11889700030061],[-95.86867899945838,36.118951999981576],[-95.86869299986655,36.104481000181615],[-95.90453200024264,36.104364999598864],[-95.9045410002023,36.11889700030061]]]}},{"id":"1116","type":"Feature","properties":{"GISJOIN":"G40014300086","pct_black":0.51},"geometry":{"type":"Polygon","coordinates":[[[-95.92232999944183,36.10435800036129],[-95.90453200024264,36.104364999598864],[-95.90435299977717,36.08989700035193],[-95.92223099966289,36.08982700004586],[-95.92232999944183,36.10435800036129]]]}},{"id":"1117","type":"Feature","properties":{"GISJOIN":"G40014300087","pct_black":0.0},"geometry":{"type":"Polygon","coordinates":[[[-95.95795199999858,36.09080700041779],[-95.94013400010772,36.090791999730776],[-95.94012299982718,36.075326999794605],[-95.94148899944804,36.07577699981584],[-95.94258000038123,36.07699300002188],[-95.94465500042487,36.07719299960572],[-95.9484019998883,36.0771040004231],[-95.95069699991996,36.07529600040358],[-95.95800700042953,36.07528099966181],[-95.95795199999858,36.09080700041779]]]}},{"id":"1118","type":"Feature","properties":{"GISJOIN":"G40014300088","pct_black":0.0},"geometry":{"type":"Polygon","coordinates":[[[-96.04719500045707,36.153362999889055],[-96.04737699972783,36.14027200022356],[-96.05081699964161,36.13893799957503],[-96.06917800013578,36.13638900044059],[-96.08337800023541,36.13088899983746],[-96.0834299994517,36.14258299994959],[-96.04719500045707,36.153362999889055]]]}},{"id":"1119","type":"Feature","properties":{"GISJOIN":"G40014300089","pct_black":0.0},"geometry":{"type":"Polygon","coordinates":[[[-95.86872299971449,36.16066599957482],[-95.85119599981356,36.16065999988331],[-95.85117799992359,36.14800999968654],[-95.86882000031807,36.147975999646256],[-95.86872299971449,36.16066599957482]]]}},{"id":"1120","type":"Feature","properties":{"GISJOIN":"G4001430009001","pct_black":1.59},"geometry":{"type":"Polygon","coordinates":[[[-95.86867899945838,36.118951999981576],[-95.7616410003154,36.118895000418945],[-95.76166700027893,36.104449999839034],[-95.86869299986655,36.104481000181615],[-95.86867899945838,36.118951999981576]]]}},{"id":"1121","type":"Feature","properties":{"GISJOIN":"G4001430009002","pct_black":13.88},"geometry":{"type":"Polygon","coordinates":[[[-95.76166699965599,36.10425900042188],[-95.76166899984499,36.089958000435274],[-95.86858999960464,36.089955999968524],[-95.86869299986655,36.104481000181615],[-95.76166699965599,36.10425900042188]]]}},{"id":"1122","type":"Feature","properties":{"GISJOIN":"G4001430009003","pct_black":0.0},"geometry":{"type":"Polygon","coordinates":[[[-95.86858999960464,36.089955999968524],[-95.76166899984499,36.089958000435274],[-95.76165200002943,36.07545099974081],[-95.77946299994589,36.07544899976354],[-95.7934020004031,36.07679300029303],[-95.79512100015914,36.07558099976289],[-95.79744799979568,36.07540299970184],[-95.8685600005456,36.07541499996753],[-95.86858999960464,36.089955999968524]]]}},{"id":"1123","type":"Feature","properties":{"GISJOIN":"G4001430009101","pct_black":1.8},"geometry":{"type":"Polygon","coordinates":[[[-95.99487500009938,36.27859099984369],[-95.9736630002742,36.27858499972384],[-95.97370899982657,36.2514349999029],[-95.9748689999969,36.24955500004425],[-95.97544700023565,36.24953600003361],[-95.9755459995443,36.23501100024707],[-96.00139899975372,36.23495299998336],[-96.00138199982722,36.27936999961848],[-95.99796500002823,36.2784059997839],[-95.99612300919195,36.27998700432165],[-95.99487500009938,36.27859099984369]]]}},{"id":"1124","type":"Feature","properties":{"GISJOIN":"G4001430009102","pct_black":0.0},"geometry":{"type":"Polygon","coordinates":[[[-95.97277862390399,36.24969424379603],[-95.9226130003874,36.24955199998558],[-95.92253499971723,36.23511100014393],[-95.92709799959222,36.23465099995341],[-95.92949100008934,36.235147999884916],[-95.9755459995443,36.23501100024707],[-95.97544700023565,36.24953600003361],[-95.9748689999969,36.24955500004425],[-95.97387600017447,36.2509149998238],[-95.97277862390399,36.24969424379603]]]}},{"id":"1125","type":"Feature","properties":{"GISJOIN":"G4001430009103","pct_black":1.65},"geometry":{"type":"Polygon","coordinates":[[[-95.9736630002742,36.27858499972384],[-95.91978900020085,36.27860499975194],[-95.91989000006971,36.24952400037996],[-95.97187900021015,36.249505000245186],[-95.97310400055987,36.249858999669065],[-95.97387600017447,36.2509149998238],[-95.9736630002742,36.27858499972384]]]}}]}