{"type":"FeatureCollection","features":[{"type":"Feature","geometry":{"type":"Polygon","coordinates":[[[-79.7005649996748,36.245895000120804],[-79.70153499962026,36.24591400031964],[-79.70396699960581,36.245971999944864],[-79.70670900011108,36.24607300020128],[-79.70979700022274,36.246192999733694],[-79.710484000311,36.24621899975305],[-79.71616500006668,36.24641200007177],[-79.71676400029138,36.2464329996948],[-79.71677699981187,36.24643400019418],[-79.7174120000216,36.246591000196595],[-79.71761399968796,36.246592999742376],[-79.71927300026984,36.24661400004125],[-79.72016600022242,36.24661199977151],[-79.7205589996845,36.24660599968656],[-79.7207570000512,36.24656800034517],[-79.72114600021364,36.24658100029352],[-79.72465000025191,36.246699999998924],[-79.72543900044742,36.24672700034518],[-79.72557599981644,36.24673100015421],[-79.72642299973829,36.24676000003126],[-79.72744000043774,36.246794000198236],[-79.72811800030517,36.24681699998314],[-79.72848400000305,36.246828000350355],[-79.73052799965109,36.246896999654766],[-79.73507399960485,36.24705100015051],[-79.73726100026634,36.247125000261974],[-79.73779600001862,36.24714299967148],[-79.73848599958163,36.24716699984374],[-79.7407850003961,36.24724300009893],[-79.74357700023174,36.2473369996451],[-79.74637800028823,36.24742900027835],[-79.7479940003141,36.24748499998081],[-79.74947800009546,36.24753500035392],[-79.74971800029498,36.24754299988903],[-79.74981700002918,36.24754599989559],[-79.7528170002773,36.2476470002912],[-79.75543800040873,36.24773899983502],[-79.7569370002587,36.2477850002908],[-79.75768999957089,36.24780600026936],[-79.76035599990817,36.24790100034342],[-79.76057500019128,36.24790700032894],[-79.7606670002528,36.247910000321546],[-79.76100600018651,36.247920999810475],[-79.76232799958618,36.24796599967931],[-79.76439600042195,36.24803500015238],[-79.76747699996261,36.24814600034456],[-79.76846500034976,36.24817099996147],[-79.76903500026215,36.248188999854534],[-79.76948200015092,36.24820399976222],[-79.77245800010957,36.24830299980549],[-79.77349800037526,36.24833799977609],[-79.77422899994612,36.24836300005603],[-79.77456799987985,36.24837400020562],[-79.77469699975127,36.24837799993031],[-79.77490699981355,36.24838500035367],[-79.77863699980763,36.24851000014915],[-79.7789239998628,36.248519999805396],[-79.77965399960878,36.248544000279175],[-79.7806899996765,36.248577999669976],[-79.78112599969458,36.24859100000838],[-79.78148600044301,36.24860299987308],[-79.78244799999257,36.248636000215924],[-79.78395100004053,36.24868700032314],[-79.78575700003718,36.24874700027885],[-79.78727500015373,36.24879500035518],[-79.78897999986806,36.248853999759596],[-79.79258000016578,36.24897300035052],[-79.79754000039635,36.249126999653065],[-79.80048000037,36.249234000062344],[-79.80584999978107,36.249413000243415],[-79.80888500018926,36.24951299993947],[-79.81285399965965,36.24964399995608],[-79.8144270000278,36.24969599986312],[-79.81559500034,36.24973500031401],[-79.81762899994229,36.249801999761495],[-79.81796799987599,36.249812999708524],[-79.81830699980972,36.24982500010998],[-79.81932500033408,36.24985799993677],[-79.82027099999011,36.249892999935376],[-79.8220369998038,36.24994699986113],[-79.82282400034948,36.249972000350716],[-79.8252909995968,36.25005899996373],[-79.82610599973158,36.25008099978388],[-79.82706599963132,36.250114000227015],[-79.82780100029848,36.25013699975927],[-79.83051399959308,36.25022600009025],[-79.83075799999057,36.25023600025137],[-79.83119200035883,36.25026300010036],[-79.8353230002109,36.25046500025777],[-79.83835199987304,36.25054799970848],[-79.83874400040851,36.25057000011542],[-79.83922100043448,36.25059100007002],[-79.83933000021443,36.25059699984901],[-79.84035600023641,36.250640999904704],[-79.8410399999516,36.25066999977967],[-79.84138200025838,36.250684999935565],[-79.84206599997357,36.250715000238834],[-79.84309299982046,36.25075900022804],[-79.84343500012723,36.25077399964245],[-79.843777000434,36.2507880000592],[-79.84514499986442,36.25084700013215],[-79.84531100044408,36.25085500005265],[-79.84548700017118,36.250862000254116],[-79.84574300026422,36.25087399977008],[-79.84617099988638,36.250891999764924],[-79.84651300019316,36.25090600016053],[-79.8468549996016,36.25092100027118],[-79.84890699964555,36.25100999970926],[-79.84922200018813,36.25102400008373],[-79.84959100025908,36.25103900017168],[-79.85027499997429,36.25106900033897],[-79.85403799958033,36.25123099973943],[-79.8545079999336,36.25125000008981],[-79.8550639996023,36.251275000162565],[-79.85676199964392,36.251348999896216],[-79.85742500034105,36.25137800023286],[-79.85744000040967,36.251378999944556],[-79.85777900034337,36.251393000252904],[-79.85913500007824,36.25145300030415],[-79.86150799961423,36.25155600013987],[-79.86235600025928,36.25159399995353],[-79.8628640002474,36.25161600006595],[-79.86325000003679,36.251566999839994],[-79.86354299993974,36.25164500030351],[-79.86388199987346,36.25166000027224],[-79.86523799960831,36.25171899968676],[-79.86536800020296,36.25167699965383],[-79.86557700044035,36.25173399964133],[-79.86659400024149,36.25177900021217],[-79.86727200010893,36.25180799966479],[-79.86740699982812,36.25178299976256],[-79.86761100004261,36.25182300032666],[-79.86828899991005,36.25185300019294],[-79.86862799984375,36.251866999692],[-79.86880199992103,36.251855000328526],[-79.86896699977748,36.25188200034254],[-79.8696449996449,36.251912000186174],[-79.8700589999217,36.25192999994196],[-79.87032300041066,36.25194100031387],[-79.87068200043585,36.25195699993006],[-79.87100100027807,36.25197100013485],[-79.87235700001294,36.25203000003898],[-79.87473000044726,36.252134000264874],[-79.87487000018933,36.25213999992545],[-79.87506900038095,36.25214799971358],[-79.87710399980816,36.252236999927334],[-79.87812099960931,36.25228099978391],[-79.87926899983002,36.25233099998601],[-79.87981600017619,36.25235500001371],[-79.8801550001099,36.25236999984619],[-79.880218999684,36.252371999968524],[-79.88049400004363,36.25238499967573],[-79.88083299997733,36.252398999803894],[-79.88103800001673,36.2524079999884],[-79.88117199991106,36.2524140003523],[-79.88185099960339,36.252439000052576],[-79.88201600035813,36.25244499968973],[-79.88219100026032,36.25245100005079],[-79.88286999995265,36.25247599973922],[-79.88355000036823,36.25249999972238],[-79.88388900030195,36.252511999711174],[-79.88422900006059,36.25252500011956],[-79.8876250001438,36.25264700000165],[-79.89204100040124,36.252806999641415],[-79.89543800030938,36.2529289998076],[-79.89597999973438,36.25294900016105],[-79.89611700000172,36.25295400006752],[-79.89645699976035,36.252965999986586],[-79.89682300035656,36.252979000319435],[-79.89713600035101,36.252991000234665],[-79.89740099976656,36.25300000035104],[-79.89781500004335,36.25301500005964],[-79.90053300025916,36.25311300011356],[-79.90189099964383,36.25316200009442],[-79.9021760000492,36.25328099992002],[-79.9031340002991,36.25324599999013],[-79.90358899968545,36.25322299992419],[-79.90426900010101,36.253246999677906],[-79.90596700014264,36.253308000165696],[-79.90732600025054,36.25335700002426],[-79.9097029999845,36.2534429998052],[-79.9110620000924,36.253492000303524],[-79.91242100020033,36.25353999963832],[-79.91377899958499,36.25358900007576],[-79.9151379996929,36.253637999758105],[-79.9164969998008,36.253687000134136],[-79.91785500008379,36.253735000073554],[-79.9192140001917,36.253783999664336],[-79.91944400034546,36.253792999689296],[-79.91955399995032,36.25379600018034],[-79.92023299964266,36.253821000162844],[-79.92091200023332,36.25384499973286],[-79.92125199999194,36.2538570002395],[-79.92159199975056,36.25386900001988],[-79.92297699979774,36.253912000002636],[-79.92308999977564,36.253916000168275],[-79.92326999970071,36.25392100001285],[-79.92362799990099,36.253932000104456],[-79.92464600042535,36.2539619998854],[-79.92634299974375,36.25401300013858],[-79.92701800013644,36.25403300021454],[-79.92736200009303,36.25404299988842],[-79.92803999996046,36.254062999956716],[-79.92973700017716,36.2541140001439],[-79.93109499956184,36.254154000239055],[-79.93211300008622,36.25418399993475],[-79.9323370003922,36.254201000216],[-79.93313099971228,36.25421400034332],[-79.93618600021198,36.25430499972543],[-79.93788300042867,36.2543550000811],[-79.93890100005474,36.25438499969958],[-79.94127600013887,36.254455999644314],[-79.94177499990616,36.254521999718726],[-79.94195499983121,36.25447600033129],[-79.94399199980654,36.254536000188324],[-79.94433099974025,36.254545999797834],[-79.94466999967398,36.254556000130414],[-79.9449600001022,36.25456399967118],[-79.94501000033091,36.25456599973735],[-79.94513400017946,36.2545699998695],[-79.94534900026461,36.25457600006737],[-79.94569099967306,36.25458599967176],[-79.94571999998539,36.254587000066756],[-79.94590900013127,36.254593000263306],[-79.94602799995697,36.254595999999275],[-79.94670699964931,36.254615999926],[-79.94689599979519,36.25462099972579],[-79.947045999583,36.25462600024962],[-79.94738500041504,36.25463599984761],[-79.94763700031012,36.25464299971033],[-79.94773100002145,36.25464600016873],[-79.95016999967967,36.25471899993849],[-79.95066599997224,36.254732999648375],[-79.95077899995015,36.25473600010331],[-79.95111899970877,36.25474599968722],[-79.9513110002277,36.25475199987157],[-79.9514579996425,36.2547559999942],[-79.95213800005804,36.25477599987997],[-79.95281799957529,36.25479599976067],[-79.95383799974948,36.25482599993422],[-79.95405899968243,36.25483299977992],[-79.95426899974471,36.254841000016725],[-79.95726700034301,36.2549289996699],[-79.96110100009415,36.25504099987536],[-79.96153200008939,36.25505199980927],[-79.96225000013978,36.25507300000803],[-79.96268000031009,36.25508500032604],[-79.96302000006872,36.255094999865285],[-79.9633649998502,36.25510500012765],[-79.96404000024292,36.25512499992407],[-79.96710099969208,36.255215000031285],[-79.96812099986627,36.25524500004399],[-79.96846099962488,36.25525500028711],[-79.969481999624,36.2552839998984],[-79.97016200003956,36.255303999649],[-79.97118200021376,36.25533400035195],[-79.97146400024606,36.25534300019837],[-79.97152199997238,36.25534399985927],[-79.97492300007849,36.25544300027354],[-79.98002399987604,36.255592000126335],[-79.98376499974077,36.25570099968797],[-79.98502400028956,36.25573700034712],[-79.98535900002533,36.2557469998029],[-79.99125599969108,36.25592600027592],[-79.99192699988582,36.25593799973852],[-79.99464799957636,36.256016999837065],[-79.99804899968245,36.25611600012287],[-80.00410100005725,36.25629299972851],[-80.00576599958858,36.25634399990879],[-80.01218100018652,36.256526000124495],[-80.01669899965287,36.25665299994823],[-80.01879400025284,36.25671500031765],[-80.02114099984956,36.25677600027086],[-80.02151499994338,36.256792999988086],[-80.0249160000495,36.25689099964943],[-80.02559599956675,36.256910999713035],[-80.0259360002237,36.256920999742896],[-80.02661699956585,36.25694000015836],[-80.02698999983474,36.25694600017421],[-80.02763699974004,36.25696899986853],[-80.03069800008753,36.25705700002226],[-80.03095199963242,36.25706300002912],[-80.0312250003422,36.257071999676356],[-80.03443899995226,36.25716500007543],[-80.03511900036781,36.257183999707166],[-80.03512199984254,36.25707500004147],[-80.03517999956888,36.254674000336564],[-80.03525699956177,36.25117400010944],[-80.0354850000657,36.24582399964183],[-80.0355400003173,36.24393399986418],[-80.03555500038591,36.2434229997899],[-80.03555600021082,36.24338699997769],[-80.03555700003574,36.24334099983125],[-80.03556000040878,36.24325499979989],[-80.03556799990639,36.242975000221676],[-80.03557399975416,36.24277700027681],[-80.0355770001272,36.242696000187706],[-80.03558499962483,36.242416000055975],[-80.03559399984566,36.24213599964575],[-80.0356020002416,36.24185599968155],[-80.03561099956408,36.24157600016339],[-80.03561899996001,36.24129599964219],[-80.03562800018085,36.2410160002916],[-80.03563599967845,36.24073500009021],[-80.03564400007436,36.240455000179125],[-80.0356530002952,36.24017499998963],[-80.03566099979281,36.239893999663174],[-80.03567000001364,36.239613999637804],[-80.03568099988429,36.23934099984293],[-80.03569400030308,36.2388230003424],[-80.0358149997786,36.234337999708195],[-80.03582200034961,36.23405900000484],[-80.03583999989296,36.233399000007836],[-80.03585699961138,36.23280399986297],[-80.03591400041111,36.23087600003717],[-80.03592699993159,36.23045099982907],[-80.035983999833,36.22871199975939],[-80.03604699958218,36.22692699976569],[-80.03615000041266,36.224748000304295],[-80.03621300016185,36.22327099975299],[-80.03634200003329,36.22004199977337],[-80.03636999962237,36.21957199987344],[-80.03637999966813,36.2194029999671],[-80.0364619996839,36.21721099986815],[-80.0364690002549,36.21701799993587],[-80.0364979996689,36.216281999782446],[-80.03667699976904,36.211515999987476],[-80.03672600017285,36.21006600035009],[-80.03673000037081,36.20994500021452],[-80.03690500027298,36.20457800012085],[-80.03690799974771,36.204508999714825],[-80.03691199994567,36.20341899964442],[-80.03692799983921,36.20197499992453],[-80.036941000258,36.19829399993382],[-80.0369629999993,36.19523599976123],[-80.03702300027376,36.19374499984998],[-80.03705300041099,36.19321600003188],[-80.03720700039679,36.190317000321215],[-80.03733700009313,36.18719600021542],[-80.0373770002761,36.186488000136215],[-80.03740300021535,36.186048000016484],[-80.03740099966723,36.18592500008473],[-80.03740300021535,36.185907000361425],[-80.03742999997952,36.18568000019329],[-80.03758099959228,36.18217999990138],[-80.03767000017906,36.179592999650175],[-80.03767900039989,36.17946899982792],[-80.03778700035491,36.17647299999627],[-80.03779099965455,36.17637800017958],[-80.03779499985251,36.17626699965246],[-80.0377580000426,36.17618099984149],[-80.0377299995552,36.17611700025818],[-80.0377010001412,36.17604900009977],[-80.03767000017906,36.17597700008098],[-80.03757800011755,36.1757650001652],[-80.03745300044407,36.17547600014275],[-80.03735399981154,36.17522900028243],[-80.03727000014598,36.174976999828],[-80.03708299964991,36.17422899990999],[-80.03706500010655,36.17411000017115],[-80.03704500001508,36.173971999985596],[-80.03702900012154,36.17367100011981],[-80.03703499996931,36.173490999924695],[-80.03703599979424,36.1734670003509],[-80.0372090000466,36.16838300035657],[-80.03724800040466,36.167238000235706],[-80.03732399967433,36.165010999765904],[-80.03737399990304,36.16355900025661],[-80.03739900001739,36.16283199972613],[-80.03741999993379,36.162211000080895],[-80.03742900015463,36.16193500035177],[-80.03743900020037,36.16164999990343],[-80.03744300039833,36.16153499973451],[-80.03747299963726,36.16121500023709],[-80.03752299986596,36.16094899987372],[-80.0375530000032,36.16084500025511],[-80.03767000017906,36.16053799985799],[-80.03771399966166,36.16044800032404],[-80.03780900009623,36.16025599986081],[-80.03806199981622,36.159842000095054],[-80.0381179998927,36.15975100032998],[-80.03813399978624,36.15972499985966],[-80.03815499970263,36.15969100029158],[-80.03823199969553,36.15956499984394],[-80.03830899968841,36.15944799992042],[-80.03835800009223,36.15937000035792],[-80.03836399994,36.15936000018525],[-80.03837200033593,36.15921300011061],[-80.03838099965844,36.15902799996539],[-80.03840999997075,36.15840000015264],[-80.03864199977436,36.15184699989152],[-80.03864000012453,36.15173399964496],[-80.03864900034536,36.151519000099896],[-80.03866100004093,36.151283999737345],[-80.03866400041397,36.15101799977373],[-80.03867899958428,36.15067900003959],[-80.03869000035326,36.15034700005648],[-80.03869700002592,36.15015399996656],[-80.03869799985084,36.150108000138125],[-80.0387149995693,36.149650999777876],[-80.03872700016316,36.1493109996473],[-80.03876999982087,36.14809799977041],[-80.03880800035401,36.14694799991268],[-80.03882099987449,36.146489999673726],[-80.0388359999431,36.14609199999643],[-80.03888399962369,36.144414000108696],[-80.03883900031616,36.14142599972297],[-80.03883699976802,36.141185000125816],[-80.03884799963868,36.14097299969651],[-80.03885799968442,36.14078899972188],[-80.03887799977589,36.14041400000289],[-80.03888199997385,36.14036400009839],[-80.03889399966943,36.14010999991727],[-80.03895800014185,36.13888799976431],[-80.03897099966233,36.13864500022345],[-80.03919199959525,36.1343409998661],[-80.03920400018914,36.13410400003331],[-80.03930499957318,36.13191500014917],[-80.03931100031927,36.13167699972973],[-80.03936599967253,36.130363999806086],[-80.03937300024354,36.130197000000116],[-80.03937800026642,36.13006899970839],[-80.03938900013708,36.129819000282474],[-80.03944699986339,36.12836100028092],[-80.03953700027508,36.1253869998734],[-80.03955700036656,36.12473599980569],[-80.0395959998263,36.12364600008656],[-80.03966600014651,36.121609000267036],[-80.0397299997206,36.119800999761495],[-80.03973200026873,36.119722000016594],[-80.03973300009366,36.11963699980735],[-80.03973599956838,36.11958799967045],[-80.03973899994145,36.11952700016821],[-80.0397430001394,36.11946499994753],[-80.0397430001394,36.119411999918995],[-80.03974599961411,36.11933399972977],[-80.03974899998718,36.11923199997945],[-80.03975300018513,36.119117000023834],[-80.03976099968274,36.11889599990747],[-80.03976900007866,36.118663999657855],[-80.03977300027663,36.118546999681755],[-80.03977699957628,36.11843899988394],[-80.03978099977424,36.118322000298186],[-80.03978499997218,36.11821700007494],[-80.03978999999505,36.11807099977994],[-80.03979699966776,36.117906999840585],[-80.03980900026163,36.1175249998396],[-80.03982299960703,36.11727499964965],[-80.03982699980499,36.1171879997452],[-80.03986199996508,36.115873999850805],[-80.03986899963779,36.11577499993732],[-80.03988799990435,36.11554199990482],[-80.03988799990435,36.115226999998285],[-80.03991899986649,36.11446999970271],[-80.0399470003539,36.11356900017284],[-80.03996499989724,36.11310900027286],[-80.03998800036177,36.112498999957424],[-80.03999400020956,36.11222000009595],[-80.04001500012595,36.1116120002236],[-80.04002099997373,36.1113660002723],[-80.04003799969217,36.1109469998499],[-80.04004899956284,36.11080299993858],[-80.04006399963144,36.11020199970106],[-80.04006600017959,36.11012100033047],[-80.04007000037755,36.10998700029244],[-80.04007600022533,36.109897000095195],[-80.04009799996665,36.10920299969091],[-80.04010399981442,36.109041000257356],[-80.04021000011963,36.105570999983584],[-80.04021699979232,36.10541900010907],[-80.04022000016536,36.10526800006675],[-80.04027700006678,36.10337400019956],[-80.04028200008966,36.10318999990504],[-80.0402920001354,36.10288799967085],[-80.0403289999453,36.10173199967526],[-80.04038900021978,36.09989000018773],[-80.04038900021978,36.099875999638556],[-80.04039000004468,36.09966700000869],[-80.04039599989247,36.09937700026124],[-80.04043100005256,36.0981500000226],[-80.0405039998475,36.0959509998257],[-80.04052399993898,36.09530999997632],[-80.04053399998473,36.09495500010323],[-80.04059000006121,36.09316300022963],[-80.04059099988613,36.09310699975665],[-80.040595999909,36.09306500028311],[-80.04061500017558,36.09231999968646],[-80.04065500035856,36.091036000244486],[-80.04067600027494,36.09042900006401],[-80.04068700014561,36.09001600023562],[-80.04068899979542,36.08993900021219],[-80.0406939998183,36.08979799978513],[-80.04070200021422,36.089741999818216],[-80.04070200021422,36.089449999810995],[-80.04074900006988,36.088030000242696],[-80.04088899981198,36.08351799983039],[-80.04098500007143,36.080439999975184],[-80.04124899966209,36.071960999893925],[-80.04129499969284,36.07056500013843],[-80.04129600041605,36.07054700008074],[-80.04142799976222,36.06653000010352],[-80.04143899963287,36.06618200025407],[-80.0416229997559,36.06063900020025],[-80.04164700004533,36.059891000325486],[-80.04168999970305,36.05859200007772],[-80.04171399999248,36.05783900033512],[-80.04178099993963,36.055831999715814],[-80.04178900033557,36.05558900028675],[-80.04180199985603,36.05519499973753],[-80.0421869998205,36.0435729999654],[-80.0421879996454,36.04355699991346],[-80.04233099976054,36.03918299997119],[-80.04235400022507,36.0384840001898],[-80.0423559998749,36.03839900001253],[-80.04241500032444,36.036643999992236],[-80.04245100030946,36.0355499998302],[-80.04245799998216,36.03535000036207],[-80.0424610003552,36.0352620002899],[-80.04247399987568,36.034857000085275],[-80.04247700024874,36.03476900018869],[-80.04247899989855,36.034708999806604],[-80.04247999972345,36.03468300006266],[-80.04247999972345,36.034671000122074],[-80.04251200040883,36.03370300010395],[-80.04254300037097,36.0327590002814],[-80.04254400019589,36.032727999734405],[-80.04254400019589,36.03271699981858],[-80.04254900021874,36.032584999982646],[-80.04261000031812,36.030712999760915],[-80.04261100014304,36.030685999802465],[-80.042615000341,36.03056800001003],[-80.04262100018877,36.030356999995945],[-80.0426220000137,36.03032000001783],[-80.04262299983858,36.03029299992468],[-80.04264100028026,36.02976499971416],[-80.04267999974,36.028577999934406],[-80.04268700031102,36.02836800005336],[-80.04274699968715,36.02656900009828],[-80.04274800041038,36.0265490000734],[-80.0427640003039,36.026069999814226],[-80.04281700000736,36.024440000235465],[-80.04283299990088,36.023954000100865],[-80.04285299999236,36.0233550001968],[-80.04289499982515,36.022048999811425],[-80.04292800033544,36.021056999778075],[-80.04304799998604,36.0174179997291],[-80.0430530000089,36.01725099969746],[-80.04306499970447,36.016902000168386],[-80.04307899994818,36.01648299989555],[-80.04308200032122,36.016374000314386],[-80.04308300014614,36.016346999801506],[-80.04308300014614,36.01633700030893],[-80.04308499979597,36.016301000090614],[-80.04313900022262,36.01464800008611],[-80.04314199969737,36.014565999826],[-80.0432279999111,36.01192100026664],[-80.04322999956092,36.01186699981401],[-80.04325999969814,36.010989000236385],[-80.04326100042137,36.01095000013837],[-80.04326100042137,36.010922999947475],[-80.043264999721,36.010802999875075],[-80.04326600044425,36.01078699970625],[-80.04323799995683,36.01075799970999],[-80.04324200015479,36.01066399979898],[-80.04324600035275,36.010568999898744],[-80.04324700017767,36.01054699969137],[-80.0432499996524,36.01047999988074],[-80.04326300007119,36.01020099991591],[-80.04327099956879,36.01002000002271],[-80.04327499976675,36.00992300030234],[-80.04328800018554,36.00964399981953],[-80.0432999998811,36.00936599969507],[-80.0433130002999,36.00908700014762],[-80.04331400012482,36.00898499979316],[-80.04333900023919,36.00851600007666],[-80.04334799956169,36.00831700019359],[-80.0433629996303,36.007962000159154],[-80.0433629996303,36.00783000027089],[-80.0433629996303,36.00743599984043],[-80.04338100007197,36.00701199977822],[-80.04338799974465,36.00686099974185],[-80.04342399972967,36.006031000153364],[-80.04343600032355,36.00573999971729],[-80.04345499969182,36.005316999925135],[-80.04346300008773,36.00513599971931],[-80.04347200030855,36.00499699982526],[-80.0435380004308,36.00403699972711],[-80.04356000017212,36.00371800021014],[-80.04356099999703,36.00351899984416],[-80.04357400041582,36.00324099992359],[-80.04358600011138,36.00296199977592],[-80.04359000030934,36.00286999996661],[-80.04359899963185,36.0026840000717],[-80.04361100022572,36.00240600011418],[-80.04362399974622,36.00212699991899],[-80.04363600034009,36.001854000116595],[-80.04364800003566,36.00157000019226],[-80.04365999973123,36.001293999930596],[-80.0436720003251,36.00101900015474],[-80.04367300015002,36.000984000206984],[-80.04368300019576,36.000743000144844],[-80.04369499989133,36.00046699989572],[-80.04370699958687,36.00019100013408],[-80.04371800035585,35.99991500013331],[-80.04373000005143,35.9996389998933],[-80.04374199974698,35.999363000140825],[-80.04375299961764,35.99908800017201],[-80.04376500021152,35.99881199994472],[-80.04377600008219,35.99853600020502],[-80.04378299975487,35.99835599972807],[-80.04378799977773,35.99826000022625],[-80.04380000037162,35.997984000008316],[-80.04381100024229,35.997708000278074],[-80.04382299993783,35.99743200030868],[-80.0438349996334,35.99715600010021],[-80.04384600040238,35.99688099970348],[-80.04385800009793,35.996604999747134],[-80.0438689999686,35.99632900027861],[-80.0438830002123,35.9960519997829],[-80.04389300025805,35.99577699989752],[-80.0439040001287,35.995500999711886],[-80.04391599982426,35.99522500001403],[-80.04392400022019,35.9950360000351],[-80.04392800041815,35.99494900007715],[-80.0439390002888,35.99467399998007],[-80.04395099998436,35.99439800029558],[-80.04396299967992,35.99412199964533],[-80.04397400044888,35.993846000209786],[-80.04398399959632,35.99362399971019],[-80.04398500031955,35.99359700012735],[-80.04399100016734,35.99351599986978],[-80.04399100016734,35.993490000343776],[-80.04399700001511,35.99329399989506],[-80.04400899971068,35.993017999742754],[-80.04402100030455,35.99274200007836],[-80.04403200017522,35.9924670002818],[-80.04404399987078,35.99219100014319],[-80.04405399991653,35.991943000037615],[-80.04406200031245,35.99176500000874],[-80.04407900003088,35.99139200033612],[-80.04408300022884,35.991314000358926],[-80.0440880002517,35.991102999912954],[-80.04409300027459,35.99101599997811],[-80.04409800029745,35.990938999755215],[-80.04431500003244,35.98939700030201],[-80.0443689995608,35.98838800026026],[-80.0444110002919,35.98793899980415],[-80.04442399981238,35.98775200014581],[-80.04450300035342,35.985833999843116],[-80.04456699992753,35.9846310002701],[-80.04441399976663,35.98355900033506],[-80.04441899978951,35.98346300027051],[-80.04442700018542,35.98330099994211],[-80.04445399994961,35.982819000058385],[-80.04446300017044,35.98265800009281],[-80.04446300017044,35.982524999778654],[-80.04446300017044,35.98212999989615],[-80.04446399999536,35.98199799965843],[-80.04447300021617,35.981837000198546],[-80.04450199963019,35.98135699986387],[-80.04451199967592,35.98119700007268],[-80.04455699988176,35.98042600014319],[-80.04456000025482,35.980359000183896],[-80.0445739996002,35.980081000049054],[-80.04458799984391,35.97980599973664],[-80.04460200008762,35.979524999749216],[-80.04461499960809,35.979247999858565],[-80.0446289998518,35.978970000171834],[-80.04464300009549,35.97869200023273],[-80.0446570003392,35.97841400004137],[-80.04466999985966,35.97813699988608],[-80.04468400010339,35.97785899992064],[-80.04469800034707,35.97758099970295],[-80.04471199969245,35.97730400025886],[-80.04472799958599,35.97700900021242],[-80.04474500020274,35.976713999790306],[-80.04476199992119,35.97641899971952],[-80.04476699994404,35.97632099979703],[-80.04477799981471,35.97612400000016],[-80.04479500043146,35.975828999905204],[-80.04481200014989,35.9755340001616],[-80.04482899986834,35.97523900004245],[-80.04484499976186,35.97494400027477],[-80.04486200037861,35.97464900013157],[-80.04487499989908,35.974336999709536],[-80.04488800031788,35.97402500023521],[-80.04489199961753,35.97391400016678],[-80.04490000001344,35.97371199991027],[-80.04491300043225,35.97340000014663],[-80.04491599990696,35.973340999924545],[-80.04491900028002,35.97325200006055],[-80.0449390003715,35.97277500019852],[-80.04494199984623,35.972673999768084],[-80.04495199989198,35.972462000006196],[-80.04496000028789,35.97217100004033],[-80.04496899961042,35.971879999728834],[-80.04497799983125,35.97158899979858],[-80.04498700005207,35.97129699987466],[-80.044995000448,35.97100599997651],[-80.04500399977051,35.970714999732664],[-80.04500999961829,35.97054200026849],[-80.04501299999134,35.970423999870185],[-80.04502300003708,35.9701250001784],[-80.04503300008282,35.96982600008124],[-80.04504300012859,35.96952700030576],[-80.04505300017432,35.96922800012489],[-80.04506200039515,35.9689279998607],[-80.0450730002658,35.968609000137086],[-80.04508199958832,35.96832999964585],[-80.0450930003573,35.96802100021833],[-80.04510300040303,35.967710999888006],[-80.0451140002737,35.96740099979459],[-80.04512400031943,35.96709199963947],[-80.04513400036517,35.966782000023976],[-80.04514500023582,35.966473000354554],[-80.04515600010649,35.96619099972092],[-80.0451589995812,35.96612900006016],[-80.04516199995426,35.966076999673916],[-80.04517000035018,35.96586999968438],[-80.04518299987066,35.965568000306845],[-80.04519499956622,35.96526700022574],[-80.04520799998501,35.964965999724264],[-80.04521999968058,35.96467699994818],[-80.0452210004038,35.96466399979753],[-80.04522899990141,35.96446999992388],[-80.04523899994714,35.96423500016935],[-80.04524599961985,35.96407199989793],[-80.04524700034307,35.96404499965544],[-80.04524899999289,35.96400299966381],[-80.04525099964273,35.963948000108395],[-80.04525900003866,35.96376400027303],[-80.04526400006151,35.963642000216886],[-80.0452719995591,35.963456000173906],[-80.045284000153,35.96316499973194],[-80.04529699967348,35.96286499969784],[-80.04531000009226,35.96256599973681],[-80.04532299961274,35.96226700009791],[-80.04533000018375,35.96207900019514],[-80.04533500020663,35.96198199968738],[-80.04533600003154,35.96195099966491],[-80.0453400002295,35.96187899972991],[-80.04534799972708,35.961680999752],[-80.04536100014589,35.96139500036164],[-80.04537399966637,35.961109999712576],[-80.04538700008516,35.960823999708644],[-80.04539999960564,35.96053800012313],[-80.04540299997869,35.960508000045564],[-80.04541300002442,35.960252000229076],[-80.04542600044321,35.9599660000264],[-80.04544099961352,35.95963100008638],[-80.04545300020739,35.95934000009211],[-80.045460999705,35.959172000162],[-80.0454669995528,35.95902699971857],[-80.04547999997158,35.95873199972476],[-80.04549400021529,35.95840100034009],[-80.04550799956067,35.958087999880945],[-80.04552099997946,35.9577750003628],[-80.04553500022315,35.95748300025154],[-80.04554899956854,35.957190999787926],[-80.04556199998734,35.95689899969907],[-80.04557600023105,35.95660699998506],[-80.0455860002768,35.95639999989504],[-80.04558999957644,35.95631499991873],[-80.04560399982013,35.956023000227226],[-80.04561600041401,35.955749000302035],[-80.04563599960719,35.95537300028547],[-80.04563700033043,35.95533900030016],[-80.0456440000031,35.955140999923806],[-80.04564900002597,35.95506799974434],[-80.04564900002597,35.95503600006274],[-80.04565800024682,35.95486000012803],[-80.04567099976728,35.95459400013523],[-80.0456719995922,35.9545830002256],[-80.04568599983591,35.954300000172665],[-80.04570000007962,35.95401799969988],[-80.04571299960008,35.95373599967471],[-80.0457269998438,35.95345300022331],[-80.04574100008749,35.95317100036271],[-80.04575399960797,35.95288900022267],[-80.04576500037693,35.95258699992596],[-80.04577299987454,35.9522890002111],[-80.04578399974518,35.95223899994386],[-80.04578700011824,35.95198500001723],[-80.0457979999889,35.95168299990066],[-80.04580899985956,35.95138199998417],[-80.0458199997302,35.95108099964807],[-80.04583099960087,35.95077899971179],[-80.04584300019474,35.950493000114044],[-80.04585499989031,35.950206000293115],[-80.04586699958587,35.94991900015689],[-80.04587900017975,35.949631999705275],[-80.0458909998753,35.949344999665506],[-80.04590299957088,35.94905800003771],[-80.04591500016477,35.94877100009455],[-80.04592699986031,35.948483999836064],[-80.0459319998832,35.94836400005238],[-80.04594000027912,35.94818499997579],[-80.04595100014978,35.94791800010741],[-80.0459539996245,35.94779800019134],[-80.04596200002044,35.94763999991483],[-80.04597299989108,35.947362000198616],[-80.04598399976173,35.947083000276905],[-80.04599499963238,35.946805000055406],[-80.04600700022627,35.94652700031034],[-80.04601800009694,35.946249000314374],[-80.04602200029488,35.94614600020363],[-80.04602800014267,35.94600199981661],[-80.04604999988399,35.94545699997065],[-80.04605099970888,35.94540699974313],[-80.04606300030278,35.94512600023238],[-80.04607400017342,35.94484399973952],[-80.04608500004407,35.944562999681246],[-80.04609599991474,35.94428100008821],[-80.0461069997854,35.94399900021615],[-80.04611900037926,35.94371800006216],[-80.04613400044788,35.94342100035056],[-80.0461500003414,35.94312400025007],[-80.04616500041001,35.94282699976061],[-80.04618100030353,35.94253000033683],[-80.04619600037215,35.9422319997809],[-80.0462120002657,35.941935000302855],[-80.04622700033428,35.94163799970865],[-80.04623499983191,35.941493999834236],[-80.04624300022783,35.94134100018013],[-80.04625200044865,35.94106300012198],[-80.04626099977118,35.9407689999907],[-80.04626900016709,35.94048199975999],[-80.04627800038793,35.94019599998343],[-80.04628699971043,35.93990999989925],[-80.04629299955823,35.939651000097214],[-80.04625900012134,35.9396339999963],[-80.04629900030432,35.939523999639874],[-80.0463040003272,35.93936999975646],[-80.04632100004564,35.93881300001067],[-80.04633100009137,35.93847200017468],[-80.04634500033507,35.93768800030038],[-80.04634799980981,35.93737900027481],[-80.04635000035795,35.93723199967625],[-80.04636299987843,35.93681200020012],[-80.046374999574,35.9365000001213],[-80.04638700016787,35.93618900035814],[-80.04639899986343,35.935877000002336],[-80.046410999559,35.93556499986972],[-80.04641800013,35.935354000242945],[-80.04643400002354,35.934941999655074],[-80.04643900004639,35.93464499969474],[-80.04644400006927,35.934348000073356],[-80.04644800026723,35.93405100006338],[-80.0464530002901,35.93375499978823],[-80.04645800031298,35.93345799973247],[-80.04646199961262,35.93316100001566],[-80.04646599981058,35.93288200014691],[-80.04647000000855,35.932603000020876],[-80.0464730003816,35.932323000223676],[-80.04647599985633,35.9321440001818],[-80.04657799996357,35.93106500008945],[-80.04658899983423,35.93098999989899],[-80.04660300007794,35.930888999859896],[-80.04662099962128,35.93076300003351],[-80.0466290000172,35.93069899988313],[-80.04663900006295,35.93057500008083],[-80.04664400008582,35.93034100004149],[-80.04660499972775,35.93001700001863],[-80.0465999997049,35.92965699964841],[-80.0466159995984,35.92926799969911],[-80.04663200039023,35.928904000272134],[-80.0466630003524,35.927858999792285],[-80.04666699965205,35.92771100020394],[-80.04667599987286,35.9273909996752],[-80.04670699983502,35.92574300030353],[-80.04672899957632,35.92530199970056],[-80.04673699997224,35.92513400014026],[-80.04675200004085,35.92493500022532],[-80.04673100012444,35.92460000015496],[-80.04675000039103,35.92405700017079],[-80.04676100026168,35.9237630000784],[-80.04676999958421,35.9234839997816],[-80.04677999962995,35.92320499995549],[-80.04678899985076,35.922947999773996],[-80.04679600042178,35.922739999997816],[-80.04679899989651,35.9226589997866],[-80.04680899994226,35.92236799966356],[-80.046818999988,35.9220890002651],[-80.04682900003374,35.921819000168256],[-80.04683900007949,35.92153099997044],[-80.0468480003003,35.92125100024777],[-80.04685800034606,35.920971999818754],[-80.0468690002167,35.92069299986051],[-80.04676200008659,35.92068900016162],[-80.04621700028855,35.92066600007043],[-80.04585200041556,35.920649999813286],[-80.04517399964983,35.920621999719245],[-80.04202299978897,35.920488999682696],[-80.04165700009109,35.920473000117234],[-80.041581999748,35.920469999971004],[-80.04128700019523,35.920458000112426],[-80.04077099981119,35.920436000245765],[-80.04043199987747,35.920421999798386],[-80.03894300007323,35.92035900030054],[-80.0389199996087,35.92035900030054],[-80.0383990001001,35.92033600011339],[-80.03765799958518,35.9203049997557],[-80.03756600042198,35.920301000037185],[-80.03738300012388,35.920292999872075],[-80.03569099993003,35.92022099980487],[-80.03548599989062,35.920213000359155],[-80.03487400014542,35.920186999972586],[-80.03347200037983,35.920128000015005],[-80.03345300011325,35.92012699971946],[-80.03331800039403,35.9201210001281],[-80.03264100035152,35.92009299984678],[-80.03196299958577,35.920063999986624],[-80.03162500037529,35.920050000200845],[-80.03140400044235,35.92004000014448],[-80.0295919996996,35.91996400011141],[-80.02870999961766,35.91992599970369],[-80.02815099957593,35.91990300011812],[-80.02789899968086,35.91989199974465],[-80.02712200007922,35.91985900006996],[-80.02705199975904,35.91985599990044],[-80.02699599968251,35.91985400002984],[-80.02692799991047,35.91985099986013],[-80.02688199987972,35.91984899998945],[-80.02635200015028,35.91982599965399],[-80.02625599989082,35.919821999911264],[-80.0249729999509,35.91976799972729],[-80.02409699971675,35.91973100025353],[-80.02403200031773,35.919728000079154],[-80.02296699993771,35.91968300035992],[-80.02185700025014,35.91963600001145],[-80.02046700018009,35.91957699964286],[-80.02006200012414,35.91956000031763],[-80.01976900022119,35.91954800032102],[-80.01909200017867,35.91951900026107],[-80.01841400031124,35.91949000019047],[-80.01672100029249,35.91941800011971],[-80.01633499960481,35.91940200033755],[-80.01499300011365,35.91935699970533],[-80.01438899986606,35.91933799972171],[-80.0118210003364,35.91925499977799],[-80.01011900009681,35.91920099993441],[-80.01003200005817,35.919197999739936],[-80.00941299974198,35.919173000054855],[-80.00859199975942,35.91914000008017],[-80.00848399980438,35.91913499999465],[-80.00622800044425,35.9190429999647],[-80.00607299973524,35.919037000291105],[-80.00528400043805,35.91900100005774],[-80.00512899972904,35.91899400007114],[-80.00499200035999,35.918988999976335],[-80.00457300006035,35.918971000214505],[-80.00349599998474,35.918920999965536],[-80.00142100037458,35.918824999893516],[-79.99966499970832,35.918765000062145],[-79.99956699979903,35.918758000054595],[-79.99919899955299,35.91874599993632],[-79.99807600034495,35.918707999670914],[-79.9978960004199,35.91870199997199],[-79.99725899966205,35.91868000034435],[-79.99652999974099,35.91865499976809],[-79.99604000019454,35.9186380002447],[-79.99418700034222,35.91857500005338],[-79.99377399989035,35.91855799978529],[-79.99221300011608,35.91849000013146],[-79.9913560001485,35.91845300005987],[-79.99019899970696,35.91840599970802],[-79.98943700017395,35.91837699995686],[-79.9894129998845,35.91837599963911],[-79.98903600031596,35.91835999964621],[-79.98874800043586,35.91834800019507],[-79.98824600029555,35.91832700005986],[-79.98812599974663,35.91832199992289],[-79.98787999969932,35.91831199964812],[-79.9874560002751,35.91829399973222],[-79.9873990003737,35.91829199982212],[-79.98735300034294,35.91828999991202],[-79.98673900004962,35.91826400034834],[-79.98596200044798,35.91823299990602],[-79.98545600010969,35.91821199974032],[-79.98541000007894,35.91820999982815],[-79.9841530000783,35.9181590002326],[-79.98409399962874,35.918157000319134],[-79.98324300040727,35.918122000006164],[-79.98177999964398,35.91806299996326],[-79.98137799996107,35.91804699990704],[-79.98133600012828,35.91804600031264],[-79.98128900027261,35.918043000074356],[-79.98072100001004,35.91801800002427],[-79.97997799984529,35.917989999725926],[-79.97991000007323,35.917987000213046],[-79.97970199966076,35.91798099973188],[-79.9794720004053,35.91796900022319],[-79.9793739995977,35.91796499965909],[-79.9793460000086,35.91796400006365],[-79.97915000019003,35.91795599966215],[-79.97888800024921,35.91794600006856],[-79.9787950003628,35.91794200023077],[-79.97870599977601,35.91793799966529],[-79.97867300016405,35.91793700006951],[-79.97858899960015,35.91793300023126],[-79.9780909996578,35.91791300030948],[-79.97742700003404,35.91788600029795],[-79.97735800043708,35.91788399965006],[-79.97687899986296,35.917865000040074],[-79.97673599974783,35.917859999873954],[-79.97666600032595,35.917856000031804],[-79.976373000423,35.91784500010111],[-79.97606600027633,35.917832999844315],[-79.97599599995613,35.91783000032549],[-79.97590600044275,35.91782599975429],[-79.97539900027955,35.917805999805466],[-79.97513399996568,35.91779600019292],[-79.9749809998048,35.91778999969728],[-79.9749309995761,35.9177870001768],[-79.97473200028278,35.917778999757395],[-79.97424500021107,35.91776000012224],[-79.97412499966215,35.91775499994943],[-79.97406399956277,35.91775199970011],[-79.97373499967482,35.91773899983093],[-79.9733549997332,35.91772500036114],[-79.97324500012834,35.91772000018616],[-79.97228199985557,35.9176800002298],[-79.97217800009851,35.91767699997762],[-79.97204800040215,35.91767199979963],[-79.97197200023417,35.91766900027469],[-79.97173799988245,35.91766000024406],[-79.97150600007885,35.91765100021247],[-79.971312999735,35.917642000179846],[-79.97107400025871,35.91763399974578],[-79.97079200022642,35.91762299978427],[-79.97070199981472,35.917618999930134],[-79.9706220003471,35.91761599967566],[-79.97056700009551,35.91761399974841],[-79.97045800031557,35.91760900029395],[-79.97037200010185,35.917604999711585],[-79.97020399987237,35.9175980003289],[-79.96995000032746,35.91758700036233],[-79.9698619995656,35.91758299977891],[-79.96978100027304,35.91758000025054],[-79.96969300040949,35.91757599966675],[-79.96957600023364,35.91757100020983],[-79.96952900037799,35.9175690002815],[-79.96944700036221,35.91756499969711],[-79.96939299993552,35.91756299976859],[-79.96935000027784,35.91756099984006],[-79.96929300037642,35.91755899991148],[-79.96919200009408,35.91755399972596],[-79.96912400032204,35.91755199979719],[-79.9690590000247,35.91754900026764],[-79.96901700019191,35.917547000338764],[-79.96893500017613,35.91754299975325],[-79.96884399993954,35.917540000223426],[-79.96877299979442,35.91753699996594],[-79.96868699958071,35.91753300010746],[-79.96860799993799,35.917529000248784],[-79.96851800042461,35.91752499966243],[-79.96835699986782,35.917518000272665],[-79.9681869999885,35.91751300008456],[-79.96802100030715,35.91750499963751],[-79.96796900042862,35.917502999707445],[-79.96772099983318,35.91749300005659],[-79.96758399956583,35.91748700026548],[-79.96732900019602,35.91747600028347],[-79.96711400011087,35.91746700023095],[-79.9670889999965,35.91746599990168],[-79.96663899973473,35.917447000191345],[-79.96648399992402,35.91744000006716],[-79.96621699996032,35.91742900007862],[-79.96612400007389,35.917425000214685],[-79.96582199995011,35.91741299989417],[-79.96573300026165,35.91740900002941],[-79.96564299984998,35.91740500016446],[-79.96555800035947,35.91740199990186],[-79.96510899992258,35.91738300017616],[-79.96481600001962,35.91737099984927],[-79.96470899988951,35.91736599965187],[-79.96452399994158,35.91735799991741],[-79.96436699958275,35.91735200011607],[-79.96428600029019,35.91734800024823],[-79.9642710002216,35.91734800024823],[-79.96402900037225,35.917337999850254],[-79.9637869996246,35.91732800017854],[-79.96279900013579,35.91728600008852],[-79.96230200001831,35.91726499967135],[-79.96211299987243,35.917256999926686],[-79.9620409999024,35.91725399965848],[-79.96176899991583,35.91724299964412],[-79.96145400027157,35.91723100002347],[-79.96123900018644,35.91722199994306],[-79.96116899986622,35.917218999673516],[-79.96112200001056,35.91721699973624],[-79.96104199964462,35.917214000194036],[-79.96102800029922,35.917214000194036],[-79.96093700006263,35.91721000031923],[-79.96065900022829,35.917199000298695],[-79.9604270004247,35.917190000214646],[-79.96031899957134,35.91718500000586],[-79.96024699960131,35.91718199973493],[-79.96013500034664,35.917177999858495],[-79.96003999991208,35.917173999981856],[-79.95922599960222,35.91714200023402],[-79.95807099970882,35.91709600016466],[-79.95725899994709,35.917061999716594],[-79.95715799966476,35.91705900016852],[-79.95709300026573,35.9170559998928],[-79.95702200012063,35.91705500028588],[-79.95652900020113,35.91703399980739],[-79.95649499986594,35.91703300020017],[-79.956422000071,35.91702999992346],[-79.95585399980843,35.91700700022333],[-79.95537199975958,35.91698700006742],[-79.95494099976436,35.91697000018556],[-79.95480699987006,35.91696499996286],[-79.95455400015007,35.916955000243995],[-79.954154000117,35.916938999963605],[-79.95381600000819,35.9169259999608],[-79.95322900037736,35.916901999894044],[-79.95310100033083,35.91689699966704],[-79.95304400042943,35.916894000112705],[-79.95270200012267,35.91688699993957],[-79.95236300018894,35.91687999976584],[-79.95220500000521,35.916873999928235],[-79.95138200037282,35.91684099972187],[-79.95136899995403,35.916840000112224],[-79.95127900044065,35.916836000218545],[-79.95117599961017,35.916832000324625],[-79.9509029997987,35.916821000251524],[-79.94997999970889,35.91678400012676],[-79.94978700026336,35.91677600033344],[-79.94888699973977,35.91673999979855],[-79.9487829999827,35.91673700023826],[-79.94794899958134,35.9167020000245],[-79.94780200016656,35.91669899973523],[-79.94763099956403,35.91669200027238],[-79.94615199980552,35.91662899998619],[-79.94588700038997,35.91661700027239],[-79.94561299985526,35.916606000169395],[-79.9454329999302,35.91659899997079],[-79.94456000006912,35.91656300008287],[-79.94387899982864,35.91653499999701],[-79.94255499988083,35.91648099975152],[-79.9409830002359,35.916414999724715],[-79.94017800014687,35.916546999723245],[-79.93990199996233,35.91653600033805],[-79.93969699992293,35.91652700017851],[-79.93848900032609,35.91647699983963],[-79.93605800016545,35.91637800013757],[-79.93593099994384,35.91637200026189],[-79.9357879998287,35.91636599965822],[-79.9354499997199,35.91635300028872],[-79.93477500022553,35.91632500012859],[-79.93427700028315,35.91630400018383],[-79.93207399972815,35.91621399973383],[-79.93190100037411,35.91620700022806],[-79.93173599961936,35.91619999999415],[-79.93007799976071,35.91613399973294],[-79.92937200030417,35.91610299991091],[-79.928536000253,35.916068000144165],[-79.92776200012612,35.91603599994892],[-79.92768400030832,35.916033000361935],[-79.92532000009484,35.915936000073856],[-79.9239099999333,35.91587800020481],[-79.92363200009895,35.915866999999054],[-79.92098500002825,35.91575700004005],[-79.92051800004802,35.91573799991922],[-79.91991799999839,35.91571400021955],[-79.91509300038537,35.91551699986313],[-79.91476000029944,35.915501000019475],[-79.91440200009913,35.9154870001536],[-79.91190200034154,35.915381999989265],[-79.91085100020521,35.91533800033629],[-79.91012499975889,35.915309999816834],[-79.90877499987182,35.91525400020326],[-79.90706799960937,35.915181999914324],[-79.90488800041722,35.915094000361385],[-79.90472299966247,35.915085999669614],[-79.90253099987642,35.91499400002306],[-79.90235900034729,35.9149889996754],[-79.89256699993268,35.91458499993532],[-79.8922289998239,35.91456899990316],[-79.88885299983215,35.914429000211086],[-79.87893200044444,35.914018000094245],[-79.87872300020706,35.914008999648274],[-79.87737300031999,35.91395299984129],[-79.87602099988479,35.913896000347826],[-79.87568199995106,35.91388099982332],[-79.87059899969687,35.91365600034526],[-79.86706600024459,35.91350000024417],[-79.86687100025092,35.91349000008729],[-79.85668499965104,35.91303700002161],[-79.8563659998088,35.91302400010507],[-79.85534900000765,35.91297900020974],[-79.85463299960708,35.912945999833646],[-79.85395200026491,35.912919000309444],[-79.853655000164,35.912902999940286],[-79.85162200038663,35.9128129999863],[-79.84951599991601,35.91271800016634],[-79.84343400030231,35.91244800009345],[-79.84111500029469,35.91234800004814],[-79.84077600036096,35.91233400035185],[-79.83921499968838,35.91226700010801],[-79.83873900038563,35.912247999876485],[-79.83059200030921,35.91190600002203],[-79.82808800035365,35.9117999997968],[-79.82787599974323,35.91179200022704],[-79.8275369998095,35.911777000031165],[-79.8258399995928,35.91170599989009],[-79.82310899985652,35.911591000130926],[-79.8219609996358,35.91154400006738],[-79.82142699970841,35.911519999822936],[-79.81938999973308,35.91143399991785],[-79.81871100004075,35.91140600019932],[-79.81769300041469,35.91136300019648],[-79.81599600019798,35.91129100000411],[-79.81531699960735,35.91126300023499],[-79.81458699986138,35.91123199995929],[-79.81325299986781,35.91117499996056],[-79.81195900005724,35.911113999737665],[-79.8109639999974,35.91106099983985],[-79.80988000024912,35.91100399971787],[-79.8093710004361,35.910975999847174],[-79.80933999957563,35.910975000163425],[-79.80918300011511,35.910966999782666],[-79.80851899959308,35.91093100024207],[-79.80692799968158,35.910846999795126],[-79.805457000319,35.91076900028766],[-79.80307600038707,35.910642000001616],[-79.8000230004355,35.91050300032572],[-79.79696999958563,35.910363999678],[-79.79595199995958,35.91031700034074],[-79.79561300002587,35.91030199986521],[-79.79332400015545,35.910197999788465],[-79.79123600012649,35.91010200004406],[-79.79052499974878,35.91006899992307],[-79.78306200028588,35.90972799980763],[-79.78210900005884,35.90968199979263],[-79.78136400024428,35.909651000352675],[-79.77115500007815,35.90919300014703],[-79.77013400007907,35.90914699982099],[-79.76486800042507,35.90890499981655],[-79.76330900030062,35.908841999877346],[-79.7627589995814,35.90881699982985],[-79.75939500018353,35.908669000259906],[-79.75515999967607,35.9084730002657],[-79.75485799955227,35.908463000201024],[-79.75079899967024,35.90829300036308],[-79.75008200034304,35.90826800014212],[-79.74414100029637,35.90802299974141],[-79.74159499960967,35.90793000016282],[-79.73830499983166,35.907793000263695],[-79.72688600041887,35.90733699967693],[-79.7240379996084,35.907227000226996],[-79.723255000159,35.907194000362175],[-79.7171090000729,35.90695099974339],[-79.71323299959063,35.90679000010813],[-79.71264099993694,35.90676200020138],[-79.71217499978161,35.90674699977952],[-79.70845200035852,35.90659699977017],[-79.70743700020722,35.90655600027112],[-79.70642100023099,35.906515000023234],[-79.70521399956073,35.90646599964583],[-79.70472900003715,35.906447000204125],[-79.70413499983532,35.906425000078954],[-79.69921200031298,35.906222999701896],[-79.6935950001314,35.90599800027424],[-79.68655400044288,35.90571699966368],[-79.68023799957918,35.90546499963994],[-79.67865699971341,35.905403000354184],[-79.67796999962516,35.90537499995668],[-79.67700100040291,35.90533600006216],[-79.67501200010814,35.9052569997318],[-79.67186999956981,35.905130999815455],[-79.6715239999634,35.905115999812004],[-79.67106399965586,35.90509900028978],[-79.67077400012593,35.905087000282435],[-79.66987899962523,35.90505200000808],[-79.6681940000024,35.90498399965943],[-79.66796200019881,35.904974999641],[-79.66679999973438,35.90492800001328],[-79.66542999975583,35.904873999849166],[-79.66132099964507,35.90470899984709],[-79.66102500026737,35.904696999780604],[-79.66000799956792,35.90465699978838],[-79.65932999970049,35.904628999854545],[-79.65912999968394,35.90462100028744],[-79.6584150000066,35.90459300034088],[-79.65508199967256,35.904458999783785],[-79.65497700009057,35.904454999991735],[-79.65480600038634,35.90444699967939],[-79.65424599962138,35.90442600021995],[-79.65247499978483,35.90435500003124],[-79.65239399959398,35.90435100023393],[-79.6512479999214,35.90430500000366],[-79.6489749999445,35.90421600022557],[-79.64811899980185,35.90417900002675],[-79.6454900001728,35.90407199986583],[-79.63777599974144,35.903763999955],[-79.63764000019732,35.90375900035289],[-79.6349289996542,35.90364900029514],[-79.63289599987684,35.90356800018139],[-79.63086200027453,35.90348600020634],[-79.62945700013589,35.90342899972107],[-79.62930099960195,35.90342300031865],[-79.6291680004309,35.903417000188156],[-79.62882899959885,35.903404000146345],[-79.62815099973143,35.9033759997692],[-79.62794599969202,35.903368000075425],[-79.627472999864,35.90334899988987],[-79.62577900002034,35.90328100026086],[-79.62510100015291,35.90325299984015],[-79.62432399965297,35.903222000064545],[-79.6237489997177,35.903198999988405],[-79.62285900013816,35.90316299982424],[-79.61531100028644,35.90285700031426],[-79.61208099988457,35.90272700033557],[-79.61024700029883,35.90265099967823],[-79.60490399975363,35.90243400007077],[-79.60450899974342,35.90241799976432],[-79.60200200031312,35.902317000347416],[-79.59830900012895,35.90216600015027],[-79.59825700025043,35.90216399983251],[-79.59813800042474,35.90215900012933],[-79.59463100001341,35.90201699998653],[-79.59182900013202,35.90190199997116],[-79.58518400027863,35.90163200010096],[-79.58236899997844,35.90151700025383],[-79.58212999960384,35.90150700003775],[-79.58206900040278,35.90150399989994],[-79.58191899971663,35.90149800035157],[-79.58156399988941,35.90148400019093],[-79.58084900021205,35.90145500005809],[-79.5804990004077,35.901440000085636],[-79.57841499967837,35.901354999945255],[-79.57802300004121,35.9013390001483],[-79.57781999965164,35.901331000248625],[-79.5668079999446,35.90088099985991],[-79.55919700034372,35.900569999727736],[-79.55862200040845,35.90054199980325],[-79.54779200027632,35.900103000238325],[-79.54617600025045,35.900036999647284],[-79.54279199986279,35.899895000063445],[-79.54172800020599,35.89985099980246],[-79.54164799984004,35.90196500034195],[-79.54164299981716,35.90208999968181],[-79.54163500031956,35.90228600020518],[-79.54160199980927,35.90317500012334],[-79.54156800037241,35.90409000010701],[-79.54155800032667,35.90436300035289],[-79.5415039999,35.90577300020677],[-79.54149399985424,35.906079000083665],[-79.541391999747,35.90874099992794],[-79.54136699963264,35.9094120002727],[-79.5413490000893,35.90988999971071],[-79.54134700043949,35.9101579996666],[-79.54139299957193,35.910642000001616],[-79.54139299957193,35.91096300031956],[-79.54139900031801,35.911126000286195],[-79.54142899955691,35.91192800007839],[-79.54145200002145,35.912634999824355],[-79.54145700004432,35.91285300022101],[-79.54145799986924,35.912889000342204],[-79.54145799986924,35.912909999738396],[-79.54146500044024,35.91324000011962],[-79.54143500030303,35.914912999881864],[-79.54135499993708,35.91694899968449],[-79.54133300019576,35.91774599992865],[-79.54133700039372,35.918366000098615],[-79.54133800021864,35.918502000288576],[-79.5413420004166,35.91904800005603],[-79.54134700043949,35.91923599976987],[-79.54135099973912,35.91939799984593],[-79.54135099973912,35.919409000288105],[-79.54135499993708,35.919552999652986],[-79.54136900018078,35.92006200012129],[-79.54137199965552,35.920193999853666],[-79.5413640001579,35.920608000032225],[-79.54135400011215,35.92113299969362],[-79.54136199960976,35.921357000176236],[-79.54136199960976,35.9213720000105],[-79.5413640001579,35.921438000266036],[-79.54136499998282,35.921456000193864],[-79.54136599980772,35.92149000020806],[-79.54136699963264,35.921521000101336],[-79.54136699963264,35.92153200024824],[-79.54136599980772,35.921574999815924],[-79.54134800026438,35.922024000097046],[-79.54132599962475,35.92255499995059],[-79.54131899995207,35.922738999735245],[-79.54128100031723,35.92369199978338],[-79.54124100013425,35.92468600029541],[-79.54122100004278,35.92518700006608],[-79.54117300036219,35.926383999799945],[-79.54115400009562,35.92683299969238],[-79.54111800011061,35.927744000239386],[-79.54108399977542,35.92857899999119],[-79.54108200012561,35.92867700023671],[-79.54107700010273,35.92890000026111],[-79.54106299985904,35.929711000353976],[-79.54103899956958,35.93102599976655],[-79.54097199962243,35.93467600024972],[-79.54094499985824,35.936165000318546],[-79.54091999974389,35.93748499967593],[-79.54089100032989,35.93907599987314],[-79.54088499958381,35.939404000068244],[-79.54086000036776,35.940779999641784],[-79.54082400038276,35.94278100008702],[-79.54077599980386,35.945366999974695],[-79.54077099978099,35.94565000002837],[-79.5407659997581,35.94594200024453],[-79.5407440000168,35.9471130003627],[-79.54073999981885,35.94736799990456],[-79.54072899994819,35.94793899965579],[-79.54072499975022,35.94815299968781],[-79.54070499965873,35.94924900017212],[-79.54068000044269,35.950623000125624],[-79.54065699997815,35.95193700007106],[-79.54065299978019,35.9520790000395],[-79.54065000030548,35.95224699978516],[-79.54062600001602,35.95358400032665],[-79.54059699970371,35.95516400016563],[-79.54057300031258,35.956462999758536],[-79.54054800019821,35.95785399985873],[-79.54052200025895,35.959260999901154],[-79.54049899979442,35.96044000011845],[-79.54048799992377,35.96113599972769],[-79.54047299985514,35.96194099981926],[-79.54046500035754,35.96239100034575],[-79.5404550003118,35.96293799994192],[-79.54044500026605,35.963445999791674],[-79.54044100006809,35.96367799975244],[-79.54043600004523,35.963942000207474],[-79.54043199984727,35.964196000219786],[-79.54042699982439,35.96446999992388],[-79.54042199980151,35.964725999881516],[-79.54041699977866,35.964984999647335],[-79.54041400030391,35.96524100011655],[-79.54040799955783,35.96549600003433],[-79.54040300043326,35.96575700034624],[-79.5403990002353,35.96598100015721],[-79.54039400021243,35.966250999909114],[-79.54039000001448,35.96648100020835],[-79.54038599981652,35.966685000203825],[-79.54038199961855,35.966890000103234],[-79.5403780003189,35.967142999656645],[-79.54037400012093,35.96736400007744],[-79.5403709997479,35.96750700036219],[-79.54036999992297,35.967572999902906],[-79.54036999992297,35.96758699999668],[-79.54036900009808,35.96763799969413],[-79.54036800027316,35.96768900008568],[-79.54036700044826,35.967738000331],[-79.54036599972503,35.96779100004285],[-79.54036499990012,35.96783100008987],[-79.54036499990012,35.96784300002732],[-79.5403640000752,35.9678929998683],[-79.5403630002503,35.967927999956196],[-79.5403630002503,35.96795500032505],[-79.54036200042538,35.968014000210204],[-79.54036099970214,35.96806100014882],[-79.54035999987724,35.96813699974283],[-79.54035800022743,35.968240000262114],[-79.54035700040251,35.96829600014924],[-79.54035599967928,35.96834799980111],[-79.54035499985436,35.96838299968736],[-79.54035499985436,35.96840200024226],[-79.54035400002947,35.96843400032469],[-79.54035400002947,35.968451000045135],[-79.54035300020455,35.96847899991883],[-79.54035300020455,35.96849299985195],[-79.54035300020455,35.96851700025085],[-79.54035200037964,35.968579000217574],[-79.5403499998315,35.9686480000881],[-79.54033999978576,35.96906900014139],[-79.54032800009018,35.96957499974057],[-79.54028700008232,35.97115100023474],[-79.54024699989934,35.97354999992127],[-79.54019199964776,35.97683400011969],[-79.54018999999792,35.976939000076484],[-79.54018999999792,35.97695499984303],[-79.54018800034811,35.9770380002609],[-79.54018800034811,35.97705099982796],[-79.54012999972348,35.98050899981852],[-79.54011399982994,35.98152799984994],[-79.54010999963198,35.98177799974084],[-79.54010600033234,35.981982999700094],[-79.5401049996091,35.98203600002484],[-79.54010399978421,35.982094000051475],[-79.54010299995929,35.98215500002097],[-79.54010200013438,35.98220500024676],[-79.54010200013438,35.98221599994327],[-79.54010100030946,35.98225799969554],[-79.54009899976133,35.98238400027205],[-79.54009600028661,35.98253300018646],[-79.54009100026373,35.98280799971906],[-79.54009000043882,35.982868999863506],[-79.54008600024086,35.98306999971977],[-79.54008500041594,35.98312400026658],[-79.54008299986782,35.98324899996363],[-79.54008200004289,35.98329699977726],[-79.54008000039306,35.9833970002038],[-79.54007899966986,35.98346399976444],[-79.54007500037021,35.98366299984919],[-79.54007399964698,35.983745999754525],[-79.54007299982206,35.98378200029937],[-79.54007199999715,35.983838000064225],[-79.54007100017225,35.98389200008546],[-79.54006799979919,35.984052000227514],[-79.54006699997429,35.9840939997295],[-79.54006699997429,35.984141999756],[-79.54006600014937,35.98417500021157],[-79.54006500032447,35.984210999833785],[-79.54006399960123,35.98428100006177],[-79.54005899957835,35.984564000246536],[-79.5400539995555,35.984855000315584],[-79.54004799970772,35.98514199996698],[-79.54004199985992,35.985476999969535],[-79.54003699983706,35.98576099969088],[-79.54003099998927,35.9860709996429],[-79.5400250001415,35.98640099987132],[-79.54002000011862,35.986662000118535],[-79.54001599992067,35.98693399999496],[-79.54001000007287,35.98723000018455],[-79.5400040002251,35.98757400010986],[-79.5399980003773,35.98786299965056],[-79.53999300035444,35.988182000062295],[-79.53998699960835,35.98849300010832],[-79.53998099976057,35.98881300030638],[-79.53997599973769,35.98911699972842],[-79.5399699998899,35.98942299972337],[-79.53995900001925,35.99004699998291],[-79.53994899997352,35.99055700008692],[-79.53993899992777,35.99114799966612],[-79.53993700027794,35.9912079997817],[-79.53993399990489,35.991378000103595],[-79.5399270002322,35.99178500013822],[-79.53991600036156,35.992346000358346],[-79.53990899979054,35.99273000029225],[-79.53990899979054,35.99274799997076],[-79.53990700014072,35.992848000047886],[-79.53989600027005,35.99344599984043],[-79.53988700004922,35.99397099963666],[-79.5398789996533,35.994360000068525],[-79.5398789996533,35.99438700011699],[-79.53985899956183,35.9954709998389],[-79.53983400034578,35.99681700006295],[-79.53980800040651,35.998254000026414],[-79.53978099974401,35.99977099968624],[-79.53977400007132,36.00013600035849],[-79.53976800022355,36.00080000022602],[-79.53975999982762,36.00193999973836],[-79.53974999978188,36.00302500027065],[-79.539744999759,36.00373199970576],[-79.539744999759,36.00375199970756],[-79.53973499971326,36.005004000186496],[-79.53972600039074,36.006232999789546],[-79.539716000345,36.00748500011369],[-79.53970600029926,36.00866899965243],[-79.53969600025351,36.009893000102466],[-79.53968899968251,36.01093300012692],[-79.53968600020777,36.011150999654404],[-79.53968399965964,36.01152699993614],[-79.53967600016203,36.01245900014516],[-79.53967299978898,36.01278799984453],[-79.53967299978898,36.01283599984927],[-79.53967299978898,36.01287800001116],[-79.53967000031426,36.013249000105716],[-79.53966500029138,36.01381100006833],[-79.53966399956815,36.01402500029614],[-79.53965699989546,36.01479799991582],[-79.53965600007054,36.014993999960645],[-79.53965400042071,36.015268999676366],[-79.53965000022275,36.01541099979866],[-79.53964799967463,36.015967000025995],[-79.53964799967463,36.015997999902275],[-79.53964199982684,36.016808000318285],[-79.53963599997905,36.01754400008867],[-79.539632999606,36.01784799993083],[-79.5396319997811,36.017952999792726],[-79.53963000013128,36.0182389998418],[-79.53963000013128,36.01825100010567],[-79.53962699975823,36.018813999776896],[-79.5396250001084,36.01894499966558],[-79.53961800043571,36.01977799988641],[-79.53961199968961,36.0205350001101],[-79.53960599984183,36.021262999836864],[-79.53959900016915,36.02213299973875],[-79.53959599979609,36.02251999983026],[-79.53959300032136,36.02291299997737],[-79.5395899999483,36.02333799995477],[-79.53958599975034,36.02375299981468],[-79.53958300027561,36.02419999965567],[-79.53957999990257,36.02459899979017],[-79.53957599970461,36.025010000044766],[-79.53957499987969,36.025105999668064],[-79.53957499987969,36.02512600005924],[-79.53957499987969,36.02517700034349],[-79.53957499987969,36.025206000120015],[-79.53957499987969,36.02521700035815],[-79.53957400005478,36.02533599986391],[-79.53957400005478,36.025345999667685],[-79.53957300022986,36.025482000214744],[-79.53957099968174,36.02564000016017],[-79.53956999985681,36.02580899994429],[-79.5395690000319,36.02596900005065],[-79.53956700038209,36.026137999855514],[-79.53956599965886,36.02630600034683],[-79.53956499983394,36.026479000309756],[-79.53956300018413,36.02664900014687],[-79.53956200035921,36.026806000260315],[-79.539560999636,36.026976999787294],[-79.53955899998617,36.02713600003416],[-79.53955800016125,36.027292999903615],[-79.53955700033636,36.027457000006955],[-79.53955599961311,36.027628000300396],[-79.53955399996329,36.02779199970636],[-79.5395530001384,36.02795499984086],[-79.53955200031348,36.02811299991221],[-79.53954999976534,36.028274000077445],[-79.53954800011552,36.02858800005318],[-79.5395470002906,36.028691000112715],[-79.53954399991756,36.02908199998033],[-79.53954100044281,36.029413000029216],[-79.53953899989469,36.02970899986948],[-79.53953700024485,36.030009000025615],[-79.53953399987181,36.03031499970534],[-79.53953100039708,36.03067700029854],[-79.53952800002402,36.03112699965987],[-79.53951700015338,36.03247699975418],[-79.53950700010763,36.03372799986159],[-79.53949700006187,36.03497800014575],[-79.53948799984106,36.036137999828824],[-79.53947899962023,36.03732299992967],[-79.5394689995745,36.0385439998751],[-79.53946600009974,36.038953999770165],[-79.53946500027484,36.039037999832395],[-79.53946500027484,36.03906199983378],[-79.5394629997267,36.03925799981299],[-79.53946199990179,36.03941299974391],[-79.53946199990179,36.039470000190065],[-79.53946100007687,36.039562000135064],[-79.53945799970383,36.039933000259374],[-79.53945699987891,36.04008500035375],[-79.53945699987891,36.04012900024981],[-79.539456000054,36.04023100024457],[-79.53945500022908,36.04028399991909],[-79.53944900038131,36.041099000166305],[-79.53944400035846,36.04168199981931],[-79.53943799961233,36.04237400032096],[-79.53943799961233,36.04242000006311],[-79.53943799961233,36.04244200008826],[-79.53943599996252,36.042559000052464],[-79.53943599996252,36.04273099971527],[-79.53943500013762,36.04279099979639],[-79.53943500013762,36.042812000249796],[-79.53942599991677,36.04374999977839],[-79.53942500009187,36.04386599979704],[-79.53942500009187,36.043949000250265],[-79.53942500009187,36.04403599987873],[-79.53942500009187,36.04409599969175],[-79.53942400026695,36.04421700008357],[-79.53942300044206,36.04428000028594],[-79.53942300044206,36.0442950000154],[-79.53941199967308,36.04570000025955],[-79.53941199967308,36.045737999706496],[-79.53941199967308,36.045756999786214],[-79.53941199967308,36.0458089999428],[-79.53941099984816,36.04587100016842],[-79.53940900019833,36.04608400032556],[-79.5394069996502,36.046359999897],[-79.53940500000039,36.0466349998077],[-79.53940300035056,36.0469100002104],[-79.5393999999775,36.04718499965249],[-79.5393990001526,36.04727599988756],[-79.53939800032767,36.047460000312924],[-79.53939800032767,36.04753199985706],[-79.53939599977954,36.047746000009795],[-79.53939499995464,36.04789499988457],[-79.53939099975669,36.04837499972798],[-79.53938699955873,36.04888199981602],[-79.53938300025908,36.04931700024562],[-79.53938300025908,36.04934499973845],[-79.53937499986314,36.050256000085625],[-79.53936599964233,36.05137499998294],[-79.53936200034268,36.05203600005326],[-79.53936200034268,36.052055000065536],[-79.53935999979456,36.0522139997971],[-79.53935999979456,36.052240999637355],[-79.53935200029692,36.05322500008597],[-79.5393499997488,36.05348699994434],[-79.5393499997488,36.053547999874894],[-79.53933499968016,36.055461999742704],[-79.53933300003035,36.055611000262985],[-79.53933200020545,36.05575100023161],[-79.53933100038053,36.055987999724884],[-79.53932999965731,36.05607299979521],[-79.53932700018258,36.05639500022013],[-79.53932499963443,36.056723000159884],[-79.5393220001597,36.05702299980237],[-79.53931999961158,36.057316999693185],[-79.53931899978666,36.05746300030778],[-79.53931700013683,36.05764000011759],[-79.5393149995887,36.05787699973191],[-79.5393149995887,36.05790499981079],[-79.53931299993887,36.058122000084374],[-79.53931299993887,36.05820500003079],[-79.53930999956582,36.05852199974672],[-79.53930799991599,36.05884700029002],[-79.53930500044127,36.05917400019036],[-79.53930299989314,36.05949600027225],[-79.5393000004184,36.059797000214985],[-79.53929799987026,36.06012599974737],[-79.53929500039553,36.060414999810774],[-79.5392939996723,36.060624999922254],[-79.5392939996723,36.06063500032853],[-79.53929100019757,36.060954000349774],[-79.53928799982452,36.06127699964318],[-79.53928600017468,36.06161000007159],[-79.53928299980164,36.06194099991424],[-79.53928100015182,36.06225499998733],[-79.53927799977878,36.06256299987302],[-79.53927699995386,36.06284400018113],[-79.53927799977878,36.06303899983351],[-79.53927799977878,36.063077000349985],[-79.53927799977878,36.06315000006775],[-79.53927799977878,36.063164999832196],[-79.53927799977878,36.06319500007881],[-79.53926699990812,36.06386399977393],[-79.53926400043338,36.064410000089524],[-79.53926199988524,36.06483399986993],[-79.53925400038763,36.06580000001576],[-79.53925400038763,36.06621100017929],[-79.53924900036476,36.06679700013376],[-79.53924799964155,36.067029000327146],[-79.5392440003419,36.067723999828694],[-79.5392440003419,36.06774099992869],[-79.5392379995958,36.06873399994934],[-79.53923199974803,36.069621999959494],[-79.5392309999231,36.06975800027946],[-79.53922800044838,36.0702549999402],[-79.53922800044838,36.070276000327155],[-79.53922500007533,36.07081599994959],[-79.53921599985449,36.07148900023158],[-79.53922000005245,36.071689000102054],[-79.53922000005245,36.07171700034827],[-79.53921099983162,36.07312400006793],[-79.53920199961078,36.07460499980018],[-79.53919400011318,36.075967000190936],[-79.53918400006744,36.07736200014594],[-79.53918300024253,36.077662000228884],[-79.53918200041761,36.078005999670424],[-79.53917999986948,36.07826199986532],[-79.53917999986948,36.07830000028831],[-79.53917099964866,36.07960899982685],[-79.53917099964866,36.07966100012167],[-79.53916599962578,36.0805199997366],[-79.53916300015104,36.08115200014475],[-79.53916200032613,36.08119299974309],[-79.53915800012818,36.08133799990394],[-79.53915499975511,36.08215100034899],[-79.53915399993022,36.08222099998266],[-79.53915399993022,36.0822700001973],[-79.5391530001053,36.08256900001579],[-79.53913999968651,36.08295399990165],[-79.53910399970151,36.08400500004065],[-79.53910200005168,36.08408000000322],[-79.53909200000592,36.08436899990633],[-79.53909000035611,36.084403999832496],[-79.53908899963288,36.084444000247586],[-79.53908600015815,36.084514999682035],[-79.53908399961001,36.08457899995568],[-79.53908199996019,36.0846410001257],[-79.53907699993731,36.08478199963957],[-79.53907299973936,36.08488700027173],[-79.53906500024175,36.085087999846166],[-79.53905099999805,36.08548800032721],[-79.53904500015028,36.08564999968525],[-79.53903500010452,36.085946999698216],[-79.53903099990656,36.08607500003973],[-79.53900400014238,36.08685899985253],[-79.53897700037821,36.08750899993],[-79.53896800015737,36.08773999965598],[-79.53896599960923,36.08781600003336],[-79.53894499969283,36.08828999965892],[-79.53894200021811,36.08846600018287],[-79.53893600037034,36.08864800016169],[-79.53893399982219,36.088713999922284],[-79.53893299999727,36.08873200017732],[-79.53893100034746,36.088803000094615],[-79.53892100030171,36.08907199994581],[-79.53886799969995,36.09052900029546],[-79.5388650002252,36.0905949999285],[-79.53879599972991,36.09248000035647],[-79.5387380000036,36.09411199990881],[-79.53872200011008,36.09451800032704],[-79.53872100028516,36.09454399990333],[-79.53870100019368,36.095086999865075],[-79.53869899964556,36.095165000181034],[-79.5386610000107,36.09621399989545],[-79.5386590003609,36.096255000348606],[-79.5386030002844,36.09772100019429],[-79.53859499988847,36.09792200033946],[-79.53858099964476,36.09828299971377],[-79.53857200032226,36.09849300033398],[-79.53858800021578,36.09861399981786],[-79.53852700011642,36.09987999969204],[-79.53851500042084,36.10003499997437],[-79.53850899967473,36.10011500011757],[-79.53850799984984,36.10012899989831],[-79.53850500037511,36.10016999976047],[-79.53849600015427,36.10037500020176],[-79.53848500028361,36.10065199966872],[-79.53847400041296,36.10092900033657],[-79.53846099999417,36.101261999810035],[-79.53843199968185,36.10200100027416],[-79.53839400004702,36.10292000031785],[-79.53836200025997,36.10370399975877],[-79.538358000062,36.1037970002287],[-79.53835100038931,36.103979000268],[-79.53834700019135,36.104081999648756],[-79.53834200016848,36.10419699984778],[-79.53833899979544,36.10428700004385],[-79.53831799987904,36.10481099984753],[-79.5382729996732,36.10592499967796],[-79.5382240001677,36.107130999725925],[-79.53821999996974,36.107241000036524],[-79.53821499994687,36.10737900007639],[-79.53821199957383,36.107426999749464],[-79.53820599972605,36.10758299975438],[-79.53814899982464,36.108984000135244],[-79.53810600016693,36.110041000216086],[-79.53805799958803,36.111258000032564],[-79.53804699971738,36.11146800008011],[-79.53803800039488,36.11174200021715],[-79.5380269996259,36.1120190002448],[-79.53801599975525,36.1122960000212],[-79.53800999990746,36.11243299985341],[-79.53799700038698,36.11273599970886],[-79.53799300018903,36.11285100030125],[-79.53798200031837,36.113128000046004],[-79.53797100044773,36.113405000265125],[-79.5379649997016,36.113489999963576],[-79.53796300005179,36.11353800025634],[-79.53791199999819,36.11497699974904],[-79.53791100017327,36.11499599979595],[-79.53789000025687,36.115620000232475],[-79.537885000234,36.115786999845525],[-79.53788100003602,36.11589699964425],[-79.53787900038621,36.115931000052264],[-79.53787199981521,36.116173000268645],[-79.53786299959438,36.11644999990676],[-79.53785400027185,36.11674199972224],[-79.53784400022612,36.11703499987961],[-79.53783500000527,36.117326999696644],[-79.53783300035545,36.11737899970925],[-79.53782400013463,36.117497999915464],[-79.53781999993667,36.11778900022101],[-79.5378080002411,36.11816799977755],[-79.53779599964723,36.11853300028074],[-79.5377870003247,36.11880499980684],[-79.53778300012674,36.11893099969484],[-79.53777200025608,36.11926800029066],[-79.53777100043118,36.11930100001717],[-79.53776899988304,36.119374999727235],[-79.53775899983731,36.119668000218695],[-79.53774999961647,36.11995999967762],[-79.53773999957072,36.12025300016292],[-79.5377379999209,36.12031399982678],[-79.5377360002711,36.12037400023504],[-79.53773100024821,36.12052500026138],[-79.5377170000045,36.1209199999563],[-79.53771399963145,36.12106200033281],[-79.53770000028608,36.12148400024257],[-79.53764099983651,36.12330800024559],[-79.53762300029317,36.12386500011471],[-79.53760999987438,36.12425100000887],[-79.53758200028528,36.12512299964402],[-79.53754999959992,36.12611899998824],[-79.5375260002088,36.12683099987515],[-79.53752500038388,36.1268870002527],[-79.53752000036103,36.12702899999435],[-79.53750799976713,36.1274440001224],[-79.53750000026952,36.127647999919475],[-79.53749199987361,36.127882999981765],[-79.5374419996449,36.12944299983215],[-79.53738800011652,36.1312380000501],[-79.53735399978135,36.1321369996764],[-79.53734999958338,36.132248000292805],[-79.53723400013075,36.13585899995797],[-79.5371889999249,36.13722499972836],[-79.53716100033581,36.13809599988712],[-79.53706000005347,36.14121399994496],[-79.53700999982476,36.14272399973113],[-79.53700399997697,36.14292399967061],[-79.53697899986261,36.14368000015993],[-79.53693500038,36.145061999858285],[-79.53692699998409,36.145283000295095],[-79.53689500019703,36.14628100006035],[-79.53689299964888,36.14634100020413],[-79.53689000017415,36.146425000183335],[-79.53688699980111,36.14653800009981],[-79.53688500015127,36.146592999871814],[-79.53688000012842,36.14674200031347],[-79.53684499996831,36.14782800009473],[-79.53681099963312,36.14887099967989],[-79.53677899984609,36.14983500000193],[-79.53674899970885,36.150752000358594],[-79.5367310001655,36.15131900031441],[-79.5367169999218,36.15177800017757],[-79.53670900042418,36.15200100033773],[-79.53670400040131,36.15217199972522],[-79.53668799960947,36.15265300005372],[-79.53661700036268,36.15484399986982],[-79.53658600040055,36.15579900033455],[-79.53651100005746,36.15809799977736],[-79.53650699985951,36.1582270002121],[-79.53648299957008,36.15896299998718],[-79.53648000009532,36.15905200033428],[-79.5364709998745,36.15932699989647],[-79.53646199965367,36.15960300010388],[-79.53645300033115,36.15987799990921],[-79.53644400011031,36.16015300020047],[-79.5364349998895,36.16042800025239],[-79.53642599966867,36.16070300006497],[-79.53641700034613,36.160977999638185],[-79.53651000023257,36.16151200026071],[-79.53646900022467,36.162161999692806],[-79.53644900013319,36.16248700028882],[-79.5364280002168,36.16281200026272],[-79.53640800012532,36.163091000149564],[-79.53638700020892,36.16336899965744],[-79.53636600029253,36.16364700035513],[-79.53635200004881,36.163831999753995],[-79.53632699993446,36.164167000239566],[-79.5363150002389,36.1643289997638],[-79.5362449999187,36.16528099974774],[-79.53623499987296,36.16540099992462],[-79.53622400000229,36.165560000274894],[-79.53622099962925,36.165595000281314],[-79.53620399991082,36.16582400006202],[-79.53620200026099,36.16585599971207],[-79.53619499968998,36.16593700030901],[-79.53619200021525,36.16598000004574],[-79.53618299999441,36.16609500022077],[-79.53617200012376,36.166247000092355],[-79.53615899970497,36.166422999957106],[-79.53613000029095,36.1668039997362],[-79.53612000024522,36.166935999821604],[-79.5361050001766,36.167159999721534],[-79.53609799960559,36.167248000128644],[-79.53606499999364,36.167692000181525],[-79.53598999965057,36.168691999849955],[-79.53596100023657,36.16907999974625],[-79.53586300032727,36.170391999954],[-79.5356759998312,36.172900000304445],[-79.53555600018062,36.17450099998121],[-79.53551500017274,36.17506700008332],[-79.53548400021059,36.17561799967474],[-79.53548099983753,36.175673000078014],[-79.53528900021692,36.179107999649],[-79.53527999999608,36.17926699974396],[-79.53523300014044,36.1801010001008],[-79.5352249997445,36.180242999951716],[-79.53521700024689,36.18040000013062],[-79.53520999967589,36.18052599971411],[-79.53520600037623,36.18059099993794],[-79.53513299968299,36.181912999758865],[-79.5351240003605,36.182071000088904],[-79.53510699974373,36.182374999919254],[-79.53510400026899,36.18241200012814],[-79.53510099989593,36.18246499965227],[-79.53509300039833,36.182623000319055],[-79.53507999997954,36.18286199972166],[-79.53502399990305,36.18385600029309],[-79.53501399985731,36.18403400018278],[-79.5349569999559,36.185053999709666],[-79.53495399958285,36.18510400011977],[-79.53495199993301,36.18514999971487],[-79.53493699986443,36.185410000165135],[-79.53493100001664,36.18551799985306],[-79.53488300033605,36.18637899979309],[-79.53478299987863,36.18817600014013],[-79.5347800004039,36.188226999801266],[-79.53475500028954,36.188908000111795],[-79.53472099995436,36.18984100015345],[-79.5346399997635,36.19204799965226],[-79.53455100007504,36.19446199989986],[-79.53451199971697,36.195517000322354],[-79.53446099966334,36.19690000004623],[-79.5344509996176,36.197187999642225],[-79.53439200006638,36.198785999810084],[-79.53438899969333,36.19887499987443],[-79.53438500039368,36.19897400003079],[-79.53438500039368,36.198990000337176],[-79.53438399967045,36.199016999759465],[-79.53438299984555,36.19909699976506],[-79.53438200002063,36.19911900015098],[-79.53437299979979,36.199322000157984],[-79.53436299975405,36.19958100030263],[-79.53427499989051,36.20198000019136],[-79.53419000040002,36.20429999967918],[-79.53415000021704,36.20540600024838],[-79.53395900042133,36.210689000225194],[-79.53391699969022,36.211739999978896],[-79.53390099979669,36.2121640001743],[-79.53389999997178,36.21218100017184],[-79.5338730002076,36.21294899974703],[-79.5338449997202,36.21369000033169],[-79.53382100032908,36.21434199992615],[-79.5337950003898,36.21502999972514],[-79.5337950003898,36.215058000313604],[-79.5337669999024,36.21543999998994],[-79.53379299984167,36.216155999751344],[-79.53378799981878,36.21652600015148],[-79.53373500011536,36.21710399983683],[-79.5337319997423,36.2171350001319],[-79.53372099987163,36.21725200015295],[-79.53344700023527,36.220216000299885],[-79.53342799996868,36.22042100015706],[-79.53341399972498,36.220697999754115],[-79.5333879997857,36.22125200035386],[-79.53332099983855,36.22263599982705],[-79.53328099965559,36.22346699968298],[-79.53323999964769,36.224297000073065],[-79.5331769998985,36.22561300014542],[-79.53311999999711,36.22673099981029],[-79.53311099977628,36.226964999958994],[-79.53308300018719,36.22754600010034],[-79.53308099963904,36.2275870000408],[-79.5330709995933,36.22780999965882],[-79.53306999976839,36.227818999776275],[-79.53304499965402,36.22832799966118],[-79.53301899971477,36.22888299984177],[-79.53298699992772,36.22953199965022],[-79.53296000016353,36.23009499985306],[-79.53293300039935,36.230658000350225],[-79.53290200043722,36.231288999762086],[-79.53289300021638,36.231472000327116],[-79.53288300017064,36.2316759997038],[-79.5328730001249,36.231885999763584],[-79.53286599955389,36.23204000012534],[-79.53285499968324,36.23226699991257],[-79.53285200020849,36.232320999697926],[-79.53285100038359,36.23234899989395],[-79.53283499959174,36.232674999782404],[-79.53282200007128,36.23298699978076],[-79.53278500026134,36.23371100001566],[-79.53274500007836,36.234540999651],[-79.5327049998954,36.23537199981127],[-79.5326970003978,36.23552399999936],[-79.5326909996517,36.235649000075654],[-79.53264700016909,36.23658300005846],[-79.5326410003213,36.236691000151325],[-79.53263600029842,36.23678799976539],[-79.5325919999175,36.23770899993475],[-79.53258799971954,36.23779100000519],[-79.5325569997574,36.23841699970514],[-79.53255500010758,36.23846600020625],[-79.53255199973452,36.238541000351866],[-79.53255099990962,36.2385689997695],[-79.53255000008471,36.23858699970036],[-79.53251900012256,36.23917299977395],[-79.53249499983313,36.23970300036008],[-79.53243399973377,36.24091900012741],[-79.53241799984023,36.24129700020733],[-79.53241000034262,36.24146299965714],[-79.53472000012944,36.24151999984959],[-79.54152900001435,36.241684999714664],[-79.54714700002084,36.24182099970608],[-79.54869199990159,36.24185800007299],[-79.55737000043067,36.2420690001467],[-79.55779800005284,36.2420780000719],[-79.55782700036517,36.24207899990255],[-79.55806199964348,36.24208500033505],[-79.55840399995024,36.24209299970352],[-79.558746000257,36.24210099979565],[-79.55929100005504,36.242113999762495],[-79.55937600044385,36.242116999977505],[-79.55946099993436,36.24211900036222],[-79.55957499973718,36.24212199985253],[-79.56738100023006,36.24232599969711],[-79.56898200018729,36.24238100033127],[-79.57102500001041,36.24244500008514],[-79.57136499976903,36.24245600034318],[-79.5720450001846,36.242478000130184],[-79.57442500029161,36.24255499969818],[-79.57714500015724,36.24264300014657],[-79.5775150000531,36.242655000200045],[-79.58339099980245,36.24284200025179],[-79.58349799993258,36.242848999722],[-79.58360800043575,36.242851999908744],[-79.58391700023223,36.24286200028895],[-79.58428600030318,36.24287400030881],[-79.58496599982043,36.24289599997814],[-79.58614699965311,36.2429339996559],[-79.58836600010163,36.24300599968099],[-79.59516400011589,36.24322600007131],[-79.60661600003895,36.24359400030154],[-79.60774800036613,36.2436290002076],[-79.61488899961375,36.24385800001362],[-79.61556900002931,36.243880000130446],[-79.61590899978793,36.2438910001866],[-79.61624900044487,36.24390200024114],[-79.61692899996213,36.24392400034565],[-79.61746100023969,36.24394099996112],[-79.62304999993388,36.24411999994943],[-79.6244099998667,36.244163000225534],[-79.62482699961822,36.244175000045644],[-79.62524799956768,36.244190999802946],[-79.6257699997995,36.244205999753525],[-79.62653300005574,36.24423099990628],[-79.63581300028427,36.24452699974496],[-79.64312099993647,36.24470999975264],[-79.64399600034571,36.244654000235265],[-79.64421300008067,36.244684999753105],[-79.64444300023443,36.24470400024616],[-79.64571899960336,36.244764000361926],[-79.6462340001625,36.244787999815706],[-79.64683400021211,36.244805999763514],[-79.64683699968684,36.24479600035649],[-79.64721099978065,36.24477999999859],[-79.64857400008651,36.24480299965171],[-79.6516420001067,36.24485599967717],[-79.65436899964502,36.24490300017539],[-79.65617200016693,36.24493200000631],[-79.65641400001628,36.24493800021977],[-79.6600700003905,36.2449980001559],[-79.66341000039725,36.24505300035876],[-79.66663999990084,36.2451119996903],[-79.6667219999166,36.24511399999836],[-79.66678999968865,36.24511399999836],[-79.66695299989527,36.24511799988995],[-79.66698100038268,36.24511799988995],[-79.67169600039084,36.24522800008807],[-79.67206999958636,36.24523599985932],[-79.67675000033275,36.24534500010249],[-79.67736899975061,36.24535900004297],[-79.68055300012175,36.245431999795365],[-79.68171200021311,36.24545899985524],[-79.68284100016724,36.245485999905796],[-79.68313300024529,36.24549200007674],[-79.68351900003468,36.24550100033228],[-79.6846250004226,36.24552699985735],[-79.68570400014801,36.24555099980133],[-79.6872669995721,36.24558300019821],[-79.69126799972784,36.2456810001548],[-79.69198199958028,36.245701000189996],[-79.7005649996748,36.245895000120804]]]},"properties":{"NAME":"Guilford County","GEOID":"37081"}}]}