{"type":"FeatureCollection","features":[{"type":"Feature","geometry":{"type":"Polygon","coordinates":[[[-72.03684500041345,43.18247099978759],[-72.03641600006804,43.18175699985559],[-72.03629600041745,43.1815560000226],[-72.03566399968246,43.180497000182086],[-72.03554400003185,43.18028299990648],[-72.03461699974409,43.178746999859065],[-72.03362400023238,43.177085999694455],[-72.03131699992032,43.173229999977195],[-72.03047800039441,43.17182600031636],[-72.02743999961315,43.16674799985305],[-72.02721200000752,43.166367000268],[-72.02354999978549,43.160243999816046],[-72.02347799981547,43.16012500001224],[-72.02530800010157,43.15622699990361],[-72.0264160001393,43.15386600015893],[-72.02820100021955,43.150060000165794],[-72.02823700020457,43.14998300024669],[-72.02852000006179,43.14938000027491],[-72.03007400016337,43.14606799974464],[-72.03129500017901,43.14346600013859],[-72.03153700002834,43.14295199990535],[-72.03180900001492,43.14237099997683],[-72.03243199963076,43.14104199993805],[-72.03258800016468,43.14072400012877],[-72.03288100006765,43.14008399970358],[-72.03339599972844,43.138987000004875],[-72.03476200040737,43.13607300018977],[-72.03505899960996,43.1354409997549],[-72.0372150003093,43.130843000016476],[-72.03800199995668,43.129217000022095],[-72.03814900026977,43.128806999702306],[-72.03710900000408,43.12878500014154],[-72.0340829998167,43.12874600000675],[-72.03486199996647,43.12506100021759],[-72.03528999958864,43.12292300028516],[-72.03565100016198,43.12112599990685],[-72.03838000024845,43.107529999700745],[-72.04178100035456,43.090531000273366],[-72.04347600002313,43.082106000091244],[-72.04349899958936,43.081992999888165],[-72.04212699996097,43.08221299999268],[-72.04197200015027,43.08223800026772],[-72.04299499979919,43.078175000196644],[-72.04352100022896,43.076098999924454],[-72.04392700010983,43.074494000103286],[-72.04638300038482,43.06475299970078],[-72.04906999974017,43.054110999930806],[-72.0518449998574,43.04308699988225],[-72.05314100021612,43.0379859998352],[-72.05406099993289,43.0343369998223],[-72.05520599978054,43.02980400019029],[-72.05625699991687,43.02562899978706],[-72.05662599998782,43.024165000318646],[-72.05794900011071,43.01892199987932],[-72.05798599992062,43.01831499987735],[-72.05808999967769,43.01652799974324],[-72.05812400001288,43.016100000195436],[-72.05866799998601,43.00729300000508],[-72.0588010000554,43.00510599996224],[-72.05909499978327,43.00072699991359],[-72.05912699957032,43.000236999791944],[-72.0591180002478,43.000080000202765],[-72.05925399979193,42.99788999970584],[-72.05971999994725,42.99042900000617],[-72.06038699994403,42.97976600020046],[-72.06112599991083,42.96795499974931],[-72.061236000414,42.96598800008358],[-72.0612439999116,42.965841999896035],[-72.06124599956142,42.965806000039684],[-72.06131500005671,42.964410999733595],[-72.06144700030119,42.96172600012706],[-72.06221999970487,42.94483600010411],[-72.062222000253,42.9447959997577],[-72.04880799979937,42.94446799988241],[-72.0390389998493,42.944274999941],[-72.03748599957264,42.944245999921385],[-72.03742199999853,42.944243000031925],[-72.03433800008483,42.944182000056436],[-72.03223699963708,42.94414000023222],[-72.03212700003222,42.944137999864154],[-72.0223189997241,42.94397899998305],[-72.01651499994477,42.94388200021373],[-72.0128009998442,42.94382099988054],[-72.01262900031507,42.94381900015967],[-72.0111799997955,42.943812999681434],[-72.00619000032601,42.94378899973549],[-72.00383100013542,42.931997000065735],[-72.00364500036257,42.93108299994287],[-72.00347299993513,42.93022400028545],[-72.0031480002451,42.9286699998096],[-72.00302100002351,42.928049999746534],[-72.00121500002685,42.919443000136916],[-72.0009449996901,42.918501000201594],[-72.00074200019884,42.91778800014291],[-72.00013299992838,42.91489900027163],[-71.99990000029987,42.91378500018453],[-71.99987199981247,42.91365300014613],[-71.99954799994737,42.910269999723695],[-71.99953700007671,42.910158999719755],[-71.99942999994659,42.90974699976513],[-71.99941200040325,42.90964799985591],[-71.99844199955945,42.90412299994081],[-71.99761899992706,42.89943900013016],[-71.99707499995395,42.89641600022972],[-71.9965300001559,42.89325200005436],[-71.99649699964563,42.89304000003394],[-71.99610300035864,42.89103999986221],[-71.99581399975534,42.889517999758986],[-71.99576799972458,42.88927699983476],[-71.99538600013317,42.88698899968669],[-71.99502399973491,42.88454799996822],[-71.99500399964343,42.88448600027965],[-71.99466200023498,42.8829629998628],[-71.99390599965142,42.879639999990424],[-71.99286799993389,42.8750639998137],[-71.99286799993389,42.874918999932866],[-71.99276099980378,42.87448400022123],[-71.99233400000651,42.87258399983787],[-71.99230899989215,42.8724840001377],[-71.99150999965089,42.86884599970038],[-71.9906860001936,42.86511500007104],[-71.99036599962814,42.86368099990435],[-71.98961800033884,42.860117999760604],[-71.9888700001512,42.85654800006731],[-71.98861099968512,42.85535700009124],[-71.9882850001702,42.85382999987744],[-71.98796499960476,42.852364000158175],[-71.98699399983434,42.84778199969142],[-71.98665800027369,42.8462400003032],[-71.98656600021218,42.845721999756314],[-71.9865329997019,42.84564200010601],[-71.9864900000442,42.845508000146815],[-71.98645900008205,42.84539400007066],[-71.98644400001346,42.845264000143075],[-71.98642899994483,42.84517200015062],[-71.9862649999133,42.84427800010531],[-71.98602899991174,42.84299599987585],[-71.98575699992519,42.84151800009243],[-71.98515799970046,42.8383639999221],[-71.98505599959323,42.83782499995125],[-71.98500999956246,42.8375279999075],[-71.98490199960743,42.83700800019701],[-71.9848990001327,42.83697999970843],[-71.98482399978963,42.836624999683025],[-71.98470699961375,42.83605700014324],[-71.98458299976521,42.83545299970171],[-71.98455199980306,42.83531500014435],[-71.98421600024241,42.833804999814305],[-71.98334599985603,42.82976100016003],[-71.98334699968096,42.82968499986787],[-71.9829500000209,42.827915000214624],[-71.98180500017327,42.822513000105374],[-71.98159199973792,42.82154400012504],[-71.9803099996229,42.81554000003806],[-71.97969899970262,42.81270200010393],[-71.97959300029574,42.81220600021385],[-71.97931299991325,42.81087900010832],[-71.9793029998675,42.81082499990936],[-71.97919599973739,42.81035999997959],[-71.97878400000876,42.80841699993429],[-71.97838700034872,42.80658299996474],[-71.97757899988663,42.80280699984364],[-71.97707500009648,42.800471999904225],[-71.97659499969745,42.79821299968974],[-71.97655600023768,42.79803099972129],[-71.97593100007371,42.79513899989043],[-71.97478600022606,42.789799000041135],[-71.97471000005808,42.7894020002702],[-71.97457199996582,42.78943300006499],[-71.9743669999264,42.7894210000399],[-71.97394699980184,42.78940399972579],[-71.97306200024518,42.789371999858545],[-71.97182600016092,42.7893330002246],[-71.97057500000804,42.789288000210774],[-71.96932300003026,42.78924999992454],[-71.96810200001462,42.78921100021373],[-71.96720200038935,42.78917299988028],[-71.96630199986575,42.78914300001687],[-71.96555399967812,42.78911200007685],[-71.96482200028233,42.78909699980258],[-71.96340299989996,42.789043999771174],[-71.96199899958623,42.78899800014255],[-71.96059500017078,42.788943999961575],[-71.95919099985703,42.788890999799214],[-71.9577870004416,42.78884500005689],[-71.95750399968607,42.78883500005103],[-71.95636800005926,42.78879199980975],[-71.95497999963902,42.788738000108324],[-71.95356100015496,42.78868499976957],[-71.95212599987909,42.78865400025942],[-71.95069200032643,42.78860899975194],[-71.94922699991331,42.78856299979999],[-71.94779300036065,42.78851699981387],[-71.94635800008477,42.788478999713604],[-71.94490899956517,42.7884330003243],[-71.94475700012752,42.78842799995867],[-71.94428299957627,42.78840999995756],[-71.94419100041308,42.78813600032023],[-71.94333699992025,42.78477100014392],[-71.9424819996025,42.78140699986795],[-71.94121600027931,42.77651599975335],[-71.94120299986054,42.77643999996166],[-71.94118500031718,42.77631000008434],[-71.94109400008058,42.77617300001464],[-71.94104800004983,42.77606599992268],[-71.94097199988187,42.77562399972182],[-71.94025600037959,42.771960999858784],[-71.93971999990406,42.7692460000546],[-71.93904100021173,42.76584899985179],[-71.93846899975121,42.762859999865185],[-71.93761400033176,42.75849199967783],[-71.9375959998901,42.75840099973849],[-71.93721799959833,42.756466000191956],[-71.93669999956447,42.75344899997127],[-71.9364400001718,42.75193600017772],[-71.93612299997937,42.75009000028913],[-71.93611899978143,42.75007299973094],[-71.93603199974278,42.74960999988616],[-71.93480999990224,42.74309400012383],[-71.93450799977845,42.74148999988142],[-71.9336940003669,42.737152999933485],[-71.93149599983475,42.725437999856446],[-71.93092000007458,42.722367999769745],[-71.93088699956431,42.72219399984426],[-71.92987399996112,42.716791999759124],[-71.92910099965914,42.712676999700996],[-71.92906700022226,42.71248600001831],[-71.92900399957476,42.712158000052284],[-71.92899299970409,42.71210200023902],[-71.92880799975617,42.712098000297594],[-71.92855900023415,42.7120749999692],[-71.92830499979092,42.712084999826054],[-71.92460900013204,42.71199399974927],[-71.92160999970883,42.71191000011851],[-71.91901799988972,42.71184500017687],[-71.9171709998852,42.71179600001343],[-71.91665100020151,42.71178200014822],[-71.91605699999967,42.71176800027985],[-71.91261900008362,42.71167499975387],[-71.9063220003848,42.711513000144436],[-71.89877299980986,42.71131200020014],[-71.89869499999206,42.711310000204016],[-71.89771199962777,42.71128500024671],[-71.89547999965879,42.71123100030458],[-71.89131799984457,42.71113000028671],[-71.88882700030778,42.7110700001983],[-71.88862300009329,42.71105900017579],[-71.88853000020688,42.71106100018004],[-71.88843200029758,42.71106000017792],[-71.88738299981107,42.711035000119914],[-71.8870399996794,42.711026000096574],[-71.88606499971105,42.71099700001248],[-71.88395900013873,42.71094099981177],[-71.88201199967678,42.710890000245044],[-71.88065900031496,42.710856000070585],[-71.88020599968013,42.710841999993335],[-71.87976800001222,42.710829999924584],[-71.87745900005031,42.71076600017896],[-71.87513300036998,42.710699999691386],[-71.86863900012933,42.7105520003232],[-71.86847300044798,42.71054700027148],[-71.8597730001776,42.71032500020963],[-71.85730699985687,42.710267000032914],[-71.85697200012112,42.7102589999132],[-71.85396000017744,42.710185000077495],[-71.8514579998717,42.710112000170966],[-71.85055200039864,42.7100939998553],[-71.84984400039399,42.71007500017648],[-71.84609000011046,42.70997400025776],[-71.84568400022958,42.70996300004101],[-71.84170599964007,42.709855999811204],[-71.83459399980646,42.70968099975958],[-71.83432900039091,42.70967400024891],[-71.82809999956581,42.709513000064305],[-71.82380200020748,42.70939400003258],[-71.8231910002872,42.709381000314806],[-71.8229109999047,42.7093740001102],[-71.82011499987111,42.70930600006204],[-71.81286300029541,42.70912500024055],[-71.81241600040666,42.70911299983983],[-71.81195000025134,42.709103000164255],[-71.81160100027188,42.7090959999283],[-71.81131900023955,42.7090870002839],[-71.81000199996446,42.70905799995394],[-71.80538900006354,42.708937000297425],[-71.80067700042841,42.708801999867696],[-71.80035699986296,42.70879300018066],[-71.79933500003894,42.70876699983059],[-71.79880600013442,42.70874999982429],[-71.79777300043976,42.70872700023547],[-71.79731499978205,42.70871299967801],[-71.79199499970139,42.708571999828365],[-71.79149900030714,42.708557999895994],[-71.79008300029784,42.70851800016625],[-71.7893839996157,42.708503000178446],[-71.78892199965833,42.708492999744486],[-71.78694199958441,42.70845199992871],[-71.78470600031577,42.70840499981678],[-71.78104699956847,42.70830900005338],[-71.77820799987715,42.70822900024716],[-71.77781899971473,42.7082179997212],[-71.7746350002419,42.70812900001439],[-71.77255399988564,42.70806700022477],[-71.7720280003542,42.7080559996701],[-71.77126500009794,42.70804000017998],[-71.77062700041347,42.708020999872424],[-71.76915399960444,42.70798199984836],[-71.76782499963377,42.707943999852084],[-71.7666949998547,42.70791100009701],[-71.76648700034056,42.70790499977959],[-71.76307000034093,42.707812000066475],[-71.75506499965641,42.70760200015907],[-71.75369600040109,42.70756099975479],[-71.75284000025843,42.70753600026781],[-71.75249600030185,42.7075320000321],[-71.75229899976004,42.70752699973711],[-71.7505770003273,42.70748100030477],[-71.7504659999992,42.70748000024496],[-71.75008900043066,42.70747299982603],[-71.7495449995592,42.707462999886246],[-71.74951100012235,42.70746399994627],[-71.74922400006716,42.70747099970616],[-71.74892500031643,42.70745700018564],[-71.74870100001044,42.70744700024328],[-71.74813100009804,42.707420999989466],[-71.74787599982992,42.707409999980435],[-71.74763800017853,42.70740300021367],[-71.74674100002801,42.70737900006433],[-71.74626200035219,42.707366999986235],[-71.74550300029391,42.70733099973786],[-71.7448680000842,42.707304000033005],[-71.74387399984927,42.707263000092006],[-71.74264299978789,42.70722599971949],[-71.74162099996387,42.70719499971155],[-71.73943199965257,42.70712799998214],[-71.73740200024824,42.70706599985289],[-71.73556500028947,42.70701000006617],[-71.73452300037395,42.706977999882476],[-71.7338780001185,42.706957999841805],[-71.73358799969027,42.70695400022894],[-71.73277199973057,42.706937999794654],[-71.73172800016525,42.70690899978093],[-71.73031999965355,42.70686800023912],[-71.7287880001916,42.70682299972871],[-71.72794100026975,42.7067990000153],[-71.72733399964915,42.70677899991692],[-71.72694899968467,42.70676200002633],[-71.72685900017129,42.70675799974071],[-71.72525200036627,42.70669800004682],[-71.72427300019997,42.70666899992098],[-71.72333099984358,42.70665600029262],[-71.72260500029557,42.70663500007481],[-71.72166899978698,42.706617000071034],[-71.72053999983284,42.7065939996919],[-71.71922299955773,42.70655199986733],[-71.71724099983398,42.70648799967137],[-71.71609500016142,42.70645100015711],[-71.71515500035316,42.70641999976213],[-71.71361799997001,42.706362999974985],[-71.71202500040869,42.706303999978076],[-71.71069399988988,42.70625500006109],[-71.70980599996017,42.70622300014831],[-71.7092800004287,42.70620700018569],[-71.70720699957006,42.70613699980585],[-71.70469599994179,42.70604600025021],[-71.70408699967135,42.70602000006977],[-71.70273099993648,42.70596600016801],[-71.70229800029144,42.70593999995402],[-71.70130999990428,42.70588100021521],[-71.7011209997584,42.70586999993323],[-71.69936900018843,42.70581800007413],[-71.69650500038276,42.70572200027061],[-71.68882399956333,42.705581000228165],[-71.68834700043568,42.70558299974879],[-71.6864069996464,42.70552499976195],[-71.6859699998034,42.70551899987404],[-71.67830300012601,42.70532799994841],[-71.67794599975062,42.705319999852264],[-71.67579999999535,42.7052719999141],[-71.67411700002233,42.70524199968632],[-71.6728740002654,42.705214999732995],[-71.6721930000249,42.705215999829285],[-71.67155600016538,42.70520600018601],[-71.6662929999861,42.705117000121554],[-71.66596999994591,42.70510699980224],[-71.66491499961163,42.70508900001555],[-71.66074000027695,42.70499299974478],[-71.65413100040857,42.70482800021166],[-71.65387699996535,42.704822000256385],[-71.65322099983923,42.70480499982982],[-71.65183599979206,42.704769000076105],[-71.65158399989699,42.70476099990798],[-71.64700799980598,42.70467600028565],[-71.64668200029105,42.7046709997606],[-71.64426600019904,42.7046360000348],[-71.64371800002796,42.7046279998495],[-71.64258300022604,42.704613999687815],[-71.64230000036882,42.704609999923974],[-71.64187299967324,42.704605000053704],[-71.63772500010273,42.70455800032969],[-71.63429100038466,42.70450399981633],[-71.63184799963015,42.70445900023278],[-71.63079800021704,42.7044390000407],[-71.63063900020838,42.704435999714235],[-71.63056499969022,42.704435000265526],[-71.63038800013823,42.70443099983],[-71.63007000012091,42.704423000278425],[-71.6263800003098,42.70436100008807],[-71.62454199962778,42.704320000183706],[-71.62363399960658,42.70430100005782],[-71.62220699972661,42.704269999909485],[-71.62150399974482,42.70426000011383],[-71.6208679997102,42.70425099976829],[-71.62026299963769,42.704242000081564],[-71.6200090000928,42.704237000181706],[-71.61979599965746,42.704232999733414],[-71.61828000008904,42.70420300032384],[-71.61812600010325,42.70420100009861],[-71.6174619995812,42.70419000017908],[-71.61640200012236,42.70417200012652],[-71.61525999974943,42.70415400006874],[-71.61444499961465,42.70414599982136],[-71.61416000010762,42.70414200002731],[-71.61316800042083,42.70412799975603],[-71.61281799971815,42.704122999846945],[-71.61232399997373,42.70411300002766],[-71.61214700042173,42.704109999685485],[-71.61057300022867,42.70408000021648],[-71.60632000017786,42.70401799968352],[-71.60618600028356,42.70401600011249],[-71.6022129997169,42.703956999865376],[-71.6015990003219,42.70395099982591],[-71.60032800007755,42.70391900004579],[-71.60021599992454,42.703915999694196],[-71.5975160001504,42.70384600003174],[-71.59438299983289,42.703771999812304],[-71.5942280000222,42.70376900011381],[-71.59125399971335,42.7037009998668],[-71.58844299961113,42.70362899971825],[-71.5882290002492,42.70362399976903],[-71.58585800036302,42.70356399968665],[-71.58247099960231,42.70349999971093],[-71.5822749997837,42.70349599987526],[-71.57921900035743,42.70343699979412],[-71.57644800043816,42.70338399975176],[-71.5762750001858,42.70337999990862],[-71.57358299990925,42.70333299991736],[-71.5704809995539,42.703274999808876],[-71.57031300022273,42.703270999958704],[-71.56895699958955,42.703244999936324],[-71.56729299988311,42.70320799980958],[-71.56443599975013,42.70315099971382],[-71.56427699974148,42.70314799998527],[-71.56139799986717,42.70308499971132],[-71.55849100040379,42.703023000165174],[-71.55831399995347,42.703019000298774],[-71.55566699988277,42.70295900029187],[-71.55268900027428,42.702885999809155],[-71.55250299960312,42.702885999809155],[-71.55236000038632,42.70288300006781],[-71.54679699973309,42.702762999733125],[-71.54651100040113,42.70275600010254],[-71.54634700036961,42.702752000218936],[-71.54361300026027,42.70268900020331],[-71.54296200015702,42.70267500026449],[-71.54269699984314,42.70266599968917],[-71.5425379998345,42.70266100032251],[-71.54247099988734,42.70266500021197],[-71.54243200042761,42.70265900004764],[-71.54204400009007,42.702651999745164],[-71.54103800015959,42.70262600012371],[-71.54036000029215,42.7025959999376],[-71.53902899977334,42.7025550001879],[-71.53789999981922,42.702541999698056],[-71.5365399998864,42.7025170001703],[-71.53514399996857,42.702491999972324],[-71.53495700037081,42.70248800007176],[-71.53166000002179,42.7024280002118],[-71.52913599997473,42.70237799973414],[-71.52896299972237,42.70237499996824],[-71.52342300043199,42.702275999691004],[-71.52218300014978,42.70225799974367],[-71.51894699990011,42.70219600003178],[-71.51732800039953,42.70215700030908],[-71.51694099988691,42.70214399973595],[-71.51632199957072,42.702124000118374],[-71.51489399986583,42.70208400020372],[-71.51420799960249,42.70205300026866],[-71.5124419997888,42.70198699975904],[-71.51141800031498,42.7019540001381],[-71.51103599982524,42.70194500011843],[-71.50992600013768,42.701918000051506],[-71.50594900027139,42.70181800021489],[-71.50532900013029,42.701801999777146],[-71.50445299989613,42.70177900025476],[-71.5038520000216,42.70176500011074],[-71.49949600003862,42.70163399988338],[-71.49938600043376,42.7016320002356],[-71.49568099965572,42.701538999706884],[-71.49467600044846,42.701513999775266],[-71.49362600013704,42.701487999677255],[-71.49352099965675,42.701484999868356],[-71.49340699985393,42.701482000059364],[-71.49267100026019,42.701462000228545],[-71.48972500043874,42.7013810000226],[-71.48821499981979,42.701338999972045],[-71.48810199984189,42.70134100028944],[-71.48801499980324,42.701338999972045],[-71.48763999988452,42.70132400023002],[-71.48750799964004,42.701320000254206],[-71.48556100007639,42.70127499968317],[-71.48260799968394,42.70120099970013],[-71.4817950000973,42.70117200030721],[-71.48147700007998,42.70116200001261],[-71.4800920000328,42.701120999976126],[-71.478880000238,42.70108299974104],[-71.47859099963469,42.70107400025525],[-71.47806299955506,42.701055999959436],[-71.47758499970419,42.7010429998159],[-71.47734700005282,42.70103199999702],[-71.4771699996025,42.70102599967488],[-71.47702400001263,42.701021000176155],[-71.47561800004907,42.70098000004661],[-71.47547300028411,42.70097700021317],[-71.47301299981115,42.700920000049706],[-71.47011999969317,42.70083599995659],[-71.46949200005446,42.70081800025197],[-71.46756399985905,42.700802000216704],[-71.46606900020703,42.70075900026659],[-71.4645250001512,42.700705999918625],[-71.46374199980346,42.700684000159484],[-71.46349900012922,42.70067799980371],[-71.46122500032743,42.70061999985562],[-71.4595060003694,42.7005710000735],[-71.45778599968817,42.70052699979162],[-71.45769100015193,42.70052500010815],[-71.45374299969964,42.70043599993486],[-71.45239700001052,42.700418000114276],[-71.4517469997322,42.700418000114276],[-71.4496190004186,42.70035899974881],[-71.44932200031766,42.70034399977002],[-71.44911200025537,42.70033800004158],[-71.44884899959132,42.70033699986672],[-71.44785699990454,42.70033200031252],[-71.4474879998336,42.70034300025545],[-71.44052199958985,42.70019900000845],[-71.44034500003785,42.70019600013728],[-71.4397790003234,42.700185000168354],[-71.43946299995591,42.70016799979242],[-71.43770499963983,42.70015399994533],[-71.43438499972457,42.70008900023664],[-71.43402099967652,42.70008500018127],[-71.43388000010951,42.70008800005777],[-71.4335489996734,42.7000770000697],[-71.43323900005201,42.70008200030458],[-71.43265599972081,42.700056999786305],[-71.43233600005368,42.700048000151796],[-71.43172000011053,42.70004500027338],[-71.42481400014124,42.69985699989893],[-71.42353200002623,42.69984599986994],[-71.42151599996728,42.69978000031519],[-71.42040499955651,42.69975800022794],[-71.41715499996145,42.69967900015056],[-71.41238800007474,42.699559000225086],[-71.40989499998983,42.69949099998833],[-71.40714800036002,42.699429000154154],[-71.40645700007381,42.69941200023138],[-71.40580599997055,42.69940100012357],[-71.40488799990361,42.69936899997881],[-71.40441699972541,42.69935600014225],[-71.40239800019174,42.699318000147294],[-71.3979250000329,42.69919899971735],[-71.39773199968906,42.69919500026485],[-71.39758799974902,42.69919199968496],[-71.3944469999339,42.699123999706494],[-71.39244099992071,42.69908300030485],[-71.39047400026557,42.6990350001658],[-71.38913600007406,42.698998999707136],[-71.38818399967194,42.6989780002001],[-71.38799799989911,42.6989670000154],[-71.3869559999836,42.69893899977647],[-71.38656299962321,42.698928999782375],[-71.38601199997738,42.6989180002492],[-71.38466399974016,42.69886500031033],[-71.38435900014161,42.69885299990683],[-71.38412999981276,42.69884400009782],[-71.38317499993589,42.69880699998906],[-71.38087299964668,42.69872200013749],[-71.38003999996857,42.69869399978808],[-71.37985699967047,42.69868799990021],[-71.3779860002748,42.698628999871424],[-71.37531599973957,42.698553000288896],[-71.37515199970802,42.698547999930845],[-71.37474400017736,42.698536000126296],[-71.37434300031936,42.69852499986329],[-71.37241400029905,42.69847399999872],[-71.37094899988593,42.698433999713224],[-71.37042699965411,42.69842099968091],[-71.37040599973773,42.69842099968091],[-71.37024199970618,42.698417000178246],[-71.37007799967466,42.698414999766655],[-71.36972899969521,42.6984100000577],[-71.3691789998743,42.698395999814224],[-71.36743899999988,42.69834700025765],[-71.36574500015622,42.69829999975734],[-71.36560299986601,42.69829500003917],[-71.3653919999788,42.698289000112744],[-71.36519100013736,42.69828600014928],[-71.36456199977542,42.6982659999492],[-71.36404999958935,42.69825599984672],[-71.3635750001115,42.69824200022875],[-71.36129100026396,42.69817399987013],[-71.36100099983574,42.698166000172556],[-71.35876100036913,42.6981030001249],[-71.35648800039225,42.69803899980149],[-71.35633500023137,42.69803500027423],[-71.35500399971255,42.69799700013106],[-71.35219799963319,42.6979190000076],[-71.3516350002918,42.697901000117525],[-71.34804699968963,42.69783300004564],[-71.34718800007224,42.697847999970804],[-71.34708799961481,42.69781500013069],[-71.34691299971263,42.69780900015788],[-71.34643400003682,42.69780099975306],[-71.34622999982233,42.69779799976603],[-71.34567699962838,42.69778700003251],[-71.3451939997546,42.69777900028508],[-71.34491300044553,42.697773999864694],[-71.34478600022392,42.697770999876404],[-71.34470300038325,42.69776900010417],[-71.34409699958752,42.69775899992165],[-71.3423700001319,42.697727000251156],[-71.34162100011937,42.69771400007078],[-71.34134400010993,42.69770800008821],[-71.34099400030556,42.69770200010507],[-71.33789799979797,42.69763900024687],[-71.33652500034468,42.69761100006933],[-71.33044700003065,42.697479000099726],[-71.33018400026492,42.697479000099726],[-71.32517399980564,42.697366999685336],[-71.32181399970742,42.697307000158396],[-71.31907799994825,42.697348000072516],[-71.31706500026237,42.697388999959514],[-71.3134909999039,42.69731600019017],[-71.31045899986873,42.69726699978131],[-71.30837699968757,42.69723600008207],[-71.30505900032043,42.69718700027036],[-71.30048800025232,42.697125999682676],[-71.30022299993844,42.697122000096606],[-71.29772599965557,42.69708700007647],[-71.294636999719,42.697041999738616],[-71.2924759998951,42.69912700028963],[-71.29163599964596,42.699938000112475],[-71.29120399982584,42.70036699982399],[-71.28932400020933,42.702170000219375],[-71.28908300018492,42.70238399992562],[-71.28889999988681,42.702545000116054],[-71.28858799971728,42.70282199979462],[-71.28804399974415,42.70330599979389],[-71.287575999939,42.70372100029668],[-71.28748399987751,42.703802000090306],[-71.2866339995826,42.704549000027356],[-71.2850059998612,42.70598100010875],[-71.28414999971854,42.70673700021752],[-71.28296200021317,42.707790000184936],[-71.28143700042392,42.709144000210124],[-71.28097200009351,42.70954899970725],[-71.28064200038062,42.70984800029862],[-71.2799870000794,42.71042900025424],[-71.2790709996623,42.71124600029322],[-71.27894900036188,42.711350000114756],[-71.27854799960556,42.71186100000635],[-71.27661600011054,42.714299999697666],[-71.27544100012564,42.71578699981035],[-71.27533900001839,42.71592400007523],[-71.27478800037257,42.71667000008824],[-71.27419300034582,42.71747600026655],[-71.27179300014733,42.720721999829784],[-71.27032400043457,42.72270999993052],[-71.26998799997558,42.72316399979796],[-71.26871099988345,42.72489100027412],[-71.26787300018245,42.72602600000637],[-71.2664050002946,42.72723200025494],[-71.26307100013564,42.72999999971889],[-71.2591679998892,42.733234999873154],[-71.25847599977807,42.733808999839994],[-71.25799600027736,42.73420500006081],[-71.25590599970026,42.735928000238644],[-71.25542700002445,42.736322999869806],[-71.25518299962698,42.7365239999523],[-71.25514699964198,42.73655400023374],[-71.25509999978631,42.73659199986558],[-71.25403399958137,42.73725600030007],[-71.25311300003969,42.73782999999765],[-71.25253899992934,42.7381880003233],[-71.25201500004769,42.738514000145095],[-71.25154399986951,42.738807999967634],[-71.25138300021102,42.73890800024482],[-71.25128000027887,42.73896900001804],[-71.25109100013299,42.73908200013161],[-71.25090799983488,42.73919099986505],[-71.25057599957385,42.73938799972639],[-71.25042800033417,42.739477000124985],[-71.25019099960939,42.739617999686864],[-71.2500080002096,42.739726000257484],[-71.24980700036815,42.73984599971784],[-71.2496480003595,42.73993999978166],[-71.24951000026722,42.74002300019681],[-71.24939899993913,42.74009100023159],[-71.24915000041712,42.740244000037166],[-71.24903099969312,42.74031700012182],[-71.24889299960084,42.74040199975061],[-71.24880499973729,42.74045600003638],[-71.24877399977515,42.74047700002484],[-71.24872699991948,42.74050399981106],[-71.24868699973653,42.740528999871444],[-71.24809000005995,42.74089600009885],[-71.24548099962408,42.742514000066336],[-71.24589700044899,42.74289499986476],[-71.24953500038157,42.746236999942525],[-71.25374200040163,42.75007499979685],[-71.25408200016025,42.7503480002726],[-71.255374000321,42.751384000068704],[-71.2572880002727,42.75313999990727],[-71.25772900031366,42.7535459997889],[-71.2592669996234,42.754959999858016],[-71.2600900001541,42.755733999749935],[-71.26112000037404,42.75592199970466],[-71.26302599992978,42.75627799990887],[-71.26530800012752,42.756690999823135],[-71.26607600040664,42.75689999987431],[-71.2660889999271,42.75690300030229],[-71.26618600001147,42.756922000151135],[-71.2662150003238,42.75692799968566],[-71.26735400032366,42.757164000042295],[-71.27095500044632,42.75770800017959],[-71.27120599961818,42.757738000103984],[-71.27167799962128,42.757815000327135],[-71.27186799959209,42.757849999737374],[-71.27193000041467,42.757875000057844],[-71.27199999983655,42.757897999895214],[-71.27222499996746,42.75793499973041],[-71.272424999984,42.7579699997324],[-71.27296499975917,42.758059999741064],[-71.27332399978437,42.758124000166035],[-71.27859700000937,42.75907500027884],[-71.27949199961178,42.75923699968575],[-71.28104200041369,42.759521999922846],[-71.28258100044667,42.759809999795735],[-71.28353600032354,42.759982999843004],[-71.28426100004663,42.76011299969411],[-71.28477499988252,42.76019899975012],[-71.28583900043765,42.760383999749756],[-71.28740199986173,42.76066499987966],[-71.28885100038131,42.76093299992646],[-71.28977600012097,42.761105000280885],[-71.29032799959168,42.76120699991279],[-71.29068800034011,42.761268000168464],[-71.29137399970516,42.76139499975132],[-71.29212600009072,42.761529999837734],[-71.29257600035253,42.761611999859],[-71.29342800029724,42.76176700031855],[-71.29374799996437,42.761825999676724],[-71.29433100029557,42.761933999809536],[-71.29754099970766,42.76249999989402],[-71.2985430003385,42.76268900025515],[-71.29984899984461,42.76292200029764],[-71.29998000026418,42.76294699989063],[-71.3001009997397,42.76296999982388],[-71.3004089997113,42.763028000191106],[-71.30067300020023,42.763078999764154],[-71.3008809997144,42.76311800010766],[-71.3010570003398,42.76315199999813],[-71.30115400042418,42.76317000008777],[-71.3013390003721,42.76320200030749],[-71.3014730002664,42.7632259999668],[-71.30158200004637,42.763244999855395],[-71.30163399992489,42.763254000217096],[-71.30178100023798,42.76327899967616],[-71.30185700040595,42.76329199997124],[-71.30215399960858,42.76334399980529],[-71.30243200034123,42.76339000002798],[-71.30251299963376,42.76340300029981],[-71.30275299983327,42.763443000256565],[-71.30289099992555,42.7634650001888],[-71.3031060000107,42.76350100018097],[-71.30320200027015,42.76351900016921],[-71.30343099970071,42.76356299997189],[-71.30368099994595,42.76361100032055],[-71.30385199965019,42.76364400012651],[-71.30408299962886,42.76368900031317],[-71.30416399981972,42.76370400014832],[-71.30441499988989,42.76375099991595],[-71.30459399999003,42.76378500011854],[-71.30483900021241,42.76383000020283],[-71.30520099971235,42.763897999843124],[-71.30551000040715,42.7639550001921],[-71.3057460004087,42.763996000260306],[-71.30594999972489,42.76403199994392],[-71.306169000008,42.76406999988038],[-71.30765399961427,42.76433099976859],[-71.30784100011034,42.764363999850545],[-71.30852400000066,42.76448900008138],[-71.30939199983888,42.76465099984172],[-71.30989499980411,42.76474400008676],[-71.31012499995789,42.76478699988336],[-71.31212799959803,42.76512399997059],[-71.31243800011774,42.7651770000347],[-71.31281800005934,42.765240999703224],[-71.31942899957754,42.766471000024424],[-71.31944199999633,42.7664719997928],[-71.32337100018204,42.7671719998688],[-71.33161899964249,42.768671000040754],[-71.33897999989645,42.77000799971198],[-71.33930999960933,42.770063000293746],[-71.34593400044461,42.77125499970438],[-71.34681200032861,42.7714029999775],[-71.35082199980685,42.77214299999488],[-71.35103500024218,42.77218300024301],[-71.3506770000419,42.772386999787514],[-71.35009000041106,42.772823999705246],[-71.35001300041817,42.7729920000451],[-71.34992100035666,42.77326499979031],[-71.34979999998285,42.77360199991264],[-71.34977700041662,42.77374799989137],[-71.34978400008931,42.773821999731084],[-71.34986100008221,42.77406000030909],[-71.34995899999149,42.77419000029402],[-71.350051000053,42.77431299987629],[-71.35030299994808,42.77464700000252],[-71.35066899964596,42.77528000003192],[-71.35066899964596,42.775441000301036],[-71.35060800044494,42.77570800010725],[-71.35060800044494,42.77583700031237],[-71.35076099970749,42.776295000004815],[-71.35088200008131,42.77675300026615],[-71.35098900021144,42.77685900022971],[-71.35108100027293,42.77694300025861],[-71.35115800026581,42.776981999785875],[-71.351325999597,42.77713399992372],[-71.35169899986592,42.777332999700754],[-71.35213400005908,42.77755699978804],[-71.35239699982483,42.77767099969204],[-71.35286700017811,42.777874000036846],[-71.35292699955424,42.7780339999143],[-71.35280500025382,42.77822500017039],[-71.35208800002833,42.77885100027335],[-71.35195099976099,42.77904199998734],[-71.35179199975232,42.779575999703454],[-71.35172200033045,42.779812000160206],[-71.35164600016246,42.779949000090966],[-71.35153900003235,42.78025499968374],[-71.35152399996373,42.780505999912144],[-71.35153900003235,42.78060600016628],[-71.35187399976809,42.78091800031662],[-71.35223899964107,42.781188000154046],[-71.35228600039505,42.781223999735744],[-71.35280500025382,42.78151299977644],[-71.35309499978374,42.781711999985255],[-71.35310999985235,42.78181100008939],[-71.35309599960866,42.78211600019443],[-71.35300400044547,42.782245999750074],[-71.35286600035319,42.78270400016839],[-71.35286600035319,42.78293999991054],[-71.3529580004147,42.78316099967755],[-71.35307999971512,42.78326100025856],[-71.35327899990675,42.783299000265586],[-71.35349200034209,42.78326800003607],[-71.35353800037284,42.783248999696276],[-71.35355199971822,42.7832440002305],[-71.3538739999335,42.78312300024513],[-71.3539650001701,42.78313900014777],[-71.3540560004067,42.78315399988794],[-71.35415199976784,42.78318000004429],[-71.354190000301,42.78318699983096],[-71.35423299995871,42.78319499977452],[-71.35428599966214,42.78320699968796],[-71.35454400030332,42.783401000273194],[-71.35475799966525,42.783565999813334],[-71.35491099982615,42.78372600014616],[-71.35527700042235,42.78402300021176],[-71.35547499989075,42.78409200024276],[-71.3557040002196,42.784106999752034],[-71.3560559996738,42.78422899993312],[-71.35645300023215,42.78456500024819],[-71.35654399957042,42.78462599991748],[-71.35686400013587,42.78476399987706],[-71.3572380002297,42.78483700026635],[-71.3574309996752,42.78488700021236],[-71.35751000021625,42.784918999761075],[-71.35758899985898,42.78494999982313],[-71.35805500001429,42.78513699999601],[-71.35826900027453,42.78516799994894],[-71.35849699988016,42.78508399987042],[-71.35856800002529,42.785026999846394],[-71.35858100044408,42.785015000285725],[-71.35862499992668,42.78497900027123],[-71.35866500010965,42.78494700009428],[-71.35892399967743,42.78476399987706],[-71.35916899989981,42.784694999935745],[-71.35950399963556,42.78470999995821],[-71.35968799975858,42.78462599991748],[-71.35970200000229,42.7845189999282],[-71.35967900043607,42.78451299976929],[-71.35962599983431,42.784496000085035],[-71.35938200033516,42.78448899978712],[-71.35916800007492,42.78439000000951],[-71.35904699970108,42.78431299985323],[-71.35903099980754,42.78422899993312],[-71.35919900003705,42.78416799987264],[-71.35928500025076,42.78416000005482],[-71.35956499973493,42.784138000220736],[-71.35970100017738,42.78403200019149],[-71.35974899985796,42.78399299983028],[-71.35984000009454,42.78373400002013],[-71.35990100019391,42.78362699980771],[-71.36000800032403,42.783543000275415],[-71.36016499978456,42.78350300011276],[-71.36037400002193,42.783504999758854],[-71.36051100028929,42.78360400029245],[-71.36058699955893,42.783718000271215],[-71.36080099981919,42.78383300018749],[-71.3610000000108,42.7838789996986],[-71.36138099977734,42.78382500032637],[-71.36153999978598,42.78371499982336],[-71.36168700009908,42.78361200018214],[-71.36176300026706,42.783496999855345],[-71.36182099999338,42.783358999708646],[-71.3618999996361,42.783169000283785],[-71.36208899978199,42.783025999922586],[-71.36214800023153,42.78296799982024],[-71.36222100002645,42.78292500011852],[-71.36243399956348,42.78296299967246],[-71.36260199979299,42.78310799983814],[-71.36271999979375,42.78329299998845],[-71.36286100025906,42.78361100003118],[-71.36311999982684,42.78409200024276],[-71.36329999975189,42.78427099990745],[-71.36342600014858,42.784397000318606],[-71.36354800034731,42.784458000153485],[-71.36373099974712,42.78459599982826],[-71.36386800001445,42.78465700012629],[-71.36407600042692,42.7847570002687],[-71.36412699958224,42.78478600014797],[-71.36414300037407,42.784847000258786],[-71.36415900026759,42.784886000082],[-71.36417400033622,42.784991999967545],[-71.36420399957512,42.78509200022815],[-71.36441799983537,42.78523700002235],[-71.36452400014058,42.78535100029044],[-71.3645400000341,42.78551099996565],[-71.3644489997975,42.78574799967233],[-71.36436199975887,42.78583999977016],[-71.36423399971235,42.78597700020714],[-71.36415800044269,42.78616000013496],[-71.36420399957512,42.786274000021876],[-71.36443299990398,42.78640400007619],[-71.36451699956957,42.78645299997007],[-71.36461600020209,42.78651100010372],[-71.36473800040082,42.78666299992344],[-71.36479899960187,42.78677000016257],[-71.36478400043157,42.7870139996772],[-71.36459399956246,42.78750500004096],[-71.36452999998836,42.78766999985011],[-71.36449400000336,42.787761999728545],[-71.36446300004121,42.78790699986127],[-71.36446399986612,42.78817399997186],[-71.36441799983537,42.7884330003243],[-71.36432599977385,42.78856299979999],[-71.36420399957512,42.78892900030585],[-71.36423500043558,42.789119999914],[-71.36432699959877,42.78921100021373],[-71.36438299967527,42.789241000044186],[-71.36473800040082,42.789394999867774],[-71.36478400043157,42.78950899973014],[-71.36475299957112,42.78970699989416],[-71.36452400014058,42.79009599997653],[-71.36441799983537,42.79036299987398],[-71.36440000029202,42.79046900026936],[-71.3643719998046,42.79071399974226],[-71.36448499978252,42.791170000080406],[-71.36458500023996,42.79157599991933],[-71.36461299982903,42.79160199983451],[-71.36470700043868,42.791714000206305],[-71.36489099966339,42.79176699992901],[-71.36504299999935,42.79178999970749],[-71.36522600029745,42.79172099968722],[-71.3652720003282,42.791698999903396],[-71.3655469997895,42.79146199990871],[-71.36576000022484,42.79139300018195],[-71.36591300038572,42.79140899992483],[-71.36608099971689,42.79152300003301],[-71.36620299991564,42.79169099974035],[-71.36617199995348,42.79196600013706],[-71.36595900041647,42.792271000310464],[-71.36567400001111,42.792500999793],[-71.3653490003211,42.792766999859715],[-71.36529400006953,42.79279499993899],[-71.36476900036297,42.79308700001108],[-71.36441799983537,42.79336900009134],[-71.36440100011693,42.7934059998335],[-71.36417599998605,42.7935049996941],[-71.36402399965007,42.793709000185906],[-71.36396599992375,42.79392899975588],[-71.36404100026682,42.794156999707404],[-71.36407499970369,42.79426100023899],[-71.36410200036619,42.79443700023343],[-71.36404499956647,42.79452600001756],[-71.36393099976364,42.79482600025054],[-71.36386899983937,42.79507600010283],[-71.36396199972579,42.79531400006264],[-71.36412800030546,42.79551100015406],[-71.36403500041905,42.79560500015732],[-71.36387899988512,42.79560500015732],[-71.36364100023374,42.795428000228796],[-71.36338099994275,42.7953970001408],[-71.36320500021566,42.795428000228796],[-71.36300900039706,42.79544099970825],[-71.36296800038917,42.79544500020669],[-71.36290700028982,42.795505999701106],[-71.36293800025196,42.79554400010136],[-71.36319699981972,42.7957499997141],[-71.3632729999877,42.795878999688846],[-71.36327600036077,42.79595500000793],[-71.3632729999877,42.79600900000445],[-71.36322100010916,42.79606200000408],[-71.36319599999482,42.796086000113355],[-71.3631730004286,42.796104999808726],[-71.36302899959024,42.79617700005858],[-71.36286100025906,42.79615399993296],[-71.36266299989234,42.79603999978587],[-71.36262000023463,42.79598200001211],[-71.36241900039317,42.795733999775145],[-71.36226700005723,42.79564299983766],[-71.36220500013293,42.79563500018443],[-71.36200699976621,42.79577299998993],[-71.3618999996361,42.79606299995391],[-71.36182400036644,42.796429000273335],[-71.3618569999784,42.796526000027484],[-71.36186899967396,42.79656599968479],[-71.36194599966687,42.79662700005171],[-71.36212899996495,42.79668799969928],[-71.3626319999302,42.7967110002856],[-71.36280000015971,42.796748999945905],[-71.36293800025196,42.796841000171696],[-71.36296800038917,42.79707700006818],[-71.36292200035842,42.797390000187455],[-71.36273900006033,42.79760400030541],[-71.36234900007298,42.7978720000315],[-71.36181299959746,42.798215000178935],[-71.36154200033413,42.7984430001589],[-71.36149200010541,42.79848399980601],[-71.36141400028761,42.798549999807825],[-71.36132399987592,42.798642999900665],[-71.36122299959358,42.798751999675574],[-71.36114999979866,42.79881999986122],[-71.3610540004375,42.79885800020379],[-71.36090499957626,42.79890399975469],[-71.36067899962045,42.79896200008544],[-71.36075999981131,42.799035000208484],[-71.36155800022766,42.79973800032601],[-71.36162400034989,42.79980299976005],[-71.36163500022056,42.799813999860305],[-71.36164799974102,42.7998269997366],[-71.36769199971988,42.80537499978788],[-71.36771600000931,42.805396999982364],[-71.36776299986498,42.80543900009223],[-71.3688850001464,42.806471000141805],[-71.36890100003995,42.806486000159275],[-71.36893600020005,42.80651999996573],[-71.36897300000997,42.806555999973014],[-71.36949000021892,42.80705300012949],[-71.37105099999319,42.80849399975979],[-71.37123599994112,42.80866700023355],[-71.37352300016171,42.81078599995603],[-71.37451999987135,42.811702999785105],[-71.37560299979474,42.81275500030203],[-71.37628800023317,42.81339699979064],[-71.37792299962729,42.81492899993399],[-71.37818499956812,42.81517099984845],[-71.37973600019494,42.81661200012804],[-71.38169299980434,42.818429999901376],[-71.38370700021346,42.820330999828336],[-71.38592999996163,42.82239100028398],[-71.38665800005776,42.823059999931154],[-71.38679899962477,42.82317700021598],[-71.38720000038107,42.823559000229295],[-71.39526899974138,42.823828999842945],[-71.39616199969396,42.82387399977375],[-71.39640899956616,42.82388699986478],[-71.39777000022221,42.823926000121475],[-71.40037100026214,42.82399999993273],[-71.4031909996869,42.82408200024342],[-71.40321300032652,42.82408299974032],[-71.40323000004497,42.824083999896075],[-71.40419300031775,42.824126999990014],[-71.40788599960358,42.82423900012492],[-71.4139630000927,42.82443500020222],[-71.41605600014454,42.82448499977962],[-71.41608299990872,42.82448599992887],[-71.42025499976867,42.82463900017399],[-71.42618699959453,42.82481200028787],[-71.4269099996678,42.82484300013145],[-71.42706700002663,42.824839999700956],[-71.4272129996165,42.82555899988641],[-71.42762799971821,42.82734299992809],[-71.42805899971341,42.82919999997196],[-71.42839199979936,42.83062800007787],[-71.42855599983089,42.831331000182665],[-71.42915900025356,42.833934000141724],[-71.42964899980001,42.83605500021915],[-71.42999000028186,42.83755400027219],[-71.43035799962958,42.83911899972016],[-71.43080500041665,42.8410079998456],[-71.43096699990004,42.84172400007046],[-71.43149499997963,42.84404800014817],[-71.43157299979744,42.84440999978561],[-71.43161600035346,42.84455500019711],[-71.43170800041497,42.84494300004689],[-71.43197700002848,42.84607100008979],[-71.43224700036522,42.84722599998088],[-71.43239399977999,42.84783899985749],[-71.43273600008675,42.849309999687094],[-71.43278999961512,42.849541000213094],[-71.43285599973737,42.84984200008118],[-71.43401300017891,42.85485199977357],[-71.43473600025217,42.85792100019322],[-71.43480599967405,42.85821899992078],[-71.43594600039715,42.86312300007445],[-71.43624900034587,42.86441900030161],[-71.43631399974488,42.8646929998021],[-71.4370970000926,42.86806800008616],[-71.4378300002116,42.871091000205126],[-71.43786100017377,42.871240000066614],[-71.43917800044886,42.87696400020796],[-71.43926899978716,42.87733699992223],[-71.43950499978871,42.87832699984631],[-71.4398980001491,42.880013999894125],[-71.44056900034383,42.88296699996461],[-71.44068300014665,42.88349400007941],[-71.4407290001774,42.88358600024621],[-71.44081799986586,42.88398499998985],[-71.44167700038157,42.88774900030963],[-71.44221899980656,42.89006299988925],[-71.44230099982232,42.8903989997956],[-71.44237000031761,42.89069499990468],[-71.44351799964,42.895586999849584],[-71.44365099970939,42.89616800011733],[-71.44379100034978,42.89687900029123],[-71.44386599979454,42.89723799995597],[-71.44518200024474,42.903086999800884],[-71.44532199998685,42.90371199996283],[-71.44661900017044,42.909784999681406],[-71.44666199982817,42.909982000135756],[-71.4476850003754,42.91457799974698],[-71.44769700007097,42.914701999744075],[-71.44771499961432,42.91476199997148],[-71.44782799959222,42.915286000132184],[-71.44806799979173,42.91639200024496],[-71.44811800002046,42.916546999751546],[-71.44818300031777,42.91685400031853],[-71.44877499997149,42.91955700030031],[-71.44882000017732,42.91975199993501],[-71.4488400002688,42.919837999773456],[-71.44886200001011,42.91993699976013],[-71.44906799987444,42.920831000090715],[-71.44925399964727,42.921644000228326],[-71.44929899985311,42.92183700005928],[-71.44930800007396,42.92187700019056],[-71.44941500020407,42.92234200022256],[-71.44950300006762,42.92272599976327],[-71.44961000019775,42.92319400022274],[-71.44969600041148,42.92356799979677],[-71.44979599997058,42.92400200017103],[-71.44981299968903,42.924075999799406],[-71.44988499965905,42.92438699973695],[-71.44989800007782,42.92448300011336],[-71.4499099997734,42.92456700023774],[-71.44992999986488,42.924682999814024],[-71.44999099996424,42.92500500015838],[-71.45005200006362,42.92518100017449],[-71.4501569996456,42.925704999876494],[-71.45023100016377,42.92607500005679],[-71.45024500040746,42.92613900032475],[-71.45024600023238,42.926150000302464],[-71.45025100025524,42.92617399988817],[-71.45026499960065,42.92623499994423],[-71.450297000286,42.926373000204045],[-71.45038799962428,42.92675999969814],[-71.45041399956357,42.926844000006525],[-71.45044899972365,42.92695800028884],[-71.45044899972365,42.92701200027971],[-71.45045499957143,42.92704099986547],[-71.45048100040901,42.92715399998105],[-71.45052800026468,42.927358000072175],[-71.45056099987664,42.92750499993185],[-71.45062799982381,42.927799999706046],[-71.45067200020473,42.92799200019588],[-71.45067999970233,42.928027000021956],[-71.45070800018974,42.928147999906535],[-71.4507900002055,42.92851000032711],[-71.45081199994682,42.92860699997662],[-71.45084600028201,42.92875599969682],[-71.45086399982534,42.92883399994957],[-71.45087600041921,42.92888699983728],[-71.45089399996257,42.92896400015132],[-71.45091300022915,42.929048999856604],[-71.45105899981903,42.929690999738405],[-71.45106899986476,42.92973399997088],[-71.45111800026856,42.9299490000251],[-71.45116699977406,42.93016300023321],[-71.45122100020073,42.93039900011084],[-71.45123100024647,42.93043800019584],[-71.45101199996336,42.93035799984307],[-71.45103899972753,42.930493000172554],[-71.4510849997583,42.930716000137004],[-71.45115400025358,42.930900000184025],[-71.45043600020317,42.93101999994711],[-71.450149000148,42.93105000001579],[-71.44979400032076,42.931090999822906],[-71.44963100011414,42.93110799997554],[-71.44949300002189,42.93112399972802],[-71.44805699992108,42.931290000039084],[-71.44801300043846,42.931289000304],[-71.44692999961676,42.93140999970005],[-71.44583199962476,42.93152999978495],[-71.445024000061,42.931602999848266],[-71.44492799980152,42.931614000165645],[-71.44451100005001,42.93166300006074],[-71.44424300026142,42.931694999930926],[-71.44314699991924,42.9318209997926],[-71.44280499961248,42.93186000029264],[-71.4392079996878,42.93224200025875],[-71.43862899955457,42.932303999943706],[-71.43595499971968,42.93258899998389],[-71.43425199965519,42.93277299969692],[-71.43335700005277,42.932869000158256],[-71.43112699973359,42.93312199978717],[-71.4302749997889,42.93321600029693],[-71.43012400017615,42.93323000009471],[-71.4294580000043,42.93330100005362],[-71.42894900019127,42.933360000225875],[-71.42856099985374,42.93340600028748],[-71.42833800027101,42.933527000128265],[-71.42722500021038,42.933657000290154],[-71.42695800024669,42.933658999683445],[-71.42632899988476,42.93366299978511],[-71.42615599963239,42.933664999835855],[-71.42569399967505,42.933722000268226],[-71.42563299957567,42.93372999980547],[-71.42529500036518,42.93377299984887],[-71.42528000029657,42.93377299984887],[-71.42526600005287,42.93377600024842],[-71.42517499981626,42.93378700017769],[-71.42493499961674,42.93381700021396],[-71.4248750002406,42.93380200019762],[-71.42459800023117,42.9338329999204],[-71.4242629995971,42.93387100011081],[-71.42373600024072,42.933931000086865],[-71.42335999959877,42.933973000298394],[-71.42322200040483,42.93398800027308],[-71.4230440001296,42.93400800001437],[-71.42242700036154,42.93407699969676],[-71.42131299957771,42.93419099974607],[-71.42086099966609,42.93423600015748],[-71.41841799980989,42.93451299971481],[-71.41785799994325,42.93457000001999],[-71.41759199980446,42.93459699997308],[-71.41731800016807,42.93462500025292],[-71.41688799999775,42.93467199970754],[-71.41604199990084,42.934765000145894],[-71.41519599980393,42.93486500015639],[-71.41449399964705,42.93494800025884],[-71.4137089996495,42.93502500023009],[-71.4134340001882,42.93505199998369],[-71.4130819998357,42.9350880000752],[-71.41278399990986,42.935122000142265],[-71.41274700009996,42.93512600014891],[-71.41266199971113,42.9351349998341],[-71.41253000036497,42.93514899985333],[-71.41225500000535,42.93518000021334],[-71.41208599995096,42.93519899989595],[-71.41169199976564,42.935242999899884],[-71.41152299971125,42.93526099989244],[-71.41123800020421,42.935290999868315],[-71.41092299966162,42.93532600015055],[-71.41084400001891,42.935334999806514],[-71.41067300031469,42.93535400009893],[-71.41020999963409,42.93540399997511],[-71.40998600022644,42.93542900022679],[-71.40962999967594,42.935467999757385],[-71.40938299980375,42.9354949999744],[-71.40920799990157,42.93551400021745],[-71.40907099963422,42.93553099980694],[-71.40899799983927,42.935540000090626],[-71.40864300001205,42.93558300018553],[-71.40840299981254,42.93561199968199],[-71.40807800012252,42.93565200007625],[-71.40792099976369,42.935671000270865],[-71.40782299985439,42.935681000197896],[-71.4073450000035,42.9357280001619],[-71.40696300041208,42.935765999840726],[-71.40660900040976,42.935800999852994],[-71.40645899972363,42.935818999682404],[-71.40605799986564,42.93586600019876],[-71.4058310000849,42.935891999923314],[-71.40572399995479,42.93590900006608],[-71.4054799995573,42.93594599997373],[-71.40541900035625,42.93595199990333],[-71.4049010003224,42.93600799987578],[-71.40426699993759,42.93607600029059],[-71.40376599962217,42.93613000017966],[-71.40357900002442,42.93614900022684],[-71.40312100026503,42.936197999802125],[-71.40267900039915,42.93624500002921],[-71.40226599994726,42.936288000289515],[-71.4018109996626,42.93633600010108],[-71.40166199969968,42.93635399977416],[-71.40138999971312,42.936385999837604],[-71.40111100005387,42.9364199998457],[-71.4008599999837,42.936449999914615],[-71.40056999955546,42.9364850001958],[-71.40030199976687,42.93651399992511],[-71.39964099961787,42.936588000306514],[-71.39947300028669,42.936607000212334],[-71.39900700013138,42.936661000293434],[-71.39757699987835,42.936838000190725],[-71.39661600015371,42.936954999977274],[-71.39551599961358,42.93709000031478],[-71.3953480002824,42.93708300019736],[-71.39526999956628,42.937092999895064],[-71.39474900005769,42.93716000012967],[-71.39409299993157,42.937240000196475],[-71.3936650003094,42.93728700028592],[-71.39320500000187,42.937333999681876],[-71.39097300003286,42.93758100026923],[-71.38998100034607,42.93769099991112],[-71.38898499956301,42.9378130001689],[-71.38688400001357,42.93803099983363],[-71.38512400004768,42.93823300016745],[-71.38449700023388,42.9383029999983],[-71.38433499985216,42.938318999854495],[-71.38406000039089,42.938349000313565],[-71.38388999961325,42.93836799967601],[-71.38276599968198,42.938491999801734],[-71.38225699986896,42.938546000202706],[-71.38158200037459,42.93861699995153],[-71.38129199994636,42.938647999881006],[-71.38077899993536,42.938707999806226],[-71.38048100000952,42.938745000004985],[-71.3803660003818,42.9387580002473],[-71.37997700021938,42.93880400022264],[-71.37954600022415,42.93885099977597],[-71.37905999997736,42.93890100010093],[-71.37866400014222,42.938941999942486],[-71.37810000007761,42.93899499968121],[-71.3771209999113,42.93911699998596],[-71.37596600001788,42.93925599992531],[-71.37544899980895,42.93931599991573],[-71.37543499956524,42.939317999782865],[-71.37546100040284,42.939435000118344],[-71.37547800012128,42.93951400025846],[-71.37549999986257,42.93961300019104],[-71.37552400015203,42.939721000294675],[-71.37554800044148,42.939829000208874],[-71.3755710000077,42.93993599968128],[-71.37558899955103,42.94001400024278],[-71.3756069999927,42.94009699998139],[-71.37562799990909,42.94019399979559],[-71.37565499967327,42.94031699994362],[-71.37567499976477,42.940406000084664],[-71.37568399998561,42.94044599999528],[-71.37569499985624,42.9404969999259],[-71.37601100022374,42.94192699968402],[-71.3762189997379,42.9428800000731],[-71.3763540003554,42.943504999774234],[-71.37650300031832,42.94419300009964],[-71.37652300040982,42.944267999982884],[-71.37660200005253,42.94456799991731],[-71.37670699963452,42.94498200016152],[-71.37684399990188,42.94561199970832],[-71.37701799997915,42.94640700022116],[-71.3770930003222,42.94675099992391],[-71.37718600020864,42.947144999882426],[-71.37724999978273,42.94761099997601],[-71.3772969996384,42.94771799973231],[-71.37731500008006,42.94780500010373],[-71.37739999957056,42.94820700017801],[-71.3774520003474,42.94845000008816],[-71.37766700043258,42.949465000261696],[-71.37775500029612,42.94988400024434],[-71.37778299988521,42.950016999672286],[-71.37779100028112,42.95005300021945],[-71.37784900000744,42.950327000041206],[-71.37790699973377,42.95060200003723],[-71.37795299976452,42.95075400002901],[-71.37796399963518,42.95080600004386],[-71.37799499959732,42.950941000256606],[-71.37813000021484,42.95153899990287],[-71.37819499961385,42.95182699985637],[-71.37828099982758,42.95220900022213],[-71.37834799977473,42.95251000029628],[-71.37844499985911,42.95293800030242],[-71.37849900028579,42.95317899987011],[-71.37854799979128,42.9533940002539],[-71.3785989998449,42.953618000157526],[-71.37868800043167,42.95399199973523],[-71.37870799962484,42.954075999718114],[-71.37876200005152,42.95429999976934],[-71.37881399993006,42.95451700021257],[-71.37884900009016,42.95466599970116],[-71.37886599980858,42.95473599991439],[-71.37888000005229,42.95478499981902],[-71.37890500016664,42.954866000005204],[-71.37892899955777,42.954943000050875],[-71.37893100010591,42.95495400014347],[-71.3789860003575,42.955194999706066],[-71.37904499990873,42.95545400030351],[-71.3791699995822,42.95600599991185],[-71.37939700026124,42.95700600011263],[-71.37946300038348,42.95729500009306],[-71.37954100020129,42.95764000005089],[-71.37956700014054,42.95775299990048],[-71.37965199963104,42.95812899990157],[-71.3797549995632,42.95858099972229],[-71.37988500015786,42.95915500020699],[-71.38000300015864,42.95967499971126],[-71.38009500022015,42.96008100018836],[-71.38020999984786,42.960588000181666],[-71.38028699984076,42.96092400022495],[-71.38033299987153,42.96109200021591],[-71.38033299987153,42.961229999935746],[-71.38037700025247,42.961429000039494],[-71.38046799959073,42.961812999761655],[-71.38051899964437,42.96202800022006],[-71.38054499958363,42.96213699967624],[-71.38059200033761,42.96233600013333],[-71.38061800027688,42.962419000014805],[-71.38066900033051,42.96258000002011],[-71.38071799983598,42.96285200018654],[-71.38074499960017,42.962999000116696],[-71.38077999976028,42.96314300006996],[-71.38085699975316,42.963460999676585],[-71.38093799994401,42.96379400021296],[-71.38100999991404,42.96409100005893],[-71.38106799964036,42.96433199999124],[-71.3810989996025,42.964458999968514],[-71.3811270000899,42.96457300029419],[-71.38121300030363,42.96493000032804],[-71.38129000029653,42.96524600021852],[-71.38140199955119,42.96571000031969],[-71.38147699989428,42.966019999862276],[-71.38150799985642,42.96605099979637],[-71.38160999996367,42.96647900027921],[-71.38169799982721,42.96684500007784],[-71.38176300012454,42.967115999982155],[-71.38181699965291,42.96732200007605],[-71.38188899962293,42.967602000048565],[-71.38194700024756,42.96782499970409],[-71.38196099959295,42.967873999702846],[-71.38202300041553,42.96811100009817],[-71.38203099991314,42.96814300008715],[-71.38208299979169,42.96834099973082],[-71.3821549997617,42.96861800030735],[-71.38217200037845,42.96869800024644],[-71.38223099992969,42.968992999862124],[-71.38227100011265,42.969194000044325],[-71.38230700009767,42.96934000016379],[-71.38235899997619,42.96954600004005],[-71.38239800033426,42.96970300006638],[-71.38246199990836,42.969953000214815],[-71.38249899971828,42.97009899984728],[-71.38253399987839,42.97023999967662],[-71.3825770004344,42.970402000004476],[-71.38263699981056,42.97064900002399],[-71.38271299997852,42.97087300021387],[-71.38272399984919,42.9709990000854],[-71.38291999966778,42.97177900002424],[-71.38315599966933,42.97278800030094],[-71.38320199970006,42.972872000257624],[-71.38327500039333,42.973284999690456],[-71.38328100024111,42.973317999983834],[-71.38329600030973,42.97337699992647],[-71.38338499999819,42.973727000237965],[-71.38353200031128,42.97430500015479],[-71.38382600003915,42.975469000151],[-71.38404500032227,42.97636900001886],[-71.38417800039164,42.97690700022914],[-71.3842389995927,42.977014000310824],[-71.38424000031594,42.97714399999371],[-71.3843929995785,42.977765000202304],[-71.38478000009108,42.97931999991938],[-71.38483399961946,42.979547000213245],[-71.38489499971881,42.979676999798635],[-71.38497199971172,42.9801269998302],[-71.3850689997961,42.980478000092106],[-71.38587700025818,42.9837190001951],[-71.38723200016813,42.989158000215696],[-71.38783499969247,42.99156899993847],[-71.38820600031156,42.99305100004051],[-71.38841999967349,42.99390599999174],[-71.38855100009306,42.99426099987722],[-71.38950900034297,42.99828400003163],[-71.38962300014578,42.99862600017385],[-71.38972000023017,42.99900499982911],[-71.38990400035318,42.99972599970723],[-71.38999200021672,43.000070000227886],[-71.3901090003926,43.00048400019151],[-71.3904969998318,43.00189100028344],[-71.39079899995559,43.00300899971903],[-71.39100800019295,43.00376800030282],[-71.3912440001945,43.00464399990354],[-71.39136899986799,43.00508499982593],[-71.39183300037348,43.007053999906724],[-71.39195899987187,43.00758399980394],[-71.39196899991761,43.007649999681654],[-71.39198499981113,43.007702000212184],[-71.39200699955244,43.007792999720834],[-71.39203699968967,43.00789399976844],[-71.3920600001542,43.00801999997223],[-71.39188899955167,43.00818199994825],[-71.39227699988918,43.00901099987349],[-71.39229600015575,43.009102999855344],[-71.39238800021725,43.0093089998576],[-71.39298499989384,43.00940700004344],[-71.39453200032271,43.00971300024747],[-71.3952920002059,43.00985900005663],[-71.39692400012528,43.01016700017144],[-71.39787900000216,43.01035699971938],[-71.39819000034677,43.01042200013854],[-71.39867499987037,43.01052200004273],[-71.39958700008953,43.01069299979063],[-71.40194899975486,43.01112600031143],[-71.4028740003928,43.011303000156616],[-71.4036619998651,43.0114529997708],[-71.40555400007547,43.01181399984978],[-71.40664200002172,43.01202400021865],[-71.4085479995775,43.01238800007669],[-71.40926499980297,43.012526000292574],[-71.41054699991798,43.01276599984378],[-71.4109980000047,43.01285100007573],[-71.41177999962919,43.01299599992938],[-71.41374700018264,43.01336200002604],[-71.41524100000977,43.013643999948],[-71.4172289995813,43.014005999990204],[-71.41850700039664,43.01424400026692],[-71.41956600003058,43.01444300024844],[-71.42069300033491,43.01465700025816],[-71.42106599970549,43.01472299976083],[-71.42173699990023,43.014841000247344],[-71.42280999977787,43.01504000026477],[-71.42408500022019,43.01527999984378],[-71.42553300001654,43.01555600010489],[-71.42701699979793,43.01582700009197],[-71.42785700004707,43.0159900001674],[-71.42896400025988,43.01620400004073],[-71.42990999991592,43.01637600005514],[-71.43030800029918,43.016464000196954],[-71.43282200030048,43.01691899979191],[-71.43313799976967,43.016979999894154],[-71.43366300037454,43.01708299990771],[-71.43473200005421,43.01728100023285],[-71.43578400001546,43.01748000022489],[-71.43597499981118,43.017514999734324],[-71.43660400017312,43.01763300011024],[-71.43685199987024,43.01767799992667],[-71.43731899985046,43.01776299992788],[-71.43814999987876,43.0179139998253],[-71.43944700006239,43.018159000151975],[-71.4398410002477,43.01823599977126],[-71.44062200004728,43.01838699981906],[-71.44068800016952,43.01840000031038],[-71.44150800032716,43.01855000032383],[-71.44164700024433,43.01857599992108],[-71.44184499971274,43.01861199974947],[-71.44197399958416,43.01863600006116],[-71.44215400040754,43.01866900031028],[-71.44242700021901,43.01872100004982],[-71.44249499999108,43.01873399981363],[-71.44296899964401,43.018823999770156],[-71.4434759998072,43.018918999690655],[-71.44394299978745,43.01900300032063],[-71.44436299991202,43.01907800029339],[-71.44467699973137,43.019136000043126],[-71.44480399995298,43.019158999872104],[-71.44520499981097,43.01923699982765],[-71.44580999988347,43.01935200001074],[-71.44617399993152,43.019417000104596],[-71.4466219996452,43.01949400011665],[-71.44691799992121,43.01954500019945],[-71.44737200038095,43.01962599981885],[-71.44749899970425,43.019649999734234],[-71.44777499988876,43.0197030002256],[-71.44803500017976,43.019749999718485],[-71.44837300028857,43.01981500004779],[-71.44857599977985,43.019850999806536],[-71.44877499997149,43.0198840000594],[-71.44909899983658,43.01993600008349],[-71.44996199965193,43.020068999755374],[-71.45004000036805,43.02048899980053],[-71.45009499972133,43.020786000321905],[-71.4502060000494,43.021383999991784],[-71.45025899975285,43.02159899969391],[-71.4502269999658,43.02238999976652],[-71.45031400000444,43.02289000004514],[-71.45035300036251,43.0230539999747],[-71.45043500037826,43.02343400017821],[-71.45068300007537,43.02453800019435],[-71.45072800028122,43.02480300014101],[-71.45085399977961,43.02541799979745],[-71.45103999955245,43.02631600019976],[-71.4513609999428,43.027817000071096],[-71.45145600037736,43.02826100013612],[-71.45202899976451,43.030890000315885],[-71.45273500011933,43.03433499976099],[-71.452894000128,43.03506500007802],[-71.45325300015318,43.03672900021817],[-71.45349699965234,43.037884000064686],[-71.45356199994967,43.038249000225115],[-71.45378000040787,43.03926300028885],[-71.45445300025243,43.042420000030404],[-71.45448000001663,43.04255099977822],[-71.45459700019248,43.04310999992888],[-71.45457899975081,43.043343000229456],[-71.45478299996532,43.04399999985031],[-71.45508599991403,43.0437539997041],[-71.45571399955273,43.04324399982945],[-71.45647699980898,43.042787999804034],[-71.45717800014094,43.04238999977314],[-71.45791700010773,43.04203299985326],[-71.45852300000514,43.041760000173525],[-71.45925199992618,43.04143900010002],[-71.45973499979996,43.04124000029924],[-71.46014800025183,43.041079000136506],[-71.46052900001833,43.040929000020704],[-71.4610260001358,43.040725000246404],[-71.4613929996586,43.04055599995501],[-71.46182200000399,43.040375999944715],[-71.46245800003864,43.04011599994593],[-71.46360200006139,43.03958200003858],[-71.46480899983332,43.03903799988371],[-71.46548699970074,43.03876500000885],[-71.46697600040332,43.03823000019475],[-71.46745000005625,43.03805499977697],[-71.46794899982353,43.03786999978686],[-71.4686719998968,43.03761100030809],[-71.47004299970027,43.03711599970807],[-71.47051899990133,43.03693900007625],[-71.47152900002979,43.036548000148365],[-71.47226999964639,43.036255999715706],[-71.47275800044135,43.03604200013531],[-71.4735509999365,43.035569000246824],[-71.47379199996092,43.03540300023929],[-71.47398100010682,43.035273999705836],[-71.47404899987889,43.0353450000992],[-71.47472400027156,43.036081000234105],[-71.47528800033618,43.03669199985916],[-71.47532299959796,43.036725000251415],[-71.47537399965158,43.036784999725306],[-71.47541999968234,43.0368279999688],[-71.47542899990319,43.03684399980736],[-71.47545900004039,43.03689899987732],[-71.4755159999418,43.03704200009103],[-71.47566999992759,43.03742500031218],[-71.47567499995047,43.03743600009466],[-71.47569599986687,43.0374900003113],[-71.47574899957031,43.03755300028514],[-71.47575600014132,43.03756100011045],[-71.47579100030141,43.03760299983275],[-71.4759369998913,43.03769800023971],[-71.47603300015075,43.03772700018951],[-71.47621200025091,43.037782000124565],[-71.47637299990939,43.03786100002864],[-71.47639700019882,43.037862999975026],[-71.47640600041966,43.037876000281486],[-71.47726500003705,43.03819799992306],[-71.47740099958118,43.03821799993069],[-71.47795200012531,43.03829799989605],[-71.4791270001102,43.03863899985894],[-71.4795480000597,43.0388189997125],[-71.47973100035779,43.03921599997766],[-71.47988000032069,43.03930300025994],[-71.48002500008565,43.039405000297876],[-71.481400999912,43.04046499975685],[-71.48203600012172,43.040851999976375],[-71.48239000012404,43.041079000136506],[-71.48293900012004,43.04145200030538],[-71.48314800035743,43.04155799970546],[-71.48319600003799,43.04158200023793],[-71.48328499972645,43.041634000265134],[-71.48341600014602,43.04171099998459],[-71.4835759999796,43.04171000007412],[-71.48379000023985,43.04215300017949],[-71.48384299994328,43.04225699987845],[-71.4842170000371,43.04299199994069],[-71.4843240001672,43.04348800028817],[-71.48435400030445,43.0439460001109],[-71.48441500040383,43.04413600017494],[-71.48510999998969,43.04525999975274],[-71.48552199971833,43.04594599985556],[-71.48556799974908,43.04600200014156],[-71.48617000034683,43.047012999958916],[-71.48717700010224,43.048591999852235],[-71.48818399985764,43.05017899994816],[-71.48878200025743,43.051135000115735],[-71.48897700025111,43.051453000089154],[-71.48910899959728,43.05177900032377],[-71.49020999996233,43.051663999844806],[-71.49112200018148,43.051563999995075],[-71.49232599958037,43.05145199968102],[-71.49436900030182,43.05126499987888],[-71.50039200036426,43.0506979997807],[-71.50217499989637,43.05054200029648],[-71.505006999915,43.0502889997634],[-71.51276700037714,43.0496150003151],[-71.51485799988082,43.05820800002007],[-71.5158499995676,43.06232999993085],[-71.51618699985151,43.06364599993757],[-71.51636500012673,43.06435499977644],[-71.5165249999603,43.06501399981156],[-71.51712199963688,43.06746899992858],[-71.51746700031669,43.068909000193756],[-71.52137700023582,43.068445000273215],[-71.5232190002175,43.06822799970177],[-71.52353800005972,43.06818800021721],[-71.52506100019916,43.06799600022804],[-71.52769200037632,43.06766299988711],[-71.52990000005589,43.067378999773155],[-71.53345099994982,43.06693399976078],[-71.5356889997666,43.06664799988648],[-71.54006999986393,43.06609300032749],[-71.5401589995524,43.06608199977696],[-71.54209000012085,43.06584000029192],[-71.54383199964506,43.06561199970776],[-71.5440249999889,43.06558699986842],[-71.54505000018598,43.06545600009748],[-71.54685899965735,43.065225999687144],[-71.5474529998592,43.06515000013799],[-71.54778900031818,43.06510800024311],[-71.54809200026689,43.06506900022122],[-71.54858400036146,43.06500500009782],[-71.54971499996543,43.064872000017374],[-71.55132599996841,43.064680000142296],[-71.55220999970017,43.064583999979284],[-71.552619999779,43.064535000302996],[-71.55352500032545,43.064420000118716],[-71.55377100037275,43.06439000012074],[-71.55519300022983,43.06422299979816],[-71.55636300019187,43.06408299988853],[-71.55669499955457,43.06404600027617],[-71.55766700004818,43.06393799994974],[-71.55791800011835,43.06390899992081],[-71.55900799971444,43.0637800002597],[-71.5591960000354,43.06375400012215],[-71.55928300007405,43.06374400001579],[-71.55991300026089,43.06366799994198],[-71.56057799970954,43.063588000246064],[-71.56090999997055,43.063550000124245],[-71.5614129999358,43.063494000109024],[-71.56218500041287,43.06340700000737],[-71.56266499991358,43.063350000303814],[-71.56347900022344,43.06325200025209],[-71.56387400023365,43.06320399972755],[-71.56421300016737,43.06316300002918],[-71.56473700004899,43.06310100032107],[-71.56520099965618,43.063047999896376],[-71.56602599983671,43.062954000243955],[-71.56681099983426,43.06286200023518],[-71.56735399998247,43.06279899999968],[-71.56807299985778,43.06271899982611],[-71.56855800027968,43.06266200013921],[-71.56896900018342,43.06261000021742],[-71.56977199972432,43.062506999812975],[-71.57271900026899,43.06215600023828],[-71.57556399980808,43.06180999985012],[-71.57840599987246,43.06146400013455],[-71.57874099960821,43.06142499976343],[-71.57890499963975,43.061405000102],[-71.57895999989132,43.06139799969389],[-71.57953800019965,43.06131899990839],[-71.57962600006319,43.06130799981382],[-71.58021500024215,43.061243999702064],[-71.58059000016088,43.06120400025464],[-71.5811469996545,43.06113800019043],[-71.58164600032009,43.06108000009521],[-71.58251800035627,43.060974999896494],[-71.58396699997756,43.06080699986078],[-71.58541599959882,43.060639000021126],[-71.58688199983686,43.06046399986268],[-71.58833200018135,43.06029599973953],[-71.58978099980264,43.0601200003044],[-71.59124600021576,43.05995199989498],[-71.59269499983702,43.05978499995375],[-71.59416000025014,43.059616999939145],[-71.59560999969632,43.05943399989167],[-71.59705900021592,43.059257999951214],[-71.5985089996621,43.059089999805316],[-71.59997400007522,43.05891499982021],[-71.60122000020522,43.05877099976168],[-71.60142400041973,43.05874700004724],[-71.60288899993452,43.05857899981397],[-71.60433799955581,43.05841099977672],[-71.60578799990029,43.0582440002329],[-71.60731199986463,43.05806600021445],[-71.60854999959872,43.057914999981726],[-71.60996899998108,43.05774799974341],[-71.61138800036343,43.05759500008089],[-71.61279199977886,43.05741199990597],[-71.61419500026773,43.057259000061464],[-71.61561399975176,43.0570840001016],[-71.61703399995903,43.05692399983252],[-71.61843800027277,43.05675599985552],[-71.61985699975683,43.05658000010483],[-71.62126100007058,43.05641199984171],[-71.62267999955462,43.0562519997884],[-71.62409899993698,43.056083999939446],[-71.62452599973423,43.05603900005413],[-71.62454099980286,43.05603700004386],[-71.62559399958901,43.055916999965554],[-71.62663200020488,43.05579500029062],[-71.6276690000975,43.05567200003372],[-71.62837100025438,43.05559599979967],[-71.62950000020851,43.055482000256596],[-71.63061499991893,43.05535200024269],[-71.63082800035427,43.055337000324336],[-71.63089000027854,43.05532999987982],[-71.63174399987307,43.05523000010011],[-71.63271499964345,43.05512400003744],[-71.6328579997586,43.055107999714814],[-71.63403299974348,43.05498599974325],[-71.63520799972837,43.05485599999059],[-71.63658100007999,43.05469599981578],[-71.63767599969893,43.05457999985465],[-71.6412910000653,43.05416799969036],[-71.6428829998017,43.06021199983345],[-71.6432490003979,43.06166100013232],[-71.64421000012256,43.06536200019955],[-71.64578199976746,43.07138099994315],[-71.65139800012415,43.09291899993168],[-71.65234399978017,43.09647400027271],[-71.65249600011613,43.097068999868625],[-71.6525649997131,43.097320000224265],[-71.65258800017766,43.09740500009579],[-71.65298499983768,43.09881600014283],[-71.65336599960419,43.10019700029185],[-71.65354899990228,43.10092199984852],[-71.65409799989828,43.10294400020635],[-71.65415899999766,43.103088999677006],[-71.65418499993693,43.103264999681286],[-71.6543380000978,43.1038209999036],[-71.65563699993125,43.10854700023695],[-71.65641000023324,43.11136400010978],[-71.65644500039333,43.11149199985143],[-71.65666499960304,43.11228799992117],[-71.65760699995943,43.11571199977823],[-71.66007099973203,43.124329000267494],[-71.66027599977144,43.12508100008253],[-71.66031900032746,43.12526000002524],[-71.66034199989369,43.125346000298556],[-71.66038200007665,43.12548999995188],[-71.6605250001918,43.12601300004397],[-71.66068699967518,43.12660699986885],[-71.66081100042204,43.127061000241135],[-71.66089500008763,43.12736999991037],[-71.66096600023275,43.12762599969531],[-71.66103700037787,43.12788799992801],[-71.66107900021063,43.12804300007037],[-71.66115500037863,43.128317999969624],[-71.66122700034866,43.12858399973525],[-71.6612440000671,43.128645000248035],[-71.66128900027293,43.12880999976103],[-71.66144999993143,43.129397000109805],[-71.66176499957568,43.13055100026012],[-71.66208199976808,43.13171400002051],[-71.66250199989265,43.133247999983745],[-71.66269699988632,43.13396199991432],[-71.66314700014813,43.1356090003253],[-71.66340200041624,43.13654400015563],[-71.6634209997845,43.13661499995274],[-71.66370299981682,43.137647999982946],[-71.66427500027734,43.139735999692306],[-71.66500099982537,43.142392000315255],[-71.66523099997914,43.14323200007096],[-71.6653699998963,43.14374499970412],[-71.66559599985212,43.144574000314094],[-71.66561900031665,43.144656999711025],[-71.6660240003726,43.146139999797825],[-71.66643199990328,43.14763499977363],[-71.66698599992215,43.149662000066414],[-71.66751900002463,43.151614000319995],[-71.66777099991971,43.152534000128384],[-71.6693059997547,43.15217800026947],[-71.67820900041468,43.15045499998756],[-71.67850200031764,43.15040899984267],[-71.67930599968344,43.15024499972816],[-71.67993599987031,43.1501289997811],[-71.68389500019323,43.14935399976849],[-71.69620099971081,43.14693499985428],[-71.6976429996594,43.14664499992683],[-71.70052300025692,43.146075000308805],[-71.70065399977817,43.14604899970734],[-71.70089300015276,43.14600000030832],[-71.70138500024737,43.14589999972762],[-71.70215000015342,43.14574400009431],[-71.70348999999474,43.14547100026959],[-71.7049649995553,43.14516999983962],[-71.70752899978531,43.144670000309155],[-71.70951100040739,43.144283000124915],[-71.7144749999376,43.14331499997898],[-71.72483300006662,43.14129399982423],[-71.73250800013994,43.13979599994861],[-71.73256000001847,43.13978599980073],[-71.73289899995218,43.139719000209894],[-71.73325700015248,43.139648999707745],[-71.73361000032988,43.13958000006143],[-71.73487300017833,43.139332999777274],[-71.73539799988488,43.1392299998868],[-71.73548699957334,43.13921199997723],[-71.735757999735,43.139158999848526],[-71.73674600012212,43.13896599980791],[-71.73724200041467,43.13886899974088],[-71.73880800021182,43.13856199976469],[-71.74042800043564,43.138244999813686],[-71.7424109999843,43.13785600029356],[-71.74335800036354,43.137670999944966],[-71.7441709999502,43.13751200000244],[-71.74537699989722,43.13727600010882],[-71.74604999974177,43.13714399992667],[-71.7475589996375,43.136848999780725],[-71.74834000033542,43.136694999994695],[-71.74937200020517,43.13649299968733],[-71.75051000038015,43.136276999931404],[-71.75226600014808,43.13594100003285],[-71.75406799994677,43.13559799980265],[-71.7555140000933,43.13532299985871],[-71.75615699980064,43.1351999999412],[-71.7575279996041,43.134938999920344],[-71.75801700022396,43.13484600014109],[-71.75942099963939,43.13457899971389],[-71.76044099981358,43.13438400021947],[-71.7613560004058,43.13420999997421],[-71.76185400034817,43.134115000313294],[-71.7623709996588,43.134017000046114],[-71.763138000113,43.13387199977075],[-71.77759199993402,43.13111999996515],[-71.77958399970349,43.13074000024807],[-71.78463000014777,43.12977899987412],[-71.78498599979993,43.12971199980823],[-71.78529399977151,43.129652999934095],[-71.79584100004642,43.12764399973718],[-71.79617599978218,43.12758199971629],[-71.80040700009167,43.12658799968448],[-71.80098000037711,43.12645399970055],[-71.80149000001505,43.12633399982784],[-71.80213000024764,43.12618299997593],[-71.80249799959537,43.126095999722686],[-71.80323400008743,43.12592300000441],[-71.80398599957469,43.12574700024372],[-71.80411199997138,43.1257170001148],[-71.80412700004001,43.12570899999054],[-71.80414200010863,43.12570599977973],[-71.80423199962199,43.12568399975931],[-71.80436899988933,43.12565199989428],[-71.80446599997373,43.125628000148396],[-71.80463699967795,43.125588000114],[-71.80481300030335,43.12554499983474],[-71.80507600006909,43.125483000308925],[-71.80516200028282,43.12546200006407],[-71.80544599996495,43.1253970002282],[-71.80582099988366,43.12531100002657],[-71.80624000018332,43.125216000311305],[-71.80669200009494,43.12511300024625],[-71.80684600008072,43.125077999840954],[-71.80691999970058,43.12506100021759],[-71.80719599988511,43.12499599995565],[-71.80748399976518,43.12492800003137],[-71.80798099988264,43.1248100001762],[-71.80922100016487,43.124516999940504],[-71.80931200040146,43.12449600001965],[-71.80963799991639,43.12441900002958],[-71.810025000429,43.12432699986335],[-71.81027700032408,43.12427100032154],[-71.81050099973173,43.12422199986081],[-71.81059399961816,43.124203000246986],[-71.81154099999743,43.12401299985028],[-71.8121300001764,43.12389500019712],[-71.81317600028984,43.12368800015022],[-71.81561199957503,43.12320099993184],[-71.81728399967739,43.12286999980817],[-71.81781400030512,43.12276499992764],[-71.82270300039058,43.12179099993407],[-71.82394699997243,43.12154200008517],[-71.82744900036089,43.12084899994216],[-71.83306099962128,43.11972400020575],[-71.83466999997444,43.11940599969869],[-71.83628799965012,43.119082999706336],[-71.83673100023921,43.11899499988589],[-71.83700999989847,43.11894000001579],[-71.84682800025234,43.11697899985878],[-71.84932600036012,43.11648499999074],[-71.85222799980063,43.11590299973631],[-71.85610000008494,43.11513500016365],[-71.85923800042531,43.12022499974236],[-71.8593360003346,43.12038799979601],[-71.85947199987874,43.1206059998045],[-71.86020099979977,43.12178800018684],[-71.86135700041642,43.123662999748724],[-71.86161500015928,43.12408100013597],[-71.86293699955894,43.126228999991994],[-71.86315500001714,43.12658299984205],[-71.86661300002467,43.13221499970446],[-71.86675199994184,43.13244199982233],[-71.86720300002855,43.13317799994037],[-71.86731500018153,43.13336100000649],[-71.86864300032728,43.135521999712935],[-71.86877899987142,43.135744000261944],[-71.87083599993824,43.1390940001474],[-71.87090999955808,43.13921500018102],[-71.87121900025289,43.139719000209894],[-71.87134499975127,43.13992300024219],[-71.87181000008168,43.1406829998722],[-71.87382100011773,43.14395699977241],[-71.87418900036377,43.14455400026885],[-71.87421799977777,43.14460199997323],[-71.87439600005301,43.1448929999548],[-71.87449899998516,43.14505999992678],[-71.87470200037477,43.1453869998262],[-71.8749299999804,43.1457520002196],[-71.87497699983605,43.14582800004718],[-71.8751130002785,43.1460459998389],[-71.87574400029027,43.147057000257846],[-71.87607900002601,43.14759300007003],[-71.87641700013482,43.14813499995772],[-71.87658700001413,43.14840799968219],[-71.87696199993286,43.14900899981544],[-71.87699899974278,43.14904999973136],[-71.87908699977174,43.152416999867825],[-71.88219499997489,43.157374999674616],[-71.88220800039367,43.15739600010089],[-71.88255599964991,43.15797600009697],[-71.88344699995265,43.15940000008237],[-71.8852720002159,43.16232199990229],[-71.88887400016345,43.16809099986824],[-71.89092100018453,43.17137099974959],[-71.89293200022061,43.17459100026343],[-71.89439500008558,43.17693399973517],[-71.89453499982767,43.17715300025025],[-71.89473900004215,43.177484000010644],[-71.89683399974382,43.180838000139765],[-71.89734299955684,43.18166099982236],[-71.89744800003714,43.181820000204716],[-71.89796699989591,43.182651000285524],[-71.89978799996118,43.18556600012417],[-71.901436999599,43.18820700000013],[-71.90338999990874,43.191337000141104],[-71.90404799968468,43.19236200010609],[-71.90439599983924,43.192932000177905],[-71.90517199961594,43.19417900003576],[-71.90532999979969,43.19443200022838],[-71.91018500044828,43.20223199995315],[-71.91277300006942,43.206357999864146],[-71.91321499993529,43.20709900011946],[-71.91687700015731,43.206369000090156],[-71.91732999989384,43.20627999969271],[-71.92393399973933,43.20498799983941],[-71.9273809998762,43.204302999748],[-71.93390400042917,43.20301899976027],[-71.93435799999061,43.20292999971381],[-71.93858699975196,43.202104000246905],[-71.93938799964306,43.20194000008763],[-71.94395000038867,43.20104699986152],[-71.94861000014525,43.20012599992069],[-71.95168300018831,43.1995219998547],[-71.95416799987728,43.19903200007681],[-71.95448900026766,43.19896999977369],[-71.95456200006258,43.19895600028799],[-71.95493199995845,43.1988830002983],[-71.96032999985691,43.19781799991856],[-71.96111300020465,43.19766399987245],[-71.96151300023772,43.197584999731966],[-71.9617719998055,43.19753399977761],[-71.96179100007208,43.19752999983077],[-71.96184100030078,43.19751999996246],[-71.96187399991274,43.197514000040705],[-71.96193500001212,43.1975020001954],[-71.96196400032443,43.19749600027188],[-71.96203799994429,43.19748099980558],[-71.96215000009728,43.19745900007551],[-71.9626580000854,43.1973589998927],[-71.96271800035984,43.19734700001691],[-71.96274500012402,43.197342000067934],[-71.96285499972888,43.19732000028775],[-71.96288999988897,43.19731299970117],[-71.96295199981326,43.197300999816335],[-71.96300000039216,43.19729199990115],[-71.96307700038504,43.19727700003958],[-71.9631719999213,43.197258000209644],[-71.96324899991419,43.19724299968483],[-71.96329300029511,43.19723399976113],[-71.9633779997856,43.1972169999016],[-71.96350199963416,43.1971930000918],[-71.9635250000987,43.19718800013026],[-71.96365200032031,43.19716300031631],[-71.96385399998668,43.197122999937854],[-71.96400100029976,43.197094000121844],[-71.96416799980604,43.197062000308875],[-71.96420600033917,43.197053999698106],[-71.96432799963961,43.19702999982425],[-71.96436500034784,43.19702299985923],[-71.96446900010491,43.19700199995945],[-71.96455399959541,43.19698600003094],[-71.96463800015931,43.19696900010231],[-71.96476700003073,43.19694300020228],[-71.9647920001451,43.19693900021669],[-71.9649269998643,43.19691200030701],[-71.96511000016241,43.19687599975399],[-71.96514500032251,43.19686899977136],[-71.96540800008825,43.196816999875],[-71.96559200021126,43.196780999920826],[-71.96573299977827,43.196752999941765],[-71.9659889998713,43.19670299994723],[-71.96631399956131,43.19663899989438],[-71.96640800017096,43.1966199998658],[-71.9667789998917,43.19654699970088],[-71.96685599988461,43.196532000311066],[-71.96726799961326,43.19645100000598],[-71.96756200023945,43.19639299972144],[-71.9677570002331,43.196354000153995],[-71.96796800012032,43.196312999893436],[-71.96807199987738,43.19629199974926],[-71.96828500031272,43.196250000094174],[-71.96882500008789,43.19614399983821],[-71.96957300027552,43.195996000223126],[-71.97007899971547,43.1958970002758],[-71.97040299958059,43.195832000017944],[-71.97048299994653,43.195816999797486],[-71.97452699975996,43.194991999676084],[-71.97683999991982,43.194563999798575],[-71.97785900026909,43.1943630002203],[-71.97913499963802,43.19411099978441],[-71.98008299984218,43.19392400001241],[-71.9840610004317,43.19313900023748],[-71.9887360002569,43.19221700005422],[-71.99172800010909,43.19162700015225],[-71.99358400033448,43.19124100010937],[-71.99553400027116,43.19086299970363],[-71.99624899994852,43.19072399995504],[-71.99952700003098,43.190090999956794],[-72.00413200043428,43.189049999794946],[-72.00677199993399,43.18841200009393],[-72.00901399994872,43.18789400006558],[-72.00907400022318,43.18788200029355],[-72.01122599982625,43.187462000235776],[-72.01286600014154,43.187140999810495],[-72.02148199984802,43.185463999734004],[-72.0279209998371,43.1842099998507],[-72.02996899968306,43.18381200014589],[-72.03066099979421,43.18367600004694],[-72.03117899982806,43.18357600020473],[-72.03311000039649,43.18319899971323],[-72.03684500041345,43.18247099978759]]]},"properties":{"NAME":"Hillsborough County","GEOID":"33011"}}]}