{"type":"FeatureCollection","features":[{"type":"Feature","geometry":{"type":"Polygon","coordinates":[[[-86.08273000004623,39.63643999983728],[-86.07927600023666,39.63649699994223],[-86.0771949998804,39.636532000116894],[-86.07706900038202,39.63653600009623],[-86.07677099955787,39.636538000085785],[-86.07638800014155,39.63654400005411],[-86.07601999989551,39.636555000340664],[-86.0758569996889,39.63655799997827],[-86.07538200021106,39.63656700027389],[-86.07440999971743,39.636587000157945],[-86.07434000029556,39.636587000157945],[-86.07420800005107,39.63658900014603],[-86.07408099982946,39.63659300012207],[-86.07398799994304,39.63659700009784],[-86.07338000039582,39.63659999973362],[-86.0731679997854,39.6366129999986],[-86.07284899994316,39.636618999960476],[-86.0725829998044,39.63662299993473],[-86.0717099999433,39.63662899989572],[-86.07164999966884,39.636630000235044],[-86.0710899998022,39.63664800011461],[-86.06823699986715,39.63672200026199],[-86.06371000017995,39.6368300000171],[-86.06027100043902,39.63690399996976],[-86.06008300011804,39.63690900026287],[-86.05892700039973,39.63692900004808],[-86.05838699972624,39.636944999872064],[-86.05691999966331,39.63697300024693],[-86.05417499968333,39.63702999991265],[-86.05415999961471,39.63702999991265],[-86.05286499997922,39.637062000201986],[-86.05089099975308,39.637104000343136],[-86.0504420002145,39.637114000208285],[-86.04938699988021,39.63713300029389],[-86.04790599957359,39.63716099990091],[-86.04480099974347,39.637218000103495],[-86.04470500038231,39.6372189997425],[-86.04463800043516,39.63722400001283],[-86.03500400020432,39.637239000129874],[-86.0345039997138,39.637239999768575],[-86.03413299999303,39.63724100009911],[-86.03026999992957,39.63724500003739],[-86.03018200006602,39.63724399970697],[-86.01878799986929,39.63734200019988],[-86.01404600009693,39.637443999788985],[-86.01187100002933,39.637490999949165],[-86.00762200017648,39.63758100025511],[-86.00755900042729,39.63758199988891],[-86.00653500005514,39.63760299980477],[-86.00111200004231,39.637719000081646],[-85.99028000026037,39.63796799995937],[-85.99017999980292,39.63796799995937],[-85.99008100006874,39.63796999990758],[-85.99001300029667,39.63797100022751],[-85.98909500022974,39.63799300034491],[-85.97128999963302,39.638142999701024],[-85.96681900002233,39.63814700027895],[-85.96653399961697,39.638125999836454],[-85.96451099988535,39.63812799978004],[-85.95697399990428,39.63829500005417],[-85.9542930003967,39.63832000032147],[-85.95427400013014,39.63832099994459],[-85.95405400002211,39.638326999758256],[-85.95207999979596,39.63834499988794],[-85.95207899997104,39.63960800029005],[-85.95207999979596,39.639650999872586],[-85.95208099962088,39.639690999926735],[-85.95209999988745,39.64208000017262],[-85.95207999979596,39.64220500011178],[-85.95207499977309,39.64223599982381],[-85.95205999970447,39.64273099999207],[-85.9520610004277,39.64363299993443],[-85.95200399962798,39.644450000061326],[-85.95203899978807,39.64455399999277],[-85.95209700041272,39.64472899967074],[-85.95215500013903,39.65329800028934],[-85.95218699992608,39.656750000068875],[-85.95216799965951,39.656757999763165],[-85.95211199958301,39.65681399967207],[-85.95210699956014,39.656840000207104],[-85.95207599959801,39.657011999776365],[-85.95207700032122,39.65715499976793],[-85.952083000169,39.658540999730256],[-85.952083000169,39.65855500004218],[-85.95208599964376,39.65910899973421],[-85.95206200025261,39.66021300032622],[-85.95206599955225,39.660423000317984],[-85.95207999979596,39.66127599990561],[-85.95208499981884,39.6615440003103],[-85.95208399999392,39.6675160002119],[-85.95208399999392,39.66780600023905],[-85.95206999975021,39.66810599996392],[-85.95206399990244,39.668225999765724],[-85.95206200025261,39.668270999983385],[-85.95205899987957,39.66832999988631],[-85.95204499963586,39.66863799980392],[-85.95204899983382,39.66874600018626],[-85.95205100038196,39.668813000056915],[-85.95205100038196,39.66886399982201],[-85.9520530000318,39.66888699966308],[-85.9520539998567,39.668895999899455],[-85.95205600040482,39.668916999985434],[-85.95205800005465,39.668934999757674],[-85.95206200025261,39.668960000009854],[-85.95207099957513,39.669070000320396],[-85.95207800014614,39.66915399972298],[-85.95207899997104,39.66918599966607],[-85.952083000169,39.66934300025267],[-85.95208399999392,39.66939100003045],[-85.95209499986458,39.66962599980104],[-85.9520899998417,39.669674000073684],[-85.9520689999253,39.6698539997619],[-85.95206700027549,39.670237999742085],[-85.95205800005465,39.671875999714935],[-85.95205700022974,39.672095999863885],[-85.95203100029048,39.6743090002477],[-85.95203299994029,39.67516000032577],[-85.95200600017611,39.67631100033876],[-85.9519979997802,39.67783699994193],[-85.95199399958224,39.67851800003277],[-85.9519840004348,39.678798999870665],[-85.95197900041194,39.67893899984298],[-85.95198299971159,39.6789660000766],[-85.95200700000103,39.67914099974738],[-85.95200700000103,39.6791509997547],[-85.95198899955936,39.680800000095985],[-85.9519910001075,39.682168999954136],[-85.9519910001075,39.68235800013316],[-85.9519910001075,39.68248400019553],[-85.9519900002826,39.68255999971601],[-85.9519559999474,39.68525600009093],[-85.95191400011461,39.686610000326525],[-85.95188800017533,39.6874429997556],[-85.95186200023608,39.68862399974135],[-85.95185100036542,39.68890100021986],[-85.95184999964218,39.68899299981101],[-85.9518429999695,39.68950000012971],[-85.95182899972579,39.690654999940065],[-85.95178000022031,39.69237699978395],[-85.95175500010595,39.694526000201044],[-85.95175599993085,39.6954409997566],[-85.95175299955783,39.6958079996746],[-85.95174599988512,39.696646000216425],[-85.95174000003735,39.69701400010478],[-85.95173500001447,39.69704900005019],[-85.95173300036464,39.69705999969363],[-85.95172099977077,39.69713599975867],[-85.95169999985437,39.69744899984463],[-85.95166999971713,39.69859400010023],[-85.95163799993007,39.69981999979061],[-85.95162100021166,39.700350999913745],[-85.95158000020376,39.70213099974932],[-85.9515619997621,39.70273299980788],[-85.95154300039384,39.703765999892894],[-85.95154699969349,39.70445799981471],[-85.95155000006653,39.70634199969321],[-85.95155500008941,39.70829100024392],[-85.95155799956413,39.70942299990202],[-85.95156500013515,39.71002000007952],[-85.95156299958701,39.71111200023635],[-85.95157500018088,39.71240599970634],[-85.95157400035599,39.71321499998634],[-85.95158000020376,39.71387800028707],[-85.95158199985359,39.71567700004254],[-85.95158199985359,39.71586100027689],[-85.95158199985359,39.71626000032673],[-85.95158199985359,39.71656399980268],[-85.95158400040172,39.716718000162366],[-85.95158299967851,39.71759299998206],[-85.95159799974711,39.719615999660846],[-85.95160000029526,39.719913000081746],[-85.95164200012805,39.722147000157854],[-85.95164799997583,39.72272899986017],[-85.95165899984647,39.72357900029642],[-85.95165899984647,39.72393099984931],[-85.95169499983149,39.72636899969145],[-85.95169900002945,39.72641900005001],[-85.95170499987722,39.72670300029349],[-85.95172099977077,39.72745800026334],[-85.95173599983939,39.7281489997978],[-85.95174099986224,39.72876000015173],[-85.9518420001446,39.7341070001248],[-85.95183799994663,39.73426699976614],[-85.95183100027393,39.73615999969595],[-85.95182899972579,39.73619199966797],[-85.95182500042614,39.736271999878326],[-85.95182500042614,39.736387000018055],[-85.95182600025106,39.73678199972745],[-85.95182399970292,39.73710300030199],[-85.95181899968004,39.737454000316674],[-85.9518220000531,39.73795399993318],[-85.9518150003804,39.73904200031898],[-85.95181600020533,39.74003899984278],[-85.95181700003023,39.740347999887184],[-85.95181700003023,39.7405210002929],[-85.95181700003023,39.74092899977338],[-85.95184100031967,39.74175400018495],[-85.95188399997738,39.742592000054685],[-85.95195299957435,39.744509000320534],[-85.95195400029759,39.74452900004038],[-85.95201399967372,39.74764699967816],[-85.95205700022974,39.74968399999095],[-85.95207099957513,39.75023100008986],[-85.9521319996745,39.7525619997993],[-85.95213500004756,39.75287799988869],[-85.95214599991819,39.753174999975684],[-85.95218100007831,39.75466799994],[-85.95218799975099,39.75511700011593],[-85.95220399964452,39.75560000006136],[-85.95220199999471,39.75591700001905],[-85.95220899966739,39.75686000028039],[-85.95222899975889,39.75836999975823],[-85.95224499965241,39.76276299999004],[-85.95224700020054,39.76312499995674],[-85.95226399991897,39.76555800000457],[-85.95226599956881,39.76580199966402],[-85.95226800011693,39.76620400020559],[-85.9522789999876,39.76846299981786],[-85.95228099963741,39.76876699970067],[-85.95229099968314,39.76984900014817],[-85.9522949998811,39.770265000286685],[-85.95230999994973,39.77103399971335],[-85.95231199959956,39.771760000057164],[-85.95231199959956,39.771890000213894],[-85.95231199959956,39.771968999950225],[-85.9523140001477,39.77252399990324],[-85.95231499997261,39.77287000023938],[-85.95232699966816,39.77346699990287],[-85.95233300041426,39.773764000263206],[-85.95235099995763,39.77413900031027],[-85.9523569998054,39.77426999984336],[-85.95235400033066,39.7745720001835],[-85.9523640003764,39.77526399993037],[-85.95237600007196,39.77558400031424],[-85.95238799976754,39.77590800009327],[-85.95239299979042,39.77604000010297],[-85.9524060002092,39.77623599990138],[-85.9524129998819,39.77634500005149],[-85.95242799995052,39.77652499973779],[-85.95243299997337,39.77655399983114],[-85.95244600039216,39.776632000045424],[-85.95244899986692,39.77669000012977],[-85.95244499966896,39.77684100033436],[-85.9523910001406,39.77889699992326],[-85.95238500029281,39.778995999969666],[-85.95238500029281,39.779090999866284],[-85.95234199973679,39.780647999984566],[-85.95235099995763,39.781057000284584],[-85.95237000022419,39.782196999739185],[-85.95237699989688,39.78264299970172],[-85.9523779997218,39.782673999878],[-85.952379000445,39.78270399974585],[-85.95238199991977,39.78280499973393],[-85.95238299974466,39.78288599995222],[-85.95238299974466,39.78304300003553],[-85.95240000036141,39.78417000031538],[-85.95240299983615,39.784444000074686],[-85.95241399970682,39.78516600014047],[-85.95241600025494,39.78527399969586],[-85.95244200019421,39.7872299999648],[-85.95244600039216,39.787332999976435],[-85.95244899986692,39.787616999725785],[-85.95245700026283,39.788196000140616],[-85.95247700035432,39.78959599998126],[-85.95247700035432,39.789729999660274],[-85.95257500026361,39.79708300029864],[-85.95257600008851,39.79711400018025],[-85.95258199993629,39.797380000193165],[-85.9525829997612,39.79743800004377],[-85.95272900024938,39.80168000003342],[-85.95274900034087,39.802464999812464],[-85.95278299977775,39.80328600013054],[-85.95279199999857,39.803516000035444],[-85.95283800002932,39.804806000276464],[-85.95286899999148,39.80567599970919],[-85.95289099973277,39.80629799993018],[-85.95289499993073,39.80649000000236],[-85.95290199960343,39.806749000019465],[-85.95291099982427,39.80699900028021],[-85.95292900026593,39.80720199978726],[-85.95297000027382,39.80843099992976],[-85.95296799972567,39.80911200033568],[-85.95294400033454,39.81206700020618],[-85.95302499962708,39.816727999701065],[-85.95305099956634,39.81956500021404],[-85.9530539999394,39.820434999844316],[-85.9530549997643,39.82056199987312],[-85.95306599963497,39.82303800023707],[-85.95306999983293,39.82377400004835],[-85.9530759996807,39.824453999848885],[-85.95307800022884,39.824574999855855],[-85.95309099974932,39.825254000332315],[-85.9531230004347,39.826777000075126],[-85.95314299962786,39.827444000312155],[-85.95323999971224,39.83131499992905],[-85.95327900007028,39.83303200007873],[-85.95331699970514,39.83412899980479],[-85.95338200000245,39.83647899979263],[-85.95340799994173,39.83764799990871],[-85.95341799998747,39.83834300020594],[-85.9534489999496,39.83970900012326],[-85.95347400006396,39.840300999729074],[-85.95347800026192,39.8403829999665],[-85.9534830002848,39.84049900016873],[-85.95348400010973,39.840710999936924],[-85.95348900013258,39.8414649996654],[-85.95354199983603,39.84490399966612],[-85.95354400038416,39.84509600016755],[-85.953546000034,39.84527200032798],[-85.95357699999613,39.847559999979744],[-85.95358200001901,39.84859799995613],[-85.95362700022484,39.85238600014667],[-85.95364099957024,39.85306700009694],[-85.95363999974532,39.85326600023058],[-85.95368300030134,39.85611700023146],[-85.9538489999827,39.86084000002522],[-85.95385599965539,39.861151999937775],[-85.9539050000592,39.86238700009311],[-85.95392400032577,39.863083000081],[-85.95393299964829,39.86361100014157],[-85.95395600011283,39.86444600000511],[-85.9539629997855,39.86486500029095],[-85.9540049996183,39.86768299976082],[-85.95399999959542,39.869329999992786],[-85.95401300001421,39.86964600016451],[-85.9536380000955,39.86965199985696],[-85.9528079998921,39.86966600005656],[-85.95201700004678,39.86967500028187],[-85.95071900003823,39.86968599994283],[-85.94826799978613,39.869717000168635],[-85.94488000009879,39.869754999781364],[-85.94138199990832,39.869781000012274],[-85.94124399981604,39.869781999729284],[-85.93982199995895,39.869793000062515],[-85.93847399972171,39.86980700023333],[-85.93806700001593,39.86981200019515],[-85.93806700001593,39.8715949997495],[-85.93806799984084,39.87419300015285],[-85.93806899966576,39.87466100009892],[-85.93807600023675,39.875085000309845],[-85.93807399968861,39.87524600002198],[-85.9380729998637,39.87544699991147],[-85.93807500041184,39.87560200029175],[-85.93807700006167,39.875776999810824],[-85.93807100021388,39.87701700017661],[-85.93807399968861,39.8789179998887],[-85.93806799984084,39.87979399991663],[-85.93807100021388,39.880564999896606],[-85.93807700006167,39.88200400005738],[-85.93807399968861,39.88230000009417],[-85.93807399968861,39.882462000323095],[-85.93807799988657,39.8826580000289],[-85.9380729998637,39.88381900001772],[-85.93808299990945,39.88428900014963],[-85.93808399973436,39.884571000060916],[-85.93807799988657,39.88667099965886],[-85.9380789997115,39.886695000050565],[-85.93808100025963,39.88675499995914],[-85.9380870001074,39.88693100012329],[-85.93808799993232,39.88697900002696],[-85.9380870001074,39.88703800022156],[-85.93808600028251,39.88705200031867],[-85.93808299990945,39.88708200012332],[-85.93808299990945,39.88713600015217],[-85.93807700006167,39.887182999759695],[-85.93808000043472,39.887228999872306],[-85.93808200008455,39.88726999988677],[-85.93808299990945,39.88926300030899],[-85.93808200008455,39.889297000322635],[-85.9380870001074,39.889393999660626],[-85.93807600023675,39.890797999890346],[-85.93808000043472,39.89124400025622],[-85.93808000043472,39.891426999869566],[-85.93808000043472,39.891620999961994],[-85.93807100021388,39.89413000015596],[-85.93807500041184,39.89472499982294],[-85.93807600023675,39.89483999980002],[-85.93807600023675,39.89486500012911],[-85.93807500041184,39.895059000139696],[-85.93806799984084,39.895967000115334],[-85.93807000038896,39.89779699978492],[-85.93807600023675,39.898357999681394],[-85.9380789997115,39.89862999975317],[-85.93808000043472,39.89906599967339],[-85.93808299990945,39.900156000086945],[-85.93808299990945,39.900307999859685],[-85.93808899975723,39.90310899980578],[-85.93808799993232,39.90314499968178],[-85.93808399973436,39.90334100020624],[-85.93808299990945,39.90418799966832],[-85.93808600028251,39.904339000242246],[-85.93808799993232,39.90444199974919],[-85.93808799993232,39.904527000222494],[-85.93808799993232,39.90461399969783],[-85.93808999958215,39.90630800008994],[-85.93809100030536,39.90708199984054],[-85.93809299995519,39.90800799972286],[-85.93809299995519,39.90803899985067],[-85.93809799997805,39.90935499980601],[-85.93809600032824,39.9109780001792],[-85.93810200017602,39.91252500000554],[-85.93810200017602,39.912546000264754],[-85.93809899980297,39.9129620001687],[-85.93809899980297,39.91302799985164],[-85.93810600037398,39.913198999830556],[-85.93809600032824,39.91392799995558],[-85.93808600028251,39.91679999994383],[-85.93808899975723,39.91715499967547],[-85.93808899975723,39.91718799991605],[-85.93808499955927,39.91743200015782],[-85.9380870001074,39.91753700006765],[-85.93809399978011,39.9179439998833],[-85.93808399973436,39.919085000253126],[-85.9380729998637,39.92033200033087],[-85.9380729998637,39.920505999673914],[-85.93807600023675,39.92114600014503],[-85.93808600028251,39.921483000147184],[-85.93808899975723,39.92156600015281],[-85.93808999958215,39.92159299967641],[-85.93809100030536,39.921617999889285],[-85.93810499965078,39.922325000310245],[-85.93810399982586,39.9228230002891],[-85.93809799997805,39.9230210002621],[-85.93808399973436,39.92319599997729],[-85.93806100016815,39.92336100024385],[-85.93802099998517,39.92357399987479],[-85.93798199962711,39.92370699969965],[-85.93792100042604,39.92386899988317],[-85.93782799964133,39.924074000331466],[-85.93770200014295,39.92428400028867],[-85.93762000012718,39.92441000009161],[-85.9374179995625,39.92464899999385],[-85.93739199962322,39.925819000031744],[-85.93737900010277,39.92643399993017],[-85.93810999967363,39.92649299991113],[-85.93813399996307,39.926494999757836],[-85.93814400000882,39.9265519998413],[-85.93815800025251,39.92661800020499],[-85.93815800025251,39.9267220002314],[-85.93815300022966,39.92682999977368],[-85.9381289999402,39.92697600010868],[-85.93808200008455,39.927008999749674],[-85.93776599971704,39.927022999947454],[-85.93759599983774,39.92703799971326],[-85.9375869996169,39.927136999876545],[-85.93764199986848,39.92711599995825],[-85.93781900031881,39.927114999699555],[-85.93941100005522,39.9271079999549],[-85.94117900041702,39.927101999779545],[-85.94288300030644,39.927087000027704],[-85.94333299966992,39.92708299967999],[-85.94548699982111,39.92706499983465],[-85.94584300037157,39.92706400026405],[-85.9459150003416,39.9270630000046],[-85.9461549996428,39.92705999991504],[-85.94639499984231,39.92705800008484],[-85.9467670002863,39.92705399973548],[-85.94739800029805,39.92705100033436],[-85.94746100004726,39.92705100033436],[-85.94793100040053,39.92704800024422],[-85.94800599984528,39.92704699998453],[-85.94861699976556,39.92703899997312],[-85.9499840002694,39.92702700029863],[-85.95035800036322,39.92702400020749],[-85.95209800023763,39.927008999749674],[-85.95923299963746,39.9269479996911],[-85.96636799993563,39.926887000267065],[-85.97012200021915,39.926855000140925],[-85.97123899957938,39.9268479996808],[-85.97205899973704,39.92683900007225],[-85.97255800040264,39.926840000334984],[-85.97290599965888,39.92683799980951],[-85.97353699967064,39.92683599997287],[-85.97520299992522,39.926855999714576],[-85.97535699991099,39.92685800023952],[-85.975392999896,39.926881000072335],[-85.97550000002612,39.92694899995223],[-85.97564300014126,39.92701199984147],[-85.97578200005843,39.92706400026405],[-85.97587199957181,39.92709099968631],[-85.97605999989278,39.92713000013414],[-85.97611699979419,39.927136000307044],[-85.97615600015226,39.927139999962776],[-85.97632400038174,39.927144000307166],[-85.97650400030679,39.92714300004883],[-85.97853999955889,39.92713199996218],[-85.97908600008016,39.92712599978893],[-85.98085400044197,39.9271079999549],[-85.98127799986618,39.927106999696086],[-85.98219699975805,39.9271040002973],[-85.98234400007112,39.92710300003843],[-85.98306100029662,39.92709699986263],[-85.98350999983519,39.92709300020439],[-85.98445899986427,39.927087000027704],[-85.98517600008975,39.927077999761686],[-85.98650400023553,39.9270699997539],[-85.98734000028671,39.92706400026405],[-85.98753899958002,39.9270630000046],[-85.98792199989467,39.92705999991504],[-85.9885799996706,39.927054999995065],[-85.98873000035674,39.92705399973548],[-85.98916100035197,39.92705100033436],[-85.98961300026359,39.92704800024422],[-85.99148500038248,39.92703400005161],[-85.99327999961017,39.92702100011617],[-85.99503700010132,39.927000000162295],[-86.0013849998538,39.92705600025463],[-86.00165900038849,39.92705699982529],[-86.002032999584,39.92705999991504],[-86.00340199973763,39.92707100001326],[-86.00438099990394,39.927077999761686],[-86.00639000029018,39.927091999945354],[-86.00699000033981,39.92709999995056],[-86.00741600031216,39.92710600012611],[-86.00854400044139,39.92711200030111],[-86.01001200032924,39.927120000304036],[-86.01019200025429,39.92712299970213],[-86.01080900002235,39.92713300022063],[-86.01084500000736,39.92713399979022],[-86.01100300019111,39.927141000221106],[-86.01125699973602,39.927167000043895],[-86.01240300030689,39.927304999679876],[-86.01255499974455,39.927318000250274],[-86.01281099983758,39.927339000106606],[-86.013015999877,39.92735000016],[-86.01339199962064,39.92738000023395],[-86.0135499998044,39.92738800020557],[-86.01370799998813,39.92739000002607],[-86.01385699995105,39.92739199984658],[-86.01424600011349,39.92738899977139],[-86.01448200011501,39.92738399987544],[-86.01571700037438,39.92735899970136],[-86.016894999834,39.927339000106606],[-86.01788900006893,39.927323000151056],[-86.01811900022268,39.927315999738724],[-86.01925999987239,39.927280999733235],[-86.01957799988972,39.92727500026194],[-86.02068099990458,39.92725399969708],[-86.0210209996632,39.927248000223365],[-86.02176499965286,39.927248000223365],[-86.02183999999593,39.927248000223365],[-86.02523699990408,39.92720099985028],[-86.02597800041902,39.92719100003055],[-86.02642199993473,39.92717999995161],[-86.02766800006472,39.92715200030631],[-86.02822700010647,39.92713899970443],[-86.02890199960083,39.927123999960706],[-86.0294680002136,39.92711200030111],[-86.02976600013943,39.927106999696086],[-86.03100899989636,39.927087000027704],[-86.03297899992455,39.92706400026405],[-86.0340309998858,39.92706499983465],[-86.03486399956394,39.927066999664596],[-86.03496200037154,39.927066999664596],[-86.0352209999393,39.92706799992399],[-86.03659299956769,39.92707100001326],[-86.03994900036626,39.92706199974513],[-86.04535399993743,39.92705399973548],[-86.04625600011084,39.92705300016471],[-86.04690600038919,39.927051999905096],[-86.04736599979842,39.92705100033436],[-86.04770599955702,39.92705000007471],[-86.04858199979118,39.92704899981505],[-86.04906800003798,39.92704800024422],[-86.04933400017677,39.92704800024422],[-86.04962899972953,39.92704800024422],[-86.05065899994949,39.92704599972483],[-86.0518349997593,39.9270420000636],[-86.05381999985607,39.92703400005161],[-86.0542719997677,39.92703200022065],[-86.05465199970928,39.92703099996073],[-86.05548199991269,39.92702900012974],[-86.0558340002652,39.927027999869765],[-86.05605500019814,39.92702700029863],[-86.05717499993145,39.92702400020749],[-86.05786500039274,39.92702100011617],[-86.05883699998805,39.92701600019335],[-86.05976799957546,39.92701100027015],[-86.0599669997671,39.92701000000992],[-86.06026800006599,39.927008999749674],[-86.06057799968737,39.92700800017831],[-86.06140700006586,39.9270059996577],[-86.06167499985446,39.9270050000863],[-86.0616990001439,39.9270050000863],[-86.06191300040415,39.9270050000863],[-86.06294400044898,39.92700399982597],[-86.0630859998409,39.92700300025454],[-86.06357700011058,39.92700300025454],[-86.06370199978404,39.92700300025454],[-86.06409699979426,39.9270059996577],[-86.06519200031151,39.927013000101724],[-86.06612100024911,39.9270050000863],[-86.06640499993125,39.92700199999419],[-86.06743599997608,39.9269920001454],[-86.0683029999894,39.926984000127504],[-86.06865299979377,39.926984000127504],[-86.06919900031502,39.926984999699215],[-86.06959400032524,39.926984999699215],[-86.06974300028816,39.926984999699215],[-86.07046100033857,39.92698599995982],[-86.07183100031713,39.92697999977376],[-86.07494899966768,39.926953999879956],[-86.07587900032851,39.92695099978562],[-86.07603099976618,39.92695099978562],[-86.07618300010213,39.92695000021335],[-86.07624300037659,39.92695000021335],[-86.07633399971486,39.92694899995223],[-86.07648400040101,39.9269479996911],[-86.07666000012811,39.926947000118844],[-86.07670100013598,39.926947000118844],[-86.07681999996167,39.926947000118844],[-86.07715200022268,39.926945999857686],[-86.0790539995805,39.92693400016688],[-86.07929200013018,39.92693200033305],[-86.08082500031537,39.92692199978514],[-86.08138500018202,39.92692199978514],[-86.08219500029394,39.92692300004665],[-86.08224799999736,39.92692300004665],[-86.08324499970702,39.92690500015925],[-86.0841860002385,39.92690099980089],[-86.08754499961351,39.92689099993734],[-86.08819499989185,39.926887000267065],[-86.08861099981846,39.92688499974296],[-86.08870500042809,39.926884000169785],[-86.09112300016993,39.92688900010226],[-86.09439100020666,39.92688200033445],[-86.09455400041327,39.92688200033445],[-86.09480100028547,39.926881000072335],[-86.0957739997057,39.926879999810204],[-86.09650900037283,39.9268779999748],[-86.09819099962263,39.926879999810204],[-86.09947299973764,39.92688200033445],[-86.10050600033061,39.926884000169785],[-86.10348599958894,39.92689400003436],[-86.10485599956749,39.92689799970424],[-86.10548400010452,39.92690000022795],[-86.10663499979997,39.92689799970424],[-86.10674699995296,39.92689799970424],[-86.10786199966338,39.92690599973212],[-86.10796899979351,39.92690599973212],[-86.10986600002676,39.92691000009018],[-86.11074999975853,39.926913999759115],[-86.11158900018273,39.9268989999661],[-86.11216800031596,39.92690200006271],[-86.11241400036326,39.92690099980089],[-86.11254999990739,39.92690099980089],[-86.11277599986319,39.92690099980089],[-86.11311700034504,39.92690099980089],[-86.11355300036314,39.92690099980089],[-86.11466600042374,39.92690599973212],[-86.11509400004591,39.92690399989747],[-86.11637500033602,39.9268989999661],[-86.11730799957326,39.92690099980089],[-86.11799300001171,39.92690000022795],[-86.11897800002579,39.92689299977242],[-86.11927299957856,39.92689099993734],[-86.1193589997923,39.92688999967536],[-86.12115599956812,39.926881000072335],[-86.12278900021073,39.92687199977928],[-86.12359199975162,39.92687199977928],[-86.12439600001575,39.92687199977928],[-86.12523999956453,39.92687100020587],[-86.12667300019059,39.92687100020587],[-86.12680999955963,39.92687100020587],[-86.12686999983408,39.926882999907704],[-86.12696500026864,39.92690099980089],[-86.12700299990347,39.92690599973212],[-86.12707200039877,39.926913999759115],[-86.12723600043029,39.92693499973938],[-86.12876200004446,39.926921000212495],[-86.13031399959789,39.92690399989747],[-86.13069899956237,39.9268970001312],[-86.131418000336,39.92688999967536],[-86.1319329999968,39.926884000169785],[-86.13275200032955,39.926874000303755],[-86.13293399990441,39.926874999877086],[-86.13301199972223,39.92689299977242],[-86.13308000039261,39.926906999993875],[-86.13314800016465,39.9269249998808],[-86.13328600025693,39.92695200004671],[-86.13335599967881,39.92696100032931],[-86.13342599999902,39.92697499984794],[-86.13370600038148,39.92701100027015],[-86.13377699962828,39.92701600019335],[-86.13388299993349,39.927024999778624],[-86.13399099988854,39.927035000311484],[-86.1343690001803,39.927051999905096],[-86.13469300004542,39.92705800008484],[-86.13636699979759,39.92706900018337],[-86.13798100017361,39.92708000028014],[-86.13869099982809,39.927088000286815],[-86.13942099957404,39.9270960002925],[-86.14182999999338,39.92712500021927],[-86.14238599966207,39.92713099970372],[-86.14397499992374,39.92714199979053],[-86.14465500033931,39.92714699970415],[-86.14526399971146,39.927157000219204],[-86.14588300002767,39.92716800030183],[-86.14752199961971,39.92714900022065],[-86.14820000038546,39.927136000307044],[-86.14851500002973,39.92713300022063],[-86.1491109998814,39.92712700004746],[-86.15067699967855,39.92710499986726],[-86.15069099992225,39.92710499986726],[-86.15225400024465,39.927085000198296],[-86.15328699993931,39.927077999761686],[-86.15383799958514,39.92706900018337],[-86.15490399979008,39.92705000007471],[-86.15530800002111,39.92704599972483],[-86.15637400022605,39.92702600003864],[-86.15675599981748,39.92702100011617],[-86.15781500034973,39.92700800017831],[-86.15805499965093,39.9270050000863],[-86.15902200012167,39.926979000201975],[-86.15922100031331,39.92697600010868],[-86.16013699983212,39.92696699982812],[-86.16097500043142,39.92695800023522],[-86.16306400028529,39.92693100007167],[-86.16391500040508,39.9269249998808],[-86.16506600010052,39.92690599973212],[-86.16575300018879,39.9268989999661],[-86.16929300021208,39.92688900010226],[-86.17213899957608,39.92689500029629],[-86.1722370003837,39.92689500029629],[-86.17385699970917,39.9268989999661],[-86.17439599965944,39.92689400003436],[-86.17474100033925,39.926887000267065],[-86.17554300005524,39.926866000272085],[-86.17616800021922,39.926853000304796],[-86.1771259995708,39.92684299974533],[-86.17760299959679,39.92684299974533],[-86.178406000036,39.92684200017155],[-86.1787630004114,39.926840000334984],[-86.17935300041526,39.92683499971009],[-86.18054900031656,39.9268249998369],[-86.1822630002517,39.92681900032557],[-86.18264499984312,39.92681600022532],[-86.18361399996367,39.92680699992368],[-86.18402900006538,39.92680899976121],[-86.18407000007326,39.92680899976121],[-86.18452000033506,39.92680500008614],[-86.18577300013776,39.92679599978304],[-86.1877480001888,39.926777999862246],[-86.18861600002703,39.926769999819356],[-86.19091199957015,39.92675100031656],[-86.19233400032554,39.92673500022357],[-86.19311199975209,39.92673000027985],[-86.19373600009116,39.92672599991132],[-86.19445199959341,39.926719999702435],[-86.19464699958708,39.926717999862355],[-86.19501900003107,39.92671499975763],[-86.19774899994246,39.926678000292476],[-86.19895300023965,39.926665999865854],[-86.19903000023255,39.92666500028948],[-86.1994419999612,39.92666200018243],[-86.20082000033568,39.926651000018495],[-86.20203399978033,39.926636999744645],[-86.20281200010518,39.926628000108416],[-86.20283300002157,39.926628000108416],[-86.2028639999837,39.926628000108416],[-86.2028770004025,39.926628000108416],[-86.20292500008308,39.92662699984253],[-86.20308699956648,39.92662499999974],[-86.20324300010039,39.92662300015688],[-86.20341100032988,39.92662000004799],[-86.20359899975256,39.926616999938965],[-86.20496100023351,39.92659400001747],[-86.2068550000937,39.92656199975436],[-86.20850499955642,39.926530000165215],[-86.2094679998292,39.9265179997126],[-86.21052900001128,39.92649900013992],[-86.21071599960902,39.92649700029333],[-86.21131599965867,39.92648900021765],[-86.21161799978245,39.92648499983498],[-86.21191300023354,39.926476999757845],[-86.21253699967431,39.926468000100584],[-86.2137119996592,39.926450000093496],[-86.21379200002512,39.92644899982508],[-86.21422800004322,39.92643599977855],[-86.21443300008264,39.926435000198815],[-86.21500600036808,39.9264229997296],[-86.21592899955958,39.92640499971068],[-86.2161210000785,39.92640100001206],[-86.2182819999024,39.92635999998724],[-86.21857399998045,39.92635800013659],[-86.21896200031796,39.92635000004467],[-86.21926100006873,39.92634500007283],[-86.21953499970509,39.92633500012807],[-86.21990200012621,39.92633200000655],[-86.22038199962692,39.9263220000599],[-86.22105299982167,39.92630899998931],[-86.22203700001084,39.926289000087806],[-86.22219699984441,39.92628599996428],[-86.22228600043118,39.92628400011152],[-86.22242500034837,39.926282000258645],[-86.22298299966687,39.92627299988684],[-86.2232449996077,39.92626900018046],[-86.22379100012895,39.926261000078085],[-86.22430300031503,39.92625900022459],[-86.22490199964142,39.926249999849716],[-86.22516199993242,39.92624600014199],[-86.22551799958457,39.92624199974517],[-86.22606499993076,39.92623600018277],[-86.22646099976588,39.92622600022208],[-86.22760999981149,39.92620899973447],[-86.22881900013158,39.92618199996442],[-86.22960499995403,39.92616599973845],[-86.23168200011236,39.92613700009435],[-86.23205500038125,39.92615099978155],[-86.23222199988751,39.92615000019765],[-86.23233300021558,39.9261489999248],[-86.23249300004916,39.92614500021121],[-86.23273300024867,39.926138999951405],[-86.23305399974073,39.92613599982135],[-86.23338199980378,39.92613200010695],[-86.23547200038088,39.926107000164535],[-86.23704999987359,39.92608799978888],[-86.23743999986091,39.92608299979791],[-86.23790000016847,39.92607700022157],[-86.23848299960133,39.926069999681886],[-86.23918399993329,39.92606200024516],[-86.23973899977707,39.92605499970394],[-86.24037599963663,39.92604599999115],[-86.24050200003332,39.92604700026547],[-86.24062000003411,39.92605200025906],[-86.24073600038504,39.92606200024516],[-86.24077800021784,39.926067000237666],[-86.24105299967914,39.92608799978888],[-86.24109000038737,39.92609200019469],[-86.24120099981715,39.92609299977949],[-86.2413730002446,39.92608499965655],[-86.2468160003489,39.92579700012006],[-86.24815500036533,39.92572399976764],[-86.24821800011452,39.92572000002918],[-86.24842200032901,39.92570899971388],[-86.2496399999716,39.925644000131896],[-86.25034399977832,39.92560300034263],[-86.25065799959766,39.92558699998135],[-86.25135599955658,39.925551000188136],[-86.25150700006763,39.92554400028353],[-86.25154800007552,39.925541000127396],[-86.25209899972133,39.925515999969164],[-86.255010000281,39.92536300004187],[-86.25574800042288,39.925323999965194],[-86.2598530003357,39.92510999997934],[-86.25986599985616,39.9250379998723],[-86.26008000011639,39.925030999915286],[-86.26111799983396,39.92513900005842],[-86.26248000031491,39.92513299971049],[-86.2639950000584,39.925106000205005],[-86.2649010004298,39.92507300033565],[-86.26613800033896,39.9250139998198],[-86.26688499980337,39.92498000030511],[-86.26733500006516,39.92494699968615],[-86.2676060002268,39.92494699968615],[-86.26790400015264,39.92490499987736],[-86.26824599956109,39.92491600032189],[-86.26886800025034,39.92491199984731],[-86.27042800019969,39.92491399974015],[-86.27094000038576,39.924899999800004],[-86.27140200034313,39.92489499972227],[-86.27273499961345,39.92486300004287],[-86.27471899988534,39.92481699970247],[-86.27488899976464,39.92481299991102],[-86.27558000005087,39.92480000024276],[-86.27734599986455,39.92476599993289],[-86.27755900029989,39.92475800034385],[-86.27757299964527,39.92475800034385],[-86.27847099962072,39.92472900010333],[-86.27944899996213,39.92470499994251],[-86.27951199971133,39.924703000043564],[-86.27957500035883,39.924701999749566],[-86.2799829998895,39.92468799976612],[-86.28109699977502,39.92464000009623],[-86.28127000002739,39.92464099970217],[-86.28179899993191,39.92464000009623],[-86.2818550000084,39.92464099970217],[-86.28198899990271,39.92464099970217],[-86.28217399985063,39.92464300029184],[-86.28375700026452,39.92464599979844],[-86.28591899991332,39.92464099970217],[-86.28891400013856,39.924634999999505],[-86.28899100013146,39.92464399989778],[-86.28904899985777,39.92464399989778],[-86.29016600011636,39.92462900029627],[-86.29023899991128,39.92462699970619],[-86.29077000036393,39.92461900010092],[-86.29259999975173,39.92459100009712],[-86.29268000011766,39.924589999801526],[-86.29357999974293,39.924582000191876],[-86.29359499981155,39.924582000191876],[-86.29532499964023,39.92456100017878],[-86.29719900030726,39.92453599966268],[-86.2978150002504,39.924531000247285],[-86.29891099969427,39.92451799983656],[-86.30162800008516,39.924487000278056],[-86.30236899970177,39.924487000278056],[-86.30331500025612,39.92445600001655],[-86.30399300012354,39.92444700009361],[-86.30407000011644,39.92444700009361],[-86.30724600009165,39.924394000140445],[-86.30925100027993,39.924351999992425],[-86.31054000006765,39.924327999699436],[-86.31434500040478,39.92426300018417],[-86.31581900014044,39.92423800024818],[-86.3160979997997,39.92423500003478],[-86.31667100008512,39.92422499978181],[-86.31747299980113,39.924220000343716],[-86.31803000019303,39.924220000343716],[-86.31807799987361,39.924220000343716],[-86.31878300040353,39.92421500021632],[-86.31901600003204,39.92421599982846],[-86.31945299987504,39.924213999915246],[-86.32133699968949,39.924220000343716],[-86.32138899956804,39.924219000042704],[-86.32139399959091,39.92415800025384],[-86.32164200018633,39.92414999990484],[-86.32628900042245,39.92404200026834],[-86.32629299972209,39.92402899976475],[-86.32629400044532,39.92186499982042],[-86.32637100043821,39.92116299982298],[-86.32639400000444,39.921033999891556],[-86.3263859996085,39.920900999697125],[-86.32636300004228,39.91996100023545],[-86.32634200012589,39.919153000297406],[-86.3262729996306,39.91732900020132],[-86.32626799960775,39.91718799991605],[-86.32626199975995,39.917046000312666],[-86.32621200042955,39.91572299976517],[-86.32621200042955,39.9155770002382],[-86.32621200042955,39.915318999756245],[-86.32623300034594,39.914626000011644],[-86.32624000001864,39.91438400030819],[-86.32624699969134,39.914143000197875],[-86.32625799956199,39.91368500008702],[-86.32626299958487,39.913585999765765],[-86.32623400017087,39.91178799969126],[-86.32623400017087,39.91175900015902],[-86.32623400017087,39.911673999701115],[-86.32622900014798,39.91131100002794],[-86.32621800027732,39.91061100033088],[-86.32620400003363,39.909620000169696],[-86.32619900001076,39.909324000273735],[-86.32619800018585,39.90925699994753],[-86.32619099961484,39.908681000054926],[-86.32618999978995,39.908641000284504],[-86.32615600035305,39.906382000340855],[-86.3261379999114,39.9060180003103],[-86.32607299961407,39.90467399977066],[-86.32606699976627,39.90463199993191],[-86.32606400029155,39.904575000208055],[-86.32607099996424,39.90431300002114],[-86.32610199992638,39.90315600017614],[-86.32610699994925,39.902972000257854],[-86.32610199992638,39.902585000311596],[-86.32609899955332,39.902384000037976],[-86.32609199988063,39.90212199974234],[-86.32607299961407,39.89987900003301],[-86.32606699976627,39.89951599988436],[-86.32598399992561,39.8914399996691],[-86.32598099955256,39.89122200026603],[-86.32594700011569,39.88791500004761],[-86.32594600029077,39.88785599991849],[-86.32591699997846,39.884968999682854],[-86.32588900038937,39.882328999686706],[-86.32591199995558,39.882319999743146],[-86.3259639998341,39.882288999698766],[-86.3259970003444,39.88225299989654],[-86.32601200041302,39.88222600003243],[-86.32602199956044,39.88219900015766],[-86.3260269995833,39.88217200027229],[-86.32605099987276,39.882050999736336],[-86.32602400010857,39.8807360002412],[-86.32602099973552,39.88005100018378],[-86.32599200032152,39.87714800017731],[-86.32599499979627,39.87500500013248],[-86.32599599962116,39.87404899968609],[-86.32598700029867,39.87349200011394],[-86.3259479999406,39.87264400012662],[-86.3259270000242,39.872360000067005],[-86.32591100013067,39.872135000129255],[-86.32590000026002,39.87196900020464],[-86.32586299955179,39.8715800002528],[-86.32574600027422,39.87033100004224],[-86.32561400002974,39.86881699992201],[-86.32541599966304,39.86672900021026],[-86.32537300000533,39.86617600026216],[-86.32540599961727,39.86617600026216],[-86.32598800012357,39.866153999812965],[-86.32692499955876,39.86614100004562],[-86.32812100035835,39.86612500027559],[-86.32811299996244,39.865614999703936],[-86.32809000039622,39.864246999881495],[-86.32808200000031,39.86379999993188],[-86.32807799980235,39.8623990000576],[-86.3280119996801,39.85926899992035],[-86.32799400013675,39.85810100025346],[-86.32797599969511,39.8569950002553],[-86.32796900002239,39.856533999837644],[-86.32796399999953,39.855868999902526],[-86.32795399995379,39.855542999786415],[-86.32790999957285,39.85409500010317],[-86.32788399963357,39.85316600025633],[-86.32786500026532,39.851955999779776],[-86.32785299967144,39.84991599971553],[-86.32785299967144,39.849903000320225],[-86.32782900028032,39.84854399992974],[-86.32782099988438,39.8480749997278],[-86.32781599986153,39.847927000163644],[-86.32779199957209,39.84716399993923],[-86.32778700044753,39.84702400017952],[-86.32776099960994,39.845470000227834],[-86.32776099960994,39.84542699991147],[-86.32775700031029,39.8446240003002],[-86.32774800008946,39.84427800018624],[-86.32771100027955,39.84292600025056],[-86.32771100027955,39.842902999825995],[-86.32770399970852,39.842584999733376],[-86.32768299979213,39.841540999811755],[-86.32768199996723,39.84150500000702],[-86.32758800025589,39.83719900016132],[-86.32757700038523,39.83644000017513],[-86.32757999985998,39.83637699979104],[-86.32757499983711,39.836305000266805],[-86.32757300018729,39.83628400010394],[-86.32757599966202,39.835861999904374],[-86.32755899994356,39.83462099983012],[-86.32754899989783,39.8345390003006],[-86.32754100040023,39.83417200029806],[-86.32753399982923,39.83385399978341],[-86.32751700011077,39.833011999857575],[-86.32751999958552,39.832997999768295],[-86.32748899962338,39.831759999807595],[-86.32746500023224,39.830794999983894],[-86.32746000020936,39.83054399975332],[-86.32744500014077,39.829869000322475],[-86.32742300039945,39.82872299992444],[-86.32741699965335,39.828432000057646],[-86.32736700032297,39.826351999748695],[-86.32735499972907,39.825043999813474],[-86.32733999966047,39.824438999707745],[-86.32730899969832,39.82321799986556],[-86.32729700000276,39.822722000040145],[-86.32729100015497,39.82249200022745],[-86.32728899960684,39.822415999700205],[-86.32726900041368,39.82158899971282],[-86.32724500012422,39.82057400024941],[-86.32722699968255,39.81971000022736],[-86.32721599981191,39.81921099993844],[-86.32718400002486,39.817662000200926],[-86.32717900000198,39.817376999837535],[-86.32714999968965,39.815891999884485],[-86.32714999968965,39.81588099988267],[-86.32714899986476,39.81557599994663],[-86.32714899986476,39.81547600028385],[-86.32714800003984,39.815189000181334],[-86.32714800003984,39.81516200014847],[-86.32714700021494,39.81514399989068],[-86.32714700021494,39.81513299976915],[-86.32714200019205,39.81500600005764],[-86.327138999819,39.814919000065544],[-86.327138999819,39.814896999748704],[-86.32713700016917,39.81472499972616],[-86.32713399979615,39.814490000207144],[-86.32711200005483,39.813761999756686],[-86.32708500029065,39.81254299968212],[-86.32708199991761,39.81242600001932],[-86.32706600002408,39.81145599975753],[-86.32706199982611,39.8112150001334],[-86.32705099995545,39.810738999742064],[-86.32702699966602,39.80968599971575],[-86.32702699966602,39.809668999996525],[-86.3270049999247,39.80800799985321],[-86.32697800016052,39.807457000144176],[-86.32697200031275,39.807340000105924],[-86.32696300009191,39.80715499991047],[-86.32694999967313,39.80624299981791],[-86.32693899980246,39.80581299968189],[-86.32690899966524,39.80466099987584],[-86.32688199990106,39.80358100016922],[-86.32685900033485,39.802404000036496],[-86.32680999993104,39.80080100013835],[-86.32680499990816,39.80064599992824],[-86.32680900010612,39.80055200015159],[-86.32680599973308,39.800445999808744],[-86.32677599959584,39.79932500007034],[-86.32677200029619,39.798980000292566],[-86.3267580000525,39.79849500018888],[-86.32673799996103,39.79728299984578],[-86.32673399976305,39.79706899979094],[-86.32672999956509,39.7968329998743],[-86.32671399967157,39.79600700000066],[-86.32667600003674,39.79472499992149],[-86.32668000023469,39.79426200020626],[-86.326665999991,39.79383399995734],[-86.32664000005173,39.793306999785344],[-86.32663599985376,39.792985000078126],[-86.32662300033329,39.792023000141135],[-86.32660499989163,39.79163299982255],[-86.32660499989163,39.791374000160765],[-86.32660599971652,39.79119399997076],[-86.32660700043976,39.79093699969606],[-86.3265949998459,39.789965999789295],[-86.32658300015031,39.78952499995278],[-86.326561000409,39.78897300034331],[-86.32656200023392,39.7888249997651],[-86.32656499970865,39.787791999889286],[-86.32655700021104,39.78746699992162],[-86.32654499961717,39.787018000159236],[-86.32653700011956,39.786718999918975],[-86.32653100027179,39.78650200010365],[-86.32651799985298,39.78600099987863],[-86.32650799980723,39.785609999682976],[-86.32649399956354,39.78469399996635],[-86.32645699975363,39.78283500023501],[-86.32643699966214,39.78185100003695],[-86.326413000271,39.78161400006494],[-86.32640999989796,39.78150199973011],[-86.3264059997,39.781373000092394],[-86.32640800024814,39.78077000010397],[-86.32640800024814,39.78075900000587],[-86.32640200040035,39.779996999725725],[-86.32640200040035,39.77995100023061],[-86.32638999980647,39.7796510000076],[-86.3263849997836,39.77953899992969],[-86.32639099963139,39.77940899972161],[-86.32640800024814,39.779278999958336],[-86.32643599983723,39.77915000029564],[-86.32646199977648,39.77906000014696],[-86.32659200037114,39.778750999776356],[-86.32663699967868,39.778644999664714],[-86.32665099992238,39.77861199972689],[-86.32670699999888,39.77848300019471],[-86.32681499995391,39.778230000131785],[-86.32685900033485,39.77809600014741],[-86.3268919999468,39.77796100022906],[-86.32691600023625,39.77780999972021],[-86.32690299981745,39.776374999916804],[-86.32690000034272,39.77599300033253],[-86.3269050003656,39.77489099992445],[-86.32689600014476,39.77446899971114],[-86.32689600014476,39.77445399970993],[-86.32689399959662,39.77407800026865],[-86.32687699987818,39.77178000015033],[-86.32686500018262,39.77125699997936],[-86.32686600000754,39.77101100008137],[-86.32686799965737,39.77071599982756],[-86.32686900038058,39.77040199967585],[-86.32686900038058,39.77039199977499],[-86.32686900038058,39.770378999832715],[-86.32685199976383,39.76926099975433],[-86.32685199976383,39.769250999687785],[-86.3268559999618,39.768223999685176],[-86.3268579996116,39.76787800016389],[-86.3268419997181,39.76691699979337],[-86.32682199962662,39.766122999687546],[-86.32680900010612,39.76543800025103],[-86.32680400008324,39.76514800027089],[-86.32680300025835,39.765112999666826],[-86.32680300025835,39.76510000010877],[-86.32679800023547,39.76443100014863],[-86.3267859996416,39.763773999834775],[-86.32678700036482,39.76362100020494],[-86.32678499981668,39.76280000019411],[-86.32678099961872,39.761625000259336],[-86.32678099961872,39.76161399986371],[-86.32677800014399,39.76149400014216],[-86.32676100042556,39.76084400026053],[-86.3267580000525,39.760666000162],[-86.32674399980881,39.75986999991926],[-86.32674299998389,39.75980399998059],[-86.32674100033405,39.75969000018859],[-86.32673200011322,39.759167999966536],[-86.32672600026544,39.75877200018298],[-86.32672299989241,39.75841200003607],[-86.32670699999888,39.75676400010806],[-86.32670500034904,39.75655700029549],[-86.32670299980091,39.75634999986078],[-86.32670299980091,39.75631700028449],[-86.32669699995313,39.75573500032411],[-86.32669699995313,39.75572399967827],[-86.32669299975517,39.75473599998705],[-86.32669199993026,39.75456000001164],[-86.32669199993026,39.754485999707136],[-86.32669199993026,39.75444599982676],[-86.32669100010534,39.75437800018404],[-86.32668500025757,39.75327799984633],[-86.32668199988451,39.75269899988058],[-86.32668100005961,39.75255800032217],[-86.32667199983878,39.751737999697866],[-86.32667000018895,39.75154800024912],[-86.32667100001387,39.75147799970212],[-86.32667199983878,39.751342000014766],[-86.3266729996637,39.751232000274335],[-86.32667600003674,39.7507700001371],[-86.3266790004098,39.75046700029768],[-86.32667500021184,39.750217999794486],[-86.32667400038692,39.750124000188734],[-86.32667199983878,39.74990099985421],[-86.32667100001387,39.74977800019706],[-86.32667000018895,39.74972000023197],[-86.32666900036405,39.749647999731074],[-86.32666199979305,39.749023000202506],[-86.32665099992238,39.7471469999384],[-86.32664199970154,39.74637899979114],[-86.32663500002886,39.74575900031981],[-86.3266319996558,39.74495499994734],[-86.32661800031042,39.74367900026494],[-86.32661699958719,39.7436220001722],[-86.32660099969367,39.741647999752345],[-86.32659599967079,39.74080400025184],[-86.3265949998459,39.74043599978051],[-86.3265889999981,39.7393229996664],[-86.32658099960217,39.738338999922206],[-86.32658099960217,39.73823599982186],[-86.32657999977727,39.73819100030645],[-86.32657099955642,39.73725999979541],[-86.32656999973153,39.73720400018437],[-86.3265670002568,39.736894000280635],[-86.32656399988376,39.736664999701425],[-86.32656300005884,39.73646800027765],[-86.32655999968578,39.73619699968381],[-86.32655200018817,39.73547699988142],[-86.32655100036327,39.73537300004823],[-86.32654799999021,39.73513100025401],[-86.32654200014244,39.734383999717835],[-86.3265320000967,39.733167000258305],[-86.32651799985298,39.73126200027493],[-86.32650799980723,39.72999600015149],[-86.32650799980723,39.72997499998943],[-86.32650000030965,39.729441999820935],[-86.32651399965503,39.72937799981263],[-86.32652000040113,39.7291280000961],[-86.32659099964793,39.72877600013012],[-86.32659599967079,39.72837600024829],[-86.32658999982301,39.728227000262095],[-86.32658999982301,39.72788399998815],[-86.32659099964793,39.72314400015472],[-86.32659099964793,39.721852999765765],[-86.32658800017319,39.72090200003732],[-86.32658599962505,39.720400999908385],[-86.32658599962505,39.720282999898686],[-86.32658800017319,39.71983800005432],[-86.32659099964793,39.71948600033739],[-86.32655200018817,39.71464900020204],[-86.32654999964004,39.71442800028558],[-86.3265470001653,39.71406099988262],[-86.32654499961717,39.71385700005323],[-86.32654100031753,39.713251999849994],[-86.32653700011956,39.71275399990906],[-86.3265329999216,39.71211100000436],[-86.3265320000967,39.71198600005463],[-86.32652899972364,39.711734000280074],[-86.32652899972364,39.71165100009523],[-86.32652700007382,39.711491999745256],[-86.32652899972364,39.711208999693504],[-86.32652299987586,39.710652999844235],[-86.3265189996779,39.71027699971816],[-86.32651399965503,39.709821999874364],[-86.32650899963215,39.70925900004961],[-86.32650899963215,39.70923699981221],[-86.32648500024102,39.706174000023516],[-86.3264629996014,39.70324499975699],[-86.32644400023314,39.70188900008742],[-86.32642400014166,39.70070800033945],[-86.32638999980647,39.697787000079124],[-86.32638800015664,39.697642999715335],[-86.32632700005726,39.69459000006435],[-86.32632700005726,39.69456799998846],[-86.32632500040745,39.69452200012122],[-86.32632399968423,39.694463999974424],[-86.32632399968423,39.69442799990648],[-86.32653899976937,39.687635999804336],[-86.32654499961717,39.68746300012958],[-86.32656600043188,39.68679299965664],[-86.3265739999295,39.68655199975385],[-86.3265759995793,39.68650000029556],[-86.32657800012745,39.686441000011925],[-86.32657999977727,39.686379999747686],[-86.32658099960217,39.686357999820466],[-86.32658300015031,39.686295999862246],[-86.32658399997523,39.686257999748825],[-86.32658499980013,39.68624200027694],[-86.32658700034828,39.68620699969105],[-86.32659400002098,39.6860859997016],[-86.32659900004386,39.68601399979574],[-86.32660099969367,39.685972999959795],[-86.32660499989163,39.685893000159325],[-86.32660800026468,39.68562599981719],[-86.32661599976228,39.684540000027354],[-86.32657300010457,39.682512000101354],[-86.32656899990661,39.68168100001525],[-86.3265680000817,39.68157099973694],[-86.3265680000817,39.68146099997472],[-86.3265670002568,39.681339000272374],[-86.32656600043188,39.68120400018058],[-86.32656600043188,39.68112799985914],[-86.32655800003596,39.6805039996975],[-86.326553999838,39.67962899965929],[-86.32654999964004,39.67927500000141],[-86.32654999964004,39.67923500003535],[-86.326561000409,39.67920200018421],[-86.32659099964793,39.67915700017319],[-86.32659099964793,39.67858000006087],[-86.32659099964793,39.67665300009024],[-86.32659099964793,39.67580099996565],[-86.32659099964793,39.67526899997242],[-86.32659099964793,39.674155999761126],[-86.32659099964793,39.673423999712725],[-86.32659099964793,39.672020999718995],[-86.32658999982301,39.671962000202285],[-86.32658800017319,39.67190100028573],[-86.32658399997523,39.67179499965644],[-86.3265739999295,39.67149900007783],[-86.32647900039323,39.668647999948895],[-86.32647900039323,39.66804699986965],[-86.32648000021815,39.66753999970235],[-86.32646599997445,39.666278999712965],[-86.326449000256,39.66465900000623],[-86.326449000256,39.66461799994006],[-86.32645199973075,39.66437500022907],[-86.32645500010379,39.66419200027536],[-86.32645799957854,39.66401600013098],[-86.32646099995159,39.66382399971365],[-86.32645599992871,39.66344900029909],[-86.32644000003519,39.66307400023261],[-86.32644400023314,39.66258500026999],[-86.3264480004311,39.662000000261685],[-86.32646099995159,39.66133500024911],[-86.32643599983723,39.660963999725126],[-86.32642300031675,39.65770700023913],[-86.32641099972287,39.65458499992807],[-86.32639499982933,39.6503789998015],[-86.32639300017952,39.64965299983569],[-86.32638899998156,39.64903799970509],[-86.32639099963139,39.64876800028151],[-86.32639200035462,39.64856300029676],[-86.32639300017952,39.64719500006405],[-86.32639200035462,39.6469450000158],[-86.32636300004228,39.64676800002721],[-86.32636600041535,39.646251000146734],[-86.32637300008804,39.64492099987119],[-86.32639200035462,39.64378999977672],[-86.3263780001109,39.643119000177606],[-86.32636700024024,39.6425249998396],[-86.32636100039247,39.642206999937414],[-86.32636100039247,39.64218400020977],[-86.32635899984432,39.64161699975217],[-86.3263560003696,39.64100200008683],[-86.3263649996921,39.63990799997312],[-86.3263649996921,39.639890000250205],[-86.32636200021739,39.6393739997446],[-86.32635999966924,39.638978999930686],[-86.3263570001945,39.638326000135265],[-86.3263560003696,39.638212999750415],[-86.32635399982146,39.637889000231404],[-86.32635299999654,39.63773099981292],[-86.32634999962349,39.63727399992907],[-86.32634799997368,39.63705299997078],[-86.32634700014877,39.63692900004808],[-86.32634499960064,39.63674000011756],[-86.32634200012589,39.636366999731386],[-86.32635100034673,39.6356550001072],[-86.32635100034673,39.63526700024678],[-86.32635200017165,39.6348379998503],[-86.32635100034673,39.63462299985377],[-86.32634999962349,39.634452000299724],[-86.32634899979858,39.634118000162],[-86.32634700014877,39.63386700019435],[-86.32634200012589,39.63340499983268],[-86.32634200012589,39.633300999739106],[-86.32634200012589,39.632837000343706],[-86.32634200012589,39.632691000060234],[-86.32634200012589,39.63254500016042],[-86.32634200012589,39.63243699994155],[-86.32634100030099,39.63217699992727],[-86.32582999993981,39.632190000331725],[-86.32530600005818,39.63219599998539],[-86.32230400016023,39.632236000199846],[-86.32219500038029,39.632239000024754],[-86.32045299995775,39.63227900021435],[-86.32037599996485,39.63228100032699],[-86.31709299985953,39.63236899969158],[-86.31682699972073,39.632375000021526],[-86.31681400020027,39.632375000021526],[-86.31676599962135,39.63237700013144],[-86.31604799957097,39.63239999966117],[-86.31562800034472,39.63241200031521],[-86.31482800027854,39.63243200001702],[-86.3142829995822,39.632446000081515],[-86.31299899981735,39.63247999983106],[-86.3126709997543,39.632488999965496],[-86.31241899985922,39.63249599999234],[-86.31222200021573,39.63250099991224],[-86.3112410003996,39.63252800030371],[-86.3110659995991,39.63253300022131],[-86.31087900000135,39.63253800013854],[-86.31056199980894,39.63254700026537],[-86.30904299986747,39.632578000155256],[-86.30731800006168,39.63261399994299],[-86.30692600042453,39.63261600004594],[-86.30542400020147,39.632625000162626],[-86.29996400037872,39.63266599983389],[-86.2977519996029,39.63269699967045],[-86.29713800020788,39.63270599977659],[-86.29709300000204,39.632707000172644],[-86.29691200025206,39.63270900027297],[-86.29600900025375,39.6327169999816],[-86.2958789996591,39.632717999685696],[-86.29525699986816,39.632723999985416],[-86.29483699974358,39.63272600008519],[-86.29462199965845,39.63272699978916],[-86.29397999977603,39.63273099998848],[-86.29370299976658,39.63273300008806],[-86.29313799987706,39.6327359998914],[-86.29279800011842,39.63273799999083],[-86.29181300010436,39.63274400028882],[-86.29137700008626,39.63274599969617],[-86.29017199996413,39.632752999697],[-86.28961499957221,39.632756000191335],[-86.28944899989085,39.632756999894816],[-86.28883999962041,39.63276100009245],[-86.28818699986734,39.63277200028872],[-86.28793499997225,39.632777000188675],[-86.27785999970044,39.63297299985675],[-86.27778799973042,39.63297400024894],[-86.271583999918,39.63317000005066],[-86.27146099989436,39.6331740002244],[-86.27143199958205,39.633177999706035],[-86.27136299998507,39.63318499966316],[-86.27017700012952,39.63320099966137],[-86.2700420004103,39.63322299991226],[-86.26960200019425,39.63323899990163],[-86.26923899997111,39.63326699970122],[-86.26891299955786,39.63322200021546],[-86.26881299999874,39.63319500009485],[-86.26871400026454,39.633151000260106],[-86.26852500011866,39.63305900032646],[-86.26849199960837,39.63305500014611],[-86.25801300000386,39.63336699968361],[-86.25752500010721,39.63337900016989],[-86.2566370001775,39.63340899999284],[-86.2563559999701,39.63341700031238],[-86.25202400027658,39.6335429996889],[-86.24988500019401,39.63364500003729],[-86.24336900021204,39.633738000264586],[-86.24309300002753,39.633734000123496],[-86.24279000007881,39.63374700023534],[-86.24232599957331,39.63375299975392],[-86.24208200007416,39.633754999824],[-86.24000400009095,39.633774999829264],[-86.2394440002243,39.6337879999334],[-86.23941900010995,39.6337879999334],[-86.23929699991119,39.63379099969101],[-86.23924500003267,39.63379200007137],[-86.238937999886,39.63379600020916],[-86.23885300039551,39.63379699989761],[-86.23563999971205,39.63383600019031],[-86.2350659996017,39.63384199970117],[-86.23461700006312,39.63384700021563],[-86.23422399970275,39.63385400010505],[-86.23390599968543,39.633858999926815],[-86.22109200017972,39.63407200016162],[-86.2207249997586,39.634079000028336],[-86.21424899995964,39.63418499970169],[-86.21157199975168,39.63422900026238],[-86.21138000013107,39.63423200000086],[-86.21057099984408,39.63424500001911],[-86.20936099969907,39.63426499988277],[-86.20762800039567,39.63425800003493],[-86.20610100005828,39.63425100018634],[-86.2057780000181,39.63424999981262],[-86.20551600007727,39.63424599970113],[-86.20547099987142,39.63432700018429],[-86.20464300021618,39.63433699975907],[-86.20453799973589,39.63433100029114],[-86.20438600029824,39.634323000077266],[-86.20392000014292,39.63432000034273],[-86.20265300009652,39.634333000344455],[-86.20149200035532,39.634344999971326],[-86.20139799974568,39.6343400001847],[-86.20132499995074,39.63433899981226],[-86.19971999979553,39.634360000020884],[-86.19860900028307,39.63438399995502],[-86.19774999976737,39.63439000011023],[-86.19642900019261,39.63439000011023],[-86.19640999992603,39.63439000011023],[-86.19434500036161,39.63442900006855],[-86.19401499975042,39.63443599989908],[-86.19117699988401,39.6344939999502],[-86.18961799975955,39.63452399998143],[-86.18566199980967,39.634586000050824],[-86.18505000006449,39.63459600027999],[-86.1841639997846,39.634613000320336],[-86.18416299995968,39.63460300009362],[-86.18374100018528,39.634611000275115],[-86.18330000014433,39.63462000013225],[-86.18161999964605,39.63466999985539],[-86.18154000017843,39.63467399994235],[-86.18141700015478,39.63467599998575],[-86.18136500027623,39.634676999661544],[-86.18015500013125,39.63469599972479],[-86.17897400029858,39.63471499978283],[-86.17844899969371,39.6347240003183],[-86.1775890002514,39.63473599987735],[-86.17744199993831,39.63474100032719],[-86.17741699982396,39.634742000001985],[-86.17315999957519,39.63480999999476],[-86.17087499990274,39.63485699986933],[-86.17073500016065,39.63487199980786],[-86.16883399972943,39.634896999928785],[-86.16814199961831,39.634922000040625],[-86.16815000001424,39.63490999982202],[-86.1663740001548,39.63494500010793],[-86.16500900019912,39.63497600030681],[-86.16487000028195,39.634979999684305],[-86.16432200011086,39.634993000253765],[-86.16374899982542,39.63499899966432],[-86.16254399970329,39.635029999839006],[-86.16002999970199,39.63507999995757],[-86.158390000285,39.63510000027163],[-86.15787499972588,39.63511799985752],[-86.15729999979061,39.63510999973467],[-86.1572429998892,39.635113000126765],[-86.15690200030568,39.635130999709226],[-86.1557220002979,39.63515500006768],[-86.15510999965441,39.63515399970703],[-86.1548490004368,39.63515199967746],[-86.15298999983838,39.635159999795405],[-86.15120999978102,39.63519999967965],[-86.1511949997124,39.63520100003963],[-86.15059899986075,39.63521399987579],[-86.15033799974482,39.63521500023557],[-86.1496880003648,39.635219000291066],[-86.14953799967866,39.635219999958956],[-86.14924899997365,39.63522299965447],[-86.14891099986485,39.63522499968198],[-86.14807999983654,39.63523000009647],[-86.147258999854,39.63524099990017],[-86.14569800007972,39.6352630001941],[-86.14447000039138,39.63525999980851],[-86.14427899969736,39.63525999980851],[-86.14425299975808,39.63525999980851],[-86.14402500015245,39.63526500022047],[-86.1434080003844,39.63527899971162],[-86.1431759996825,39.63528499978921],[-86.14267000024252,39.635286000147964],[-86.14126000008098,39.63529000019931],[-86.13974299978933,39.63535499996377],[-86.13948000002358,39.63537999991009],[-86.13942200029729,39.635385999978915],[-86.13922099955752,39.63539699975776],[-86.13887999997397,39.635414999958186],[-86.13879499958517,39.635414999958186],[-86.13870000004893,39.635419999667114],[-86.13790599983055,39.63544500028176],[-86.13552200042389,39.63545200000947],[-86.134776999711,39.635456999715736],[-86.13408999962273,39.635464999798465],[-86.13244900038084,39.63547800027682],[-86.13159999991088,39.63548299998119],[-86.13133100029735,39.635480000296965],[-86.12967300043871,39.63548999970507],[-86.12831299960757,39.635501000159195],[-86.12821899989625,39.63549900013965],[-86.12810799956816,39.63549399974462],[-86.12808400017704,39.63549399974462],[-86.12686300016139,39.6354740002363],[-86.12667599966532,39.635480000296965],[-86.12543100025854,39.63552200001505],[-86.12492599974517,39.63552299967861],[-86.12428700023581,39.63552800007155],[-86.12382500027844,39.63553299977232],[-86.12334999990227,39.63554000018295],[-86.1226539995932,39.63554000018295],[-86.1223580002155,39.63554000018295],[-86.12180300037173,39.63554000018295],[-86.1211120000855,39.6355440002196],[-86.11937999970868,39.63556300004471],[-86.11923199957069,39.635565999725344],[-86.11886000002501,39.63555999967218],[-86.11713799969395,39.63560699972893],[-86.11698299988325,39.63561099976175],[-86.11650300038255,39.63562699989061],[-86.11532300037477,39.63567900028385],[-86.1152899998645,39.63567999994514],[-86.1147769998535,39.63569400004413],[-86.1145159997376,39.63569400004413],[-86.11447700027786,39.6356949997052],[-86.11301900043576,39.635712000167274],[-86.11174999984122,39.63574999971998],[-86.11123000015755,39.63574999971998],[-86.10971399969078,39.63572699992035],[-86.10658600029447,39.63578500027263],[-86.10629699969115,39.63577999989826],[-86.10628800036864,39.63579100030632],[-86.10545300014238,39.635800999669456],[-86.10317199976959,39.6358349998455],[-86.10231800017506,39.635846000244754],[-86.10193900005837,39.635848999913115],[-86.10177000000397,39.635846999903634],[-86.10151999975871,39.63585000026371],[-86.10027100015397,39.635901999797554],[-86.1000119996879,39.635911999836466],[-86.09941800038436,39.63593199990991],[-86.0985260002567,39.635964999672574],[-86.09628400024195,39.63603000018633],[-86.09585700044468,39.63604099986282],[-86.09578700012447,39.63604299986669],[-86.09481800000391,39.6360700002593],[-86.09455500023819,39.63607699992377],[-86.093386999926,39.636112999965995],[-86.09316699981797,39.636118999971174],[-86.09313000000805,39.63612000031792],[-86.09295500010586,39.63612600032251],[-86.09228700028417,39.636148999989466],[-86.09221699996397,39.636152000336445],[-86.09153900009655,39.636172000340544],[-86.09111099957606,39.636186000339954],[-86.0901909998593,39.636212999984934],[-86.08892700018595,39.63625099995422],[-86.08869299983422,39.636258000292194],[-86.0876569997665,39.63629099989934],[-86.08693700006629,39.636308999867126],[-86.08594299983136,39.63633699980764],[-86.08273000004623,39.63643999983728]]]},"properties":{"NAME":"Marion County","GEOID":"18097"}}]}