{"type":"FeatureCollection","features":[{"type":"Feature","geometry":{"type":"Polygon","coordinates":[[[-89.55025599975484,40.73905099968535],[-89.55037799995357,40.73933800020027],[-89.55064300026744,40.73988500010519],[-89.55081399997167,40.74043099975014],[-89.55103300025479,40.74084400006468],[-89.5511889998904,40.74118399973894],[-89.55129600002051,40.74169399973513],[-89.55140200032572,40.7422880003021],[-89.55146199970186,40.74271199994394],[-89.55156899983199,40.743172999866495],[-89.55165699969554,40.74358799976703],[-89.55200499985008,40.744277999872246],[-89.55217200025466,40.74479400000712],[-89.55226799961581,40.74509199981773],[-89.55259499985395,40.74594099988424],[-89.55298700038945,40.74665800019467],[-89.55336099958494,40.747507999745125],[-89.55343299955497,40.74763600027669],[-89.55369000037123,40.748104000250585],[-89.5539559996117,40.74856500022867],[-89.55406500028995,40.748844999768416],[-89.55450299995788,40.749780000116516],[-89.55487799987658,40.75058199969184],[-89.55520599993964,40.75126199981836],[-89.5554849995989,40.752111999724434],[-89.55574999991278,40.752791000195764],[-89.55588299998216,40.753131999695],[-89.55596800037098,40.75335000028243],[-89.55602899957204,40.75366499998095],[-89.55605299986148,40.75383799988045],[-89.55613400005234,40.75438099971318],[-89.55623899963433,40.75506000014898],[-89.55628200019034,40.755617999913994],[-89.55638900032045,40.75616399968717],[-89.55637500007676,40.75765400008807],[-89.55643100015325,40.75845400011969],[-89.55642600013039,40.75909600023631],[-89.55646399976521,40.75954699986854],[-89.5564689997881,40.759605000078984],[-89.55652900006254,40.75998099998093],[-89.55657500009329,40.76018699985784],[-89.55659500018479,40.760243999962086],[-89.55668300004834,40.760526999982524],[-89.55679199982828,40.760903000112506],[-89.5568989999584,40.76137699982985],[-89.5569690002786,40.76171400005348],[-89.55700600008852,40.761885999896656],[-89.55704999957113,40.76226199982365],[-89.55717199976986,40.76291700030744],[-89.5571879996634,40.7631430002231],[-89.55721399960268,40.76353499998242],[-89.55725700015867,40.76400799980944],[-89.55725399978564,40.76438299981309],[-89.55724899976276,40.764941000245415],[-89.55719699988423,40.765364000216685],[-89.55712900011216,40.765872999686785],[-89.55707700023362,40.766248000053174],[-89.55701000028648,40.76658700033765],[-89.55700799973835,40.76688999973051],[-89.55700500026362,40.76718100033923],[-89.55700299971546,40.76735100007949],[-89.55707899988346,40.76776000011011],[-89.55713300031015,40.768106000254754],[-89.55717599996782,40.7683970003011],[-89.5572510003109,40.76881699974835],[-89.55743700008374,40.769442999705845],[-89.55763399972724,40.770042999835795],[-89.55782100022331,40.770497000245314],[-89.55797500020908,40.77088299976004],[-89.55820799983759,40.771303999883706],[-89.55832800038651,40.77166400005365],[-89.55836000017356,40.77186099997666],[-89.55840299983126,40.77212599998781],[-89.5585119996112,40.7725209999551],[-89.55863200016012,40.7728810003342],[-89.5588639999637,40.77344699971847],[-89.5590170001246,40.773926999903516],[-89.55928300026336,40.7744080000372],[-89.55959299988477,40.775008000231686],[-89.5600249997049,40.775763999795686],[-89.56025800023171,40.77606500021946],[-89.56040299999667,40.776270999902025],[-89.56052500019541,40.776485000177026],[-89.56072600003687,40.776631999670926],[-89.56081800009837,40.776758999929676],[-89.56107099981837,40.77711299994785],[-89.5613489996527,40.77750800019723],[-89.56153699997367,40.777809000201906],[-89.56173699999022,40.77816899981763],[-89.5619250003112,40.77855500033708],[-89.56215700011478,40.77897600014393],[-89.56238999974329,40.779396000063564],[-89.56266799957763,40.779792000276416],[-89.5630869998773,40.780752000042696],[-89.56332000040412,40.781173000209755],[-89.56347299966667,40.781627000068674],[-89.5635940000405,40.78192799977471],[-89.56362599982755,40.78213299974273],[-89.5636230003528,40.78243299998223],[-89.56357599959884,40.78267200012387],[-89.56349399958307,40.78300500028458],[-89.5634819998875,40.783062999747635],[-89.56341199956731,40.78336399974791],[-89.5632500000839,40.78390299966181],[-89.56316800006815,40.784261999712676],[-89.56300599968644,40.784740000256384],[-89.56292200002085,40.78530500009822],[-89.56272700002718,40.785722999758875],[-89.56272200000431,40.786235999734835],[-89.56256100034581,40.78662899980401],[-89.56255799997278,40.78689499990694],[-89.5623970003143,40.78725300028638],[-89.56226900026778,40.787732000201466],[-89.56223199955954,40.78815100003754],[-89.56210500023626,40.78851000025001],[-89.56200700032694,40.78893699966936],[-89.56185900018896,40.78946699978694],[-89.56182200037904,40.78986100024112],[-89.56169400033251,40.790365000203636],[-89.56157799998155,40.79072400000848],[-89.56141399995003,40.79141600006645],[-89.5612859999035,40.79189499987686],[-89.56122399997925,40.792120000095785],[-89.56116899972764,40.79232199997224],[-89.56108800043512,40.79262100001144],[-89.56108300041224,40.79286199968842],[-89.56108400023714,40.79298100027589],[-89.56092299968036,40.79333899980842],[-89.56087599982469,40.793613000084186],[-89.56076000037206,40.793996999818816],[-89.560756999999,40.79433100003468],[-89.56062999977739,40.794655999818914],[-89.56046800029401,40.79510799991],[-89.56035199994304,40.795527000127215],[-89.56031900033109,40.795619000078894],[-89.56022399989652,40.79588599990423],[-89.5601080004439,40.7963049999716],[-89.56006999991075,40.79672400011473],[-89.56005700039026,40.79692899997272],[-89.55990699970411,40.79740899980104],[-89.55990400022938,40.79753599977429],[-89.55982399986344,40.797809999729694],[-89.55961700017421,40.798272000066625],[-89.55952199973966,40.79890500015608],[-89.55949499997547,40.79909800028031],[-89.55920600027048,40.79948800011532],[-89.55864200020585,40.80046900033477],[-89.5585950003502,40.80055099994399],[-89.55827599960966,40.80100600022249],[-89.55798600007974,40.801374000171954],[-89.55758100002379,40.80191600026256],[-89.55697400030147,40.80252199975014],[-89.5561740002353,40.80316399974928],[-89.55576300033158,40.803493999734606],[-89.55535699955239,40.804036000192745],[-89.55463500020234,40.80479300004227],[-89.55414099955962,40.805551999868996],[-89.5536190002261,40.806224000162516],[-89.55280699956606,40.807437000125866],[-89.55199499980434,40.80858599972215],[-89.55150000023501,40.809497000027164],[-89.55138100040932,40.80995300032884],[-89.55115299990538,40.81078100029088],[-89.55087800044409,40.81169100024267],[-89.55087599989595,40.81185199979252],[-89.55087400024614,40.81208200031713],[-89.55074399965147,40.81271499991749],[-89.55066599983367,40.8129069998818],[-89.55043300020516,40.81328400009673],[-89.55022999981557,40.81356599979291],[-89.54991099997335,40.814020999907406],[-89.54930400025101,40.814713999912065],[-89.54869599980549,40.81538499980672],[-89.5484070001005,40.815688000273575],[-89.54808700043334,40.81629499983924],[-89.54799799984656,40.816599999668256],[-89.54747800016288,40.8170539999974],[-89.54626999966771,40.817655999763275],[-89.54577900029635,40.818109999663776],[-89.54517099985081,40.818802999784275],[-89.54485500038165,40.819018999683855],[-89.54445199997551,40.8191690002578],[-89.5443039998375,40.819345000290284],[-89.54398300034545,40.8195569997248],[-89.54287100010974,40.820292999864904],[-89.54142699961302,40.8212490000829],[-89.54130199993955,40.821604000151986],[-89.54026099984897,40.82459500008039],[-89.5396490001038,40.826348999759794],[-89.53926699961404,40.82744600013954],[-89.53895399961961,40.82778400016297],[-89.53675799963561,40.830157000014474],[-89.53601299982104,40.831146000281095],[-89.53557099995516,40.83184700013279],[-89.53479799965316,40.83291899986571],[-89.53400000013514,40.83382500006776],[-89.53339000003977,40.834439999857096],[-89.5326800003853,40.835230000294295],[-89.53212899984116,40.83569699994786],[-89.53152399976865,40.83637700019439],[-89.53102900019934,40.83680799992343],[-89.53064300040997,40.83734400024856],[-89.53004599983508,40.83789699995094],[-89.52911400042274,40.83918400014949],[-89.5286330001988,40.83992400013576],[-89.52810599994412,40.84055800013976],[-89.52753500020683,40.84127199971206],[-89.52720100029597,40.841763999778486],[-89.52674400036149,40.8422859999584],[-89.52858799999296,40.845883999941385],[-89.52811299961681,40.84762000033745],[-89.52790299955453,40.848387000135304],[-89.52767900014686,40.84920200023145],[-89.52758999956008,40.84952799990944],[-89.52659000037569,40.85318500033375],[-89.52655199984254,40.85327600032918],[-89.52652599990328,40.853308000155984],[-89.52645800013121,40.85337199976325],[-89.52639899968166,40.85342300031903],[-89.52627200035838,40.85349899996869],[-89.5261960001904,40.85353599991855],[-89.52605200025036,40.8535930000763],[-89.52591699963283,40.85365000018507],[-89.52574799957841,40.85371299996209],[-89.5256129998592,40.853775999679215],[-89.52547700031509,40.85382599974641],[-89.52535099991839,40.85388300033414],[-89.5250639998632,40.85397699989698],[-89.52486100037193,40.85405300027003],[-89.52483200005962,40.85406199979885],[-89.52458900038538,40.854143000259334],[-89.5245419996314,40.85416700032643],[-89.5244859995549,40.85423199995485],[-89.52443299985144,40.854326999872036],[-89.52437000010225,40.854543999729735],[-89.52426999964484,40.85486299984889],[-89.5241550000171,40.855211999742735],[-89.52411900003209,40.85534299975784],[-89.52407200017643,40.8555040000129],[-89.5240570001078,40.85570300012506],[-89.52404100021428,40.8558370002906],[-89.5240269999706,40.85599400012451],[-89.52402500032076,40.85620700007031],[-89.52401199990197,40.856368999723735],[-89.52401000025215,40.856511999776444],[-89.52397599991696,40.85672299982733],[-89.52377900027348,40.856996999936925],[-89.52348600037051,40.85725099979501],[-89.52306000039816,40.85749199980846],[-89.52243299968603,40.85783500009742],[-89.52153700025872,40.85831799986406],[-89.52009899960979,40.85889400014254],[-89.51934499957437,40.85929000027368],[-89.5185439996833,40.85981200031903],[-89.51824900013052,40.86005099968011],[-89.51769500011164,40.860311999936044],[-89.51723800017716,40.86056399983981],[-89.5168549998625,40.86082600018441],[-89.51623999974427,40.861222999701525],[-89.51559799986185,40.86152299978428],[-89.51483100030597,40.862016999749635],[-89.51449400002207,40.86231700031239],[-89.51403299988964,40.862640999910184],[-89.51380199991094,40.86281399991655],[-89.51349300011447,40.863058000186236],[-89.51295099979116,40.86355499966486],[-89.51243600013035,40.86397699974313],[-89.51120300041913,40.86477900016296],[-89.51045299968337,40.86525400020554],[-89.50984799961088,40.8655110003343],[-89.50963199970083,40.86564799967819],[-89.50929799978996,40.86586499981438],[-89.50916300007074,40.865933000177186],[-89.50807099992655,40.866398000217394],[-89.50774600023654,40.86656599999441],[-89.50758899987768,40.866681000238984],[-89.50728500010408,40.866780999875836],[-89.50696799991167,40.866952999957675],[-89.50647900019013,40.86716000013135],[-89.50607599978402,40.86733999969728],[-89.50587300029272,40.86753499969395],[-89.50556399959794,40.867726999892575],[-89.50500799992925,40.8680740000175],[-89.50454699979679,40.86833200003004],[-89.50448900007048,40.86839700002478],[-89.5042870004041,40.86852599986708],[-89.5040549997022,40.868786000060034],[-89.50379100011156,40.869045999911414],[-89.50363600030086,40.86916299981718],[-89.50331699956033,40.869382999811634],[-89.5032939999941,40.86940899967622],[-89.5030050002891,40.86972600033957],[-89.50285100030331,40.869984999962874],[-89.50275500004383,40.87008599997677],[-89.50240500023946,40.87041900031012],[-89.50203899964328,40.870820999668595],[-89.50176599983179,40.87107099982994],[-89.50157599986099,40.8712520002271],[-89.50150899991384,40.87130200000942],[-89.50141900040046,40.871400000315525],[-89.50124399959998,40.8715610002609],[-89.50108999961418,40.87170599993577],[-89.50099799955268,40.87179200008944],[-89.50080699975697,40.87196300015798],[-89.5006839997333,40.872060000262685],[-89.50030999963951,40.87236999981965],[-89.50010600032331,40.87258100029845],[-89.50002299958433,40.87265400002422],[-89.49986299975076,40.87282900014641],[-89.49955300012937,40.87314299972234],[-89.49947299976343,40.873252999991706],[-89.4993170001278,40.87342799988913],[-89.49909700001977,40.87366499994441],[-89.49897999984391,40.873797999896105],[-89.49886000019332,40.873916999983926],[-89.49875700026115,40.87406299980513],[-89.49872700012392,40.8741030001094],[-89.49871000040548,40.87412300025245],[-89.49870399965938,40.874130999900466],[-89.49841699960422,40.8744200000357],[-89.49835700022808,40.874541999958545],[-89.49831799987001,40.87458000024495],[-89.49810799980771,40.87492699977756],[-89.49806699979985,40.87498499972561],[-89.49803500001279,40.87503599994243],[-89.49801699957113,40.87506599973195],[-89.49790199994341,40.87523600032033],[-89.49786500013347,40.87529800009065],[-89.49775600035353,40.875459999917595],[-89.49767900036065,40.87560400003477],[-89.49765699972102,40.87564099986335],[-89.49755799998681,40.8758179999321],[-89.49703900012805,40.87642199966243],[-89.49691699992931,40.87670500031324],[-89.49687900029447,40.876787000083745],[-89.49680200030159,40.87690700006178],[-89.49675899974555,40.87696699996927],[-89.49650400037577,40.87733200010245],[-89.49622599964309,40.87775899976392],[-89.4960430002433,40.878052000289266],[-89.49589500010529,40.878293999812385],[-89.49579999967074,40.87848099967154],[-89.49574399959424,40.87859199970492],[-89.49567499999728,40.87873000031299],[-89.49562999979142,40.87882200033207],[-89.49556799986715,40.87893100019661],[-89.49547599980565,40.8791439997316],[-89.49535699997995,40.87942400023963],[-89.49526499991845,40.87969599990948],[-89.49517600022999,40.879929999909635],[-89.49507199957459,40.880242999986564],[-89.49504700035855,40.88033599971772],[-89.49498299988615,40.88045900005967],[-89.49494400042639,40.880516000140666],[-89.49485999986248,40.880725000244006],[-89.49478600024266,40.880850999851006],[-89.49469500000605,40.88107899988845],[-89.49459500044695,40.88130399985254],[-89.49454199984518,40.88149000027769],[-89.49448400011886,40.881581999856614],[-89.49425099959204,40.88217200008133],[-89.49418899966776,40.88259000003674],[-89.49400000042019,40.88308299999346],[-89.49384800008423,40.883464999848435],[-89.49371099981687,40.88377600005778],[-89.49349900010476,40.8842080002101],[-89.49322600029329,40.88463899986765],[-89.49301299985797,40.884998000203545],[-89.49260500032726,40.88581799994535],[-89.49250499986985,40.88603400016109],[-89.49235099988405,40.886357999841906],[-89.4922980001806,40.88662499977006],[-89.49224499957884,40.88683499995631],[-89.49216799958594,40.88706400010806],[-89.49213900017195,40.887349999774884],[-89.49206200017906,40.88752200007154],[-89.49205999963092,40.88769399992119],[-89.4920579999811,40.887942000196574],[-89.4919530003991,40.88830500025744],[-89.49185600031473,40.88865799977436],[-89.49180100006315,40.889049000253976],[-89.49178400034471,40.88947899998262],[-89.49174900018461,40.88975299970402],[-89.49171599967433,40.89000399998472],[-89.49165899977292,40.89061500004294],[-89.49160500024458,40.89104499978114],[-89.4915369995742,40.89152200006369],[-89.49145600028166,40.89203700007425],[-89.49143600019015,40.892743999776876],[-89.49136900024301,40.89315400011991],[-89.49126100028798,40.8939279999863],[-89.49124700004427,40.89397399997408],[-89.4911430002872,40.894328000049526],[-89.49100099999698,40.89468100002832],[-89.49079500013266,40.895119000330546],[-89.49057699967446,40.89551899998315],[-89.49035900011458,40.89588099967534],[-89.49010300002153,40.896309000068484],[-89.4898469999285,40.8967089999951],[-89.48952700026135,40.897223000169426],[-89.48924500022905,40.8977470003207],[-89.48907699999955,40.898136999864136],[-89.48878300027168,40.898631999786225],[-89.4886369997835,40.898783999798034],[-89.48852800000354,40.89889800025673],[-89.4880600001984,40.89911500004486],[-89.48744900027813,40.89918899987555],[-89.48709799975055,40.89925699995897],[-89.48675100031922,40.89932399980301],[-89.48633200001956,40.89943000002577],[-89.48572399957402,40.90004600005914],[-89.48545699961032,40.900316000214296],[-89.48538899983825,40.90040099970812],[-89.4849550003683,40.900942999702856],[-89.48449599988568,40.90151700030422],[-89.48396000030849,40.90218599983116],[-89.48328499991578,40.90328099992152],[-89.48317600013583,40.90343900007794],[-89.48252300038278,40.904342999851],[-89.48198600008233,40.905242999847445],[-89.4814620002007,40.90613600003077],[-89.48096000006035,40.90699199976491],[-89.4806529999137,40.907514999875694],[-89.48052499986719,40.90773399999156],[-89.48035699963769,40.90791700000637],[-89.47953200035548,40.908818000269946],[-89.47931100042253,40.90905799993554],[-89.4790820000937,40.90930800027323],[-89.4785690000827,40.909637000100034],[-89.4780979999045,40.909939000091015],[-89.47742500005995,40.91050900000658],[-89.47640300023593,40.911374000043935],[-89.47559099957589,40.912062999870514],[-89.47550100006252,40.91219700002062],[-89.47541999987168,40.912318000252085],[-89.474964999587,40.91299800008196],[-89.4749500004167,40.9130199999357],[-89.47478700021009,40.91326499975618],[-89.47469699979841,40.91346799987005],[-89.47467199968403,40.91352500002736],[-89.4746330002243,40.913614999961354],[-89.47456100025427,40.913778000299274],[-89.47451500022352,40.91388199985921],[-89.47448699973611,40.91394599997707],[-89.47425199955948,40.91448100003423],[-89.47416100022119,40.91476699997146],[-89.4740640001368,40.915043000033705],[-89.47404300022042,40.915134999798404],[-89.47399100034188,40.91536800012758],[-89.473950000334,40.91564500031865],[-89.47393500026539,40.915902000298566],[-89.47391799964862,40.9163230000454],[-89.47387599981583,40.91671399992431],[-89.47382300011239,40.91701000008279],[-89.47379399980008,40.91736299983689],[-89.47374000027172,40.91768800006488],[-89.47369500006586,40.91797399970399],[-89.47369099986791,40.91836599988103],[-89.47368900021809,40.918562999994506],[-89.47366800030169,40.91887400016391],[-89.47365700043103,40.91924499981183],[-89.47361700024805,40.919608999696784],[-89.47350500009507,40.919973000292316],[-89.47339999961477,40.9202989997582],[-89.4730499998104,40.920791999733424],[-89.47265899999816,40.921120000269745],[-89.4725219997308,40.921205000174155],[-89.47222700017802,40.92138699972178],[-89.47213900031447,40.92144200016895],[-89.47139100012684,40.9218669999214],[-89.47034099981543,40.922347999850146],[-89.4695430002974,40.92278300006914],[-89.46870700024623,40.92323600007658],[-89.46794700036304,40.9236709998809],[-89.46751600036781,40.9239460003007],[-89.46697599969433,40.92430700003534],[-89.46669100018728,40.92447599989336],[-89.46613399979537,40.92479699994787],[-89.46552500042323,40.92520399977124],[-89.46548699989008,40.92523000010338],[-89.46505500006994,40.9255260001352],[-89.46465099983891,40.92588600029484],[-89.46437499965438,40.92604199984548],[-89.4640580003603,40.92652800007887],[-89.46400899995649,40.926611000301854],[-89.46399200023805,40.92663799983675],[-89.46394200000934,40.92672199967662],[-89.4639260001158,40.926750000278254],[-89.46373699996992,40.927069999718064],[-89.46355100019709,40.92748300029319],[-89.46328000003543,40.92780699988906],[-89.46272000016879,40.92812000014554],[-89.46260499964274,40.92818400005229],[-89.46256500035808,40.92821700005421],[-89.46193000014837,40.928737000047505],[-89.46157000029824,40.929204000082976],[-89.46155500022964,40.92922199974649],[-89.46146900001591,40.92933199977073],[-89.46138399962709,40.929443000004376],[-89.46097899957114,40.92996299985123],[-89.45961100014073,40.93198900029916],[-89.45936799956817,40.93230900015697],[-89.45912599971882,40.93262899982223],[-89.45886100030327,40.932978000311465],[-89.45884000038687,40.93299600030421],[-89.45873200043185,40.93308600019435],[-89.45862299975359,40.9331759999619],[-89.45804199997053,40.933661999981254],[-89.45788399978679,40.93375099999406],[-89.45635499979957,40.934612000027776],[-89.45620400018683,40.93474099973069],[-89.45530600021138,40.93550699975375],[-89.45445300044176,40.93751200028046],[-89.45399399995914,40.93953799995501],[-89.45400800020283,40.9396429999352],[-89.45417300005928,40.94092200033742],[-89.45477800013177,40.94227500018699],[-89.45516300009625,40.94313599972474],[-89.45527100005127,40.943869999973344],[-89.45538700040223,40.94466399978191],[-89.45531299988406,40.945390000160074],[-89.45506299963881,40.94647099995166],[-89.45287300040091,40.95084800017719],[-89.45211599999246,40.952175999683305],[-89.45176799983791,40.95278599988258],[-89.45136000030723,40.95350400029438],[-89.44994799959755,40.955982999930946],[-89.44853499996128,40.95846100014275],[-89.44845399977045,40.95860200016572],[-89.44812599970737,40.95917899988795],[-89.44784000037542,40.96072000007722],[-89.4479790002926,40.962973999927726],[-89.44806100030837,40.963307000052595],[-89.44823899968529,40.96402599986161],[-89.44886300002436,40.96593800012263],[-89.44923100027037,40.96711899983102],[-89.44926899990521,40.96827799966769],[-89.4490780001095,40.969460000015005],[-89.44896699978142,40.97014899987761],[-89.4487469996734,40.97087699967056],[-89.44851999989268,40.971635000321584],[-89.44827600039352,40.97211000022821],[-89.44798400031549,40.97267800019617],[-89.44769300006233,40.97324600002179],[-89.44782299975867,40.97324699975088],[-89.4480910004456,40.97324600002179],[-89.44875500006931,40.97324500029263],[-89.44928800017179,40.97324300015611],[-89.44968700037997,40.97324300015611],[-89.45044600043825,40.97324199974875],[-89.452724000438,40.97323800015367],[-89.45348400032118,40.97323800015367],[-89.4553010001885,40.97323399988016],[-89.45602099988874,40.97323399988016],[-89.45642500011976,40.97323300015087],[-89.46736800022981,40.97322100000694],[-89.47338600026937,40.97321399986544],[-89.475008000143,40.97321199972799],[-89.47531500028968,40.97321199972799],[-89.47562200043636,40.97321099999836],[-89.47622999998357,40.97321000026872],[-89.47672700010104,40.97320899986081],[-89.47695499970666,40.97320899986081],[-89.48397799985182,40.97320000025848],[-89.48773999963296,40.973180000233405],[-89.4888540004168,40.9732059999935],[-89.48942000013123,40.97322000027744],[-89.49144000038811,40.97323000028465],[-89.4921990004464,40.97321500027327],[-89.49305999971361,40.97320000025848],[-89.49331499998175,40.973198000120604],[-89.49363299999906,40.973195000252794],[-89.49548599985138,40.97318199969362],[-89.49795299999703,40.97317800009492],[-89.50740200027995,40.97313800002546],[-89.50887900038863,40.97313399974588],[-89.50889399955892,40.97313399974588],[-89.51019599976543,40.97313200028425],[-89.51493800043609,40.97312899973519],[-89.51595500023723,40.973125000133265],[-89.52221400030125,40.97311700025055],[-89.52438699982069,40.97311500011015],[-89.52924400011908,40.973153999784856],[-89.53055100034845,40.973165999940974],[-89.53300500007532,40.97318500024023],[-89.53389899985281,40.97319199970659],[-89.53401900040171,40.97319300011476],[-89.53403600012015,40.97319300011476],[-89.53413900005232,40.97319399984465],[-89.53880499965669,40.97323199974331],[-89.5412700001525,40.97325199975263],[-89.54217099960269,40.973258999890085],[-89.54353999975633,40.97327000029838],[-89.54359900020589,40.97327000029838],[-89.54540600002746,40.97326600002681],[-89.54545100023329,40.97326600002681],[-89.54842999966671,40.973258999890085],[-89.55316399994145,40.97324800015816],[-89.55335999976002,40.97326000029723],[-89.55395999980965,40.97328000029801],[-89.55399699961957,40.973278999891164],[-89.5563919997952,40.97327000029838],[-89.55645999956725,40.97327000029838],[-89.55701000028648,40.97325000029452],[-89.55719000021153,40.973240000290346],[-89.55722000034876,40.9732369997462],[-89.5574470001295,40.97321300013584],[-89.55773800038261,40.97320500026379],[-89.55795699976743,40.973223999873554],[-89.56024099961496,40.97324399988529],[-89.56055199995959,40.97324500029263],[-89.56126300033729,40.973228000147685],[-89.56348000023767,40.97322000027744],[-89.56738000011109,40.97325000029452],[-89.57221300012002,40.973278999891164],[-89.57256999959708,40.97328100002659],[-89.57260300010736,40.97328199975515],[-89.57739099991046,40.97331699974091],[-89.57972099978876,40.973335000268925],[-89.57982200007109,40.973335000268925],[-89.58032599986126,40.97333899985807],[-89.58118399965373,40.97334500025871],[-89.58153000015847,40.9733480001197],[-89.5863620003425,40.973341999719324],[-89.58821900039278,40.97333599999667],[-89.5898329998705,40.97332800013953],[-89.5906649997237,40.973328999867384],[-89.5912699997962,40.9733100002878],[-89.59161899977568,40.973266999755594],[-89.59178199998227,40.97326399989092],[-89.59215500025118,40.973263000162085],[-89.59385800031568,40.97326000029723],[-89.59678900006851,40.973298999886175],[-89.59778900015121,40.973298999886175],[-89.59920900035847,40.97331300015044],[-89.59971599962337,40.97331800014718],[-89.5998999997464,40.97332000028142],[-89.60023600020537,40.973326000005535],[-89.60085299997344,40.9733369997244],[-89.60091400007278,40.97333899985807],[-89.60179899962947,40.9733580001075],[-89.60185999972883,40.97336000024053],[-89.60232000003636,40.973380000211044],[-89.6023860001586,40.973383000070434],[-89.60258700000004,40.97339200032606],[-89.6026539999472,40.97339500018491],[-89.60342999972391,40.97343000011067],[-89.60442999980663,40.97342000013377],[-89.60527000005575,40.973390000193994],[-89.60614000044214,40.97337000022652],[-89.61032999984545,40.97343000011067],[-89.61049999972474,40.97343000011067],[-89.61677100038264,40.97352900007153],[-89.61822199965373,40.97352900007153],[-89.61942199975297,40.9735589999481],[-89.62026200000211,40.97354899999076],[-89.6240830002328,40.97359899976235],[-89.62597399971993,40.97356899990397],[-89.62763400012672,40.97356899990397],[-89.62967500030001,40.97359899976235],[-89.63002299955625,40.97358899981107],[-89.63062000013115,40.97360000016434],[-89.6321879995781,40.97362299991052],[-89.63398000022936,40.973649999897276],[-89.63532000007069,40.973649999897276],[-89.63689199971562,40.97368300024283],[-89.63816999963267,40.973710000205024],[-89.63846099988581,40.973705999960124],[-89.63864500000882,40.97370699968225],[-89.63868400036688,40.97370699968225],[-89.63872700002459,40.97370699968225],[-89.64045400037854,40.97371800001585],[-89.64168600026483,40.973727000225765],[-89.64284799983092,40.973727000225765],[-89.64433599981025,40.97373500003452],[-89.64575199981958,40.97373700015612],[-89.64729400022559,40.97373999999929],[-89.64751900035647,40.973740999720896],[-89.64815799986584,40.97374499996367],[-89.64927599994932,40.97375299977024],[-89.65007799966531,40.97375299977024],[-89.65071899972281,40.973754000169905],[-89.65214700032601,40.973759000133235],[-89.65487700023738,40.97376999977996],[-89.65643399981369,40.97377100017931],[-89.65786300024179,40.97377199990044],[-89.658074000129,40.97377699986245],[-89.65986300040721,40.97378600006433],[-89.66158300019013,40.97379800010549],[-89.66173200015305,40.9737969997065],[-89.66496400020476,40.97378899990526],[-89.66660299979682,40.973779999703794],[-89.67182699961805,40.97378899990526],[-89.67302000004459,40.97378600006433],[-89.67334200025986,40.97378300022326],[-89.6740069997085,40.973778999982784],[-89.6755340000459,40.97378399994421],[-89.67708300012458,40.973781999824034],[-89.67721199999603,40.973781000103045],[-89.67894299964962,40.973781999824034],[-89.67919000042012,40.973781999824034],[-89.68083400003508,40.97378899990526],[-89.68268799971231,40.97378499966514],[-89.68362900024377,40.97377699986245],[-89.6850109999179,40.97378699978523],[-89.68512399989581,40.97378499966514],[-89.6854260000196,40.973781999824034],[-89.68631700032235,40.973779999703794],[-89.68692900006755,40.97378399994421],[-89.68710200031991,40.97378499966514],[-89.68728200024496,40.97378499966514],[-89.68782500039319,40.97378600006433],[-89.6878689998758,40.97378699978523],[-89.68800699996807,40.97378699978523],[-89.68971800042847,40.97378300022326],[-89.69065499986368,40.973781999824034],[-89.69367199983023,40.973798999826215],[-89.69485199983798,40.973798999826215],[-89.69489399967078,40.97380000022518],[-89.69588399970773,40.973805999905636],[-89.6965640001233,40.97379300014513],[-89.6980629999733,40.973810000144475],[-89.69864200010653,40.97380700030449],[-89.69918000023185,40.97380500018502],[-89.70130800044379,40.973805999905636],[-89.70160999966927,40.97381299998432],[-89.70395700016432,40.97382099978265],[-89.70487699988108,40.973820000062254],[-89.70678900018295,40.973817999943165],[-89.7068219997949,40.97381899966359],[-89.7069559996892,40.973820000062254],[-89.70709799997944,40.973820000062254],[-89.70752700032483,40.97382299990164],[-89.70755800028697,40.97382400030024],[-89.70767000043996,40.97382400030024],[-89.7093219995525,40.973827999859736],[-89.71236799983139,40.973836000334494],[-89.71368400028159,40.973834000215895],[-89.71428000013323,40.973836000334494],[-89.71593299996903,40.973844999850115],[-89.71601400015987,40.9738410002916],[-89.71625699983412,40.973829000258256],[-89.71633899984988,40.97382599974089],[-89.71794700037815,40.97383499993608],[-89.71905600024078,40.97383200009723],[-89.71991700040633,40.97382999997851],[-89.72176699988559,40.973837000054644],[-89.72367900018746,40.973830999698755],[-89.72554399973534,40.973842999731794],[-89.72698400003408,40.973837000054644],[-89.72720699961684,40.973837000054644],[-89.72972900001409,40.97384799968837],[-89.72992499983266,40.97384900008654],[-89.7309690002963,40.973851999924655],[-89.73225499971095,40.973856999880546],[-89.73410300043871,40.97386600007151],[-89.73514799982895,40.97387199974596],[-89.73521200030136,40.97387199974596],[-89.73540399992199,40.97387199974596],[-89.73546900021931,40.97387300014382],[-89.73730000033034,40.973888000005594],[-89.73732500044468,40.973888000005594],[-89.74109700027155,40.97389399967805],[-89.7428959996972,40.973900999747386],[-89.7447539995724,40.97390999993234],[-89.74579200018825,40.97390999993234],[-89.74655999956904,40.97390999993234],[-89.74789100008786,40.97390299986396],[-89.74890600023917,40.973907000096915],[-89.74983000015389,40.97391200004863],[-89.74994399995671,40.97391299976764],[-89.75042699983048,40.97391900011606],[-89.75087799991718,40.97392600018275],[-89.7511189999416,40.973929999736114],[-89.75198500013,40.97392900001738],[-89.75368099962348,40.97393499968611],[-89.75461600030718,40.97393899991711],[-89.7556099996438,40.97393899991711],[-89.75614199992135,40.973943000147884],[-89.75692100007112,40.97395000021203],[-89.75819899998817,40.97397499995058],[-89.76027600014648,40.97400399990678],[-89.76072200021031,40.97401199968194],[-89.76105399957302,40.974018000021374],[-89.76211700030322,40.97404499984641],[-89.76224899964939,40.97404799967557],[-89.76240199981025,40.97405100018284],[-89.76286299994273,40.97406199978083],[-89.76294900015645,40.97406500028746],[-89.7630169999285,40.97406600000414],[-89.76333199957277,40.97406800011571],[-89.76337400030388,40.97406899983234],[-89.7642770003022,40.97408900026611],[-89.76449900006006,40.97409499992034],[-89.76459199994648,40.97409700003103],[-89.76477400041966,40.97410100025221],[-89.76512300039911,40.97410800029959],[-89.76689699971041,40.97414299984708],[-89.76928199984029,40.97419099973896],[-89.77365100024207,40.9742779999626],[-89.77417299957555,40.97428799980944],[-89.77438500018599,40.974289999914284],[-89.77894700003327,40.97433400017057],[-89.78371999976777,40.97437900010951],[-89.78933199992647,40.97443199974198],[-89.78972199991382,40.9744409998545],[-89.7911410002962,40.974452999776524],[-89.79283699978966,40.97447700029226],[-89.7930150000649,40.974473999804374],[-89.79369499958214,40.97446300027508],[-89.79663600027904,40.97448200020079],[-89.79692800035707,40.974485000010084],[-89.80036000042534,40.974519000326005],[-89.80056399974151,40.97452099974559],[-89.8104189999053,40.97462000010393],[-89.81179599955655,40.9746489997766],[-89.8124040000021,40.97465099987049],[-89.8129310002568,40.97466100033903],[-89.81310000031118,40.97466299975432],[-89.81353799997912,40.974669999742055],[-89.81566500036612,40.97469099970084],[-89.81636300032503,40.97470899985396],[-89.81708300002525,40.974727999708826],[-89.82204099970768,40.97479699977833],[-89.82261399999312,40.97480300004636],[-89.82589899974828,40.97484299978454],[-89.82913099979999,40.97488300017675],[-89.8309750003298,40.97489299993189],[-89.83126499985971,40.97489000014115],[-89.83153400037152,40.97489200022774],[-89.83165400002213,40.97489299993189],[-89.83622199971721,40.97491000032602],[-89.83668200002475,40.974911999733756],[-89.84092199965677,40.974927999741155],[-89.842458000215,40.97493399999727],[-89.84475799995604,40.974943000041286],[-89.84515600033932,40.97494399974467],[-89.84530699995204,40.97494500012626],[-89.8454869998771,40.974945999829615],[-89.8455429999536,40.974945999829615],[-89.8503090000154,40.97496300021009],[-89.86053599972486,40.975000999768085],[-89.86230499991159,40.97500700001756],[-89.8693880003312,40.975032999735824],[-89.86940699969946,40.975032999735824],[-89.86952700024838,40.975032999735824],[-89.87297900040812,40.975036999900254],[-89.873084999815,40.975036999900254],[-89.87845299957625,40.97504300014646],[-89.87898400002891,40.97504300014646],[-89.87925500019055,40.97504399984832],[-89.87959300029935,40.97504399984832],[-89.87972399982061,40.97504399984832],[-89.88664200038379,40.97505099979563],[-89.88693899958639,40.97505099979563],[-89.8884459998323,40.97505299987734],[-89.89491499995857,40.97505499995898],[-89.90172700021655,40.97502300000191],[-89.90283299970613,40.975013000266486],[-89.9076449997987,40.974970000165996],[-89.90773500021038,40.97496899978478],[-89.90801600041777,40.97496899978478],[-89.9084690001543,40.97496699970053],[-89.90878700017164,40.974963999913165],[-89.91404199995497,40.974963999913165],[-89.91687999982138,40.9749420003379],[-89.92227600007001,40.974927999741155],[-89.92440099990891,40.974904999771695],[-89.92723299992754,40.97488899975872],[-89.92736599999692,40.97487800029862],[-89.92779600016723,40.97485800010401],[-89.92919899975776,40.974853999928705],[-89.92935699994149,40.97485300022397],[-89.92944499980506,40.97486200027905],[-89.93096700011957,40.974869000245675],[-89.93365699984798,40.97480900031384],[-89.937058999779,40.974775000147375],[-89.93961200013837,40.974740999963345],[-89.94499900016618,40.9747240002039],[-89.94642000019837,40.97471200033117],[-89.94662900043573,40.97471000023913],[-89.94680599998776,40.97470699976183],[-89.94693499985917,40.97470499966964],[-89.94782600016195,40.97469200008627],[-89.95619699964602,40.97468599980815],[-89.9563070001492,40.97468099991509],[-89.95647899967832,40.97467300022104],[-89.95987800013461,40.97465099987049],[-89.96318200015635,40.974641999786634],[-89.96675899998957,40.9746319999934],[-89.96897300041523,40.97462599970982],[-89.97197100011519,40.97458799993586],[-89.97343099960713,40.97456999974972],[-89.97369099989812,40.9745669999443],[-89.97554299992552,40.97454800004307],[-89.98450199976368,40.97450300021941],[-89.98547900028015,40.974494999825545],[-89.98548000010507,40.97440000016091],[-89.98547199970916,40.974051999899736],[-89.98546099983851,40.97389000012255],[-89.98546599986138,40.97380199966657],[-89.98548099992998,40.9735710000306],[-89.98548099992998,40.97354199988406],[-89.98548099992998,40.973462999888056],[-89.9854829995798,40.97285899995144],[-89.98548500012795,40.97171000010583],[-89.98548699977778,40.97047200000004],[-89.98549099997574,40.96864899998564],[-89.98549299962556,40.96781300013367],[-89.98549400034877,40.96730700000439],[-89.98550100002147,40.96376799996614],[-89.98550199984638,40.9630950001165],[-89.98550600004435,40.96127899985851],[-89.98550600004435,40.961116000012],[-89.98550600004435,40.96097900027085],[-89.98550699986926,40.96057999975108],[-89.98550699986926,40.960260999754574],[-89.98550699986926,40.96022900008451],[-89.98550600004435,40.959813000248495],[-89.98550400039451,40.958370000275956],[-89.9855029996713,40.957883000287914],[-89.9855029996713,40.957802999897496],[-89.9855029996713,40.95766799999406],[-89.98550199984638,40.95736399971824],[-89.98550000019655,40.95573299975829],[-89.98549900037166,40.95537800009802],[-89.9855090004174,40.955193999874574],[-89.98551199989213,40.95515299975494],[-89.98551699991499,40.9550970002288],[-89.98555100025018,40.954813999825184],[-89.98555500044814,40.954715000279755],[-89.98556399977068,40.954594999665474],[-89.98555399972493,40.95433200013994],[-89.98555000042528,40.953905000211165],[-89.98554799987713,40.9535440000537],[-89.98554299985426,40.95298499989731],[-89.98553700000649,40.95203500018225],[-89.98554700005222,40.951475000080976],[-89.98555600027306,40.95101100027587],[-89.98555500044814,40.95066500029034],[-89.98555399972493,40.950451999705436],[-89.98555600027306,40.949885999927936],[-89.98555500044814,40.94981899976018],[-89.98555100025018,40.949520999830916],[-89.98558100038743,40.94792100026527],[-89.9855870002352,40.94728199974789],[-89.98558999970993,40.947025999794526],[-89.98556899979353,40.94643700011159],[-89.98555600027306,40.94631099991316],[-89.98552899961058,40.9460540001256],[-89.9855090004174,40.94585299996697],[-89.9854829995798,40.94562399982044],[-89.9854829995798,40.945498000106355],[-89.9854829995798,40.94526799993292],[-89.9854829995798,40.94454200024914],[-89.9854829995798,40.94237699997595],[-89.9854829995798,40.941990000061445],[-89.9854829995798,40.94183000002339],[-89.9854829995798,40.94149400017465],[-89.9854829995798,40.94042899989475],[-89.9854829995798,40.940269000146614],[-89.9854829995798,40.94012700009643],[-89.9854829995798,40.939833999677965],[-89.9854829995798,40.939520999948975],[-89.9854829995798,40.93865000029177],[-89.9854829995798,40.93848299987352],[-89.98548099992998,40.937866000050754],[-89.98547900028015,40.937267000080006],[-89.9854829995798,40.93718899968979],[-89.98550199984638,40.9367799998335],[-89.9855110000672,40.93658200012661],[-89.98550799969416,40.93649099996285],[-89.98550600004435,40.93636200028405],[-89.98550600004435,40.936219999978086],[-89.98550699986926,40.936130000285615],[-89.98550699986926,40.93604400028399],[-89.9855090004174,40.9358870003],[-89.98550799969416,40.93578800020035],[-89.98550799969416,40.9357030000513],[-89.9854950001737,40.93545600000338],[-89.9854829995798,40.93519500018566],[-89.98547300043238,40.93499299992303],[-89.9854750000822,40.934716999694565],[-89.98547699973201,40.93447099966977],[-89.98548500012795,40.93411500006437],[-89.98549099997574,40.93381800017627],[-89.98546400021156,40.93184900012853],[-89.98546300038664,40.931336000026924],[-89.98546300038664,40.93124900020602],[-89.98546300038664,40.93121000020231],[-89.98546099983851,40.929620000027924],[-89.98545800036376,40.92705700025458],[-89.98545699964055,40.92581499978135],[-89.98545599981563,40.92553200013129],[-89.98546599986138,40.924862000141225],[-89.9854540001658,40.92327700032858],[-89.98544999996784,40.9227090001684],[-89.98544900014294,40.92101299967561],[-89.98544999996784,40.920448999821794],[-89.98544800031802,40.91972099983244],[-89.98544499994497,40.91754399988739],[-89.98544699959481,40.916820000105865],[-89.98547300043238,40.91509499985739],[-89.98543400007432,40.91302599970938],[-89.98542599967841,40.91090400030525],[-89.98542300020367,40.90991099983511],[-89.98541499980776,40.90820499989443],[-89.98541499980776,40.907787000174075],[-89.98540999978488,40.90648000026577],[-89.98540999978488,40.9060609997577],[-89.98540700031015,40.90566400025403],[-89.98540300011219,40.9041530001342],[-89.98540599958692,40.90301600021697],[-89.98539499971625,40.90225900017486],[-89.9853970002644,40.90155100017647],[-89.98540200028727,40.89954100023064],[-89.98540099956405,40.898771999702625],[-89.98540399993709,40.898367999971846],[-89.9854109996098,40.895707999833206],[-89.985412000333,40.89495199990932],[-89.985412000333,40.89348800011135],[-89.98542300020367,40.88910399975916],[-89.98542900005145,40.88764499996219],[-89.98542800022655,40.88620199969054],[-89.98542999987637,40.88187699994722],[-89.98542499985349,40.88041199972962],[-89.98542400002859,40.880297000240716],[-89.98541999983061,40.87987300000321],[-89.98542099965553,40.879774000227854],[-89.98542200037876,40.87973499974055],[-89.98541499980776,40.87940599992238],[-89.9853970002644,40.87841900016541],[-89.98539300006644,40.87809200022096],[-89.9853899996934,40.87793499978992],[-89.9853899996934,40.87747300008212],[-89.98539200024153,40.87732199983717],[-89.98539100041661,40.877080000156745],[-89.98539499971625,40.876360000265585],[-89.9853970002644,40.87616499976814],[-89.9853970002644,40.8761190003055],[-89.98537999964766,40.87592799983234],[-89.98537999964766,40.875569999733486],[-89.98538200019578,40.875413000113454],[-89.98539300006644,40.87497200021012],[-89.98539100041661,40.8746239996913],[-89.98538200019578,40.87392500033605],[-89.98537899982274,40.87337799967452],[-89.98537399979986,40.873190999664736],[-89.98536799995208,40.872798000131326],[-89.9853770001729,40.87257500025229],[-89.9853830000207,40.872471000271176],[-89.98537799999782,40.87147200007367],[-89.98538399984562,40.870830000315756],[-89.98538200019578,40.870246999720806],[-89.98538100037086,40.87016799979404],[-89.98537299997496,40.86939699968776],[-89.98537299997496,40.86936799998963],[-89.98537899982274,40.86887800031226],[-89.9853970002644,40.86740899987671],[-89.98540300011219,40.86691999994896],[-89.98540099956405,40.86659800019477],[-89.98539499971625,40.865633999688804],[-89.98539399989136,40.86531299979993],[-89.98538800004357,40.86393600009008],[-89.98537399979986,40.85980900005718],[-89.98537200015004,40.85843400027102],[-89.98536499957903,40.85731699991967],[-89.98534500038585,40.853948999737575],[-89.9853410001879,40.85331299972408],[-89.98533799981486,40.85285800011018],[-89.98533600016503,40.85256299981826],[-89.9853339996169,40.85219300007136],[-89.98535100023365,40.851780000177854],[-89.98535700008144,40.85164499974981],[-89.9853620001043,40.85150600023468],[-89.98536600030225,40.851426999695896],[-89.9853770001729,40.85116899974015],[-89.98537499962478,40.85078900016715],[-89.98537600034801,40.85057599978946],[-89.98535899973126,40.850376999905784],[-89.98530799967763,40.84978399966202],[-89.98529099995919,40.84958800016314],[-89.98527500006567,40.84942699980132],[-89.98525400014927,40.84902100004711],[-89.98522599966186,40.848699000254044],[-89.98523200040795,40.84843700019218],[-89.98523700043083,40.848218999776506],[-89.98522400001204,40.8476809998711],[-89.98523099968475,40.84687400031737],[-89.9852290000349,40.846415000178084],[-89.98524099973048,40.8449789997278],[-89.98524300027861,40.84478700018463],[-89.98527300041584,40.844162999696564],[-89.98528299956327,40.84382900021879],[-89.98532500029438,40.840902999814055],[-89.9853339996169,40.83650399966931],[-89.9853339996169,40.836202000267754],[-89.98533299979198,40.832867000027626],[-89.98533299979198,40.82920700030899],[-89.98531900044661,40.82555800030115],[-89.9853200002715,40.82139199978204],[-89.98527000004279,40.818944999973716],[-89.98527400024075,40.81743599999666],[-89.98528199973835,40.81468700025049],[-89.98528199973835,40.81450400013942],[-89.9852840002865,40.81396800010842],[-89.985292999609,40.81124599983066],[-89.98529500015715,40.810649999906744],[-89.9852979996319,40.80991300004608],[-89.98530500020289,40.80790300017251],[-89.98531000022577,40.80726399970026],[-89.98532600011929,40.80580500014884],[-89.98535000040873,40.80147699994387],[-89.98533500034011,40.80018899999338],[-89.9853339996169,40.80012399973307],[-89.98533299979198,40.80007399996033],[-89.98533299979198,40.80003199990447],[-89.98533799981486,40.79855699995154],[-89.98536299992921,40.794141999884744],[-89.98537299997496,40.79267199969716],[-89.98540300011219,40.78974999981628],[-89.98545699964055,40.78100600020912],[-89.98546500003646,40.778098999969565],[-89.98547000005934,40.77729299984471],[-89.98548900032591,40.77488900008988],[-89.9854950001737,40.77410000013196],[-89.98549900037166,40.77352399990516],[-89.98551299971703,40.77177299998309],[-89.98551600009009,40.771276000189374],[-89.98553000033378,40.769988000134504],[-89.98556399977068,40.767010000037736],[-89.98558499968706,40.76517700026222],[-89.98558999970993,40.7647230002464],[-89.98560399995364,40.76349599980618],[-89.9856089999765,40.76310600018716],[-89.98562300022022,40.761812999970104],[-89.98566599987791,40.75800599998163],[-89.98566699970283,40.75795399995228],[-89.98569299964208,40.75611299986831],[-89.98572399960423,40.75339599988429],[-89.985769999635,40.74887399978465],[-89.98576700016025,40.74820899975308],[-89.98576200013738,40.74621900006603],[-89.98576100031248,40.74555600024483],[-89.98578200022887,40.744735999806515],[-89.98584400015314,40.742274999947746],[-89.98586400024463,40.741447999720734],[-89.98586599989446,40.74141999970011],[-89.98596899982662,40.73099500014866],[-89.98594899973511,40.72774600031539],[-89.98594500043548,40.72764600001364],[-89.98593600021466,40.72735099977961],[-89.98593399966651,40.72725399969619],[-89.98592299979587,40.726903999819896],[-89.98591899959791,40.72653399973864],[-89.98589799968151,40.72437500018971],[-89.98589199983374,40.7236559998187],[-89.98588199978798,40.72285499974759],[-89.98586000004669,40.72046100019853],[-89.98585400019888,40.71967100017817],[-89.98605800041338,40.71256999991482],[-89.98606400026118,40.71236100017773],[-89.98606799956083,40.71225700019767],[-89.98609699987314,40.711638999938046],[-89.98613299985814,40.71100399994612],[-89.98613600023118,40.71091800032984],[-89.9862850001941,40.70594599975764],[-89.98631000030846,40.705124999710705],[-89.98636700020988,40.70294700014203],[-89.98637800008053,40.702611000157745],[-89.98641599971536,40.70150099999365],[-89.98642900013415,40.7007699999388],[-89.98647000014203,40.69983599979742],[-89.98649199988336,40.69947400006091],[-89.98653299989122,40.699046000227646],[-89.98660400003634,40.69847499987292],[-89.98664699969406,40.69818999980305],[-89.98666299958757,40.69802000033977],[-89.98667199980841,40.697935000104934],[-89.9867279998849,40.69684599995997],[-89.98672899970983,40.696822000202836],[-89.98675899984704,40.69610500023589],[-89.98677999976343,40.69538499983924],[-89.98687699984781,40.69321699996864],[-89.98689799976421,40.69249300015428],[-89.98692600025163,40.69176899996528],[-89.98692999955126,40.69163699998982],[-89.98693100027448,40.69158100025152],[-89.98693700012225,40.691365999943166],[-89.98694700016803,40.691048999708876],[-89.98695700021376,40.69077899990579],[-89.98705599994797,40.68816200025128],[-89.98708899955992,40.68690499979493],[-89.9870939995828,40.68671400006747],[-89.98709699995584,40.68662899971317],[-89.98712399972001,40.685845000117105],[-89.9871449996364,40.68526899973606],[-89.9871570002303,40.684862999915474],[-89.98718800019243,40.683818000001914],[-89.9871990000631,40.68359999979729],[-89.98721099975866,40.683458999807],[-89.98722500000235,40.68327099981018],[-89.98723800042114,40.68297699985358],[-89.98725400031466,40.68225199978268],[-89.98730299982017,40.68080500000696],[-89.9873670002926,40.67935900023878],[-89.98740800030046,40.67863699992549],[-89.98743199969158,40.677913999864174],[-89.98746500020188,40.67670899982311],[-89.98746699985169,40.676673000205376],[-89.98747299969948,40.676470000312946],[-89.98750700003467,40.675748000049715],[-89.98752799995107,40.67502399984935],[-89.98758300020266,40.67357500022087],[-89.98765199979962,40.67150399975029],[-89.98765500017267,40.67140199974687],[-89.98768699995972,40.670679000259454],[-89.98776300012771,40.668510999976576],[-89.98779499991477,40.66779099989017],[-89.98781699965606,40.66706899967446],[-89.98783099989976,40.66634600022312],[-89.98786500023495,40.66562099985331],[-89.98787799975543,40.664897999695114],[-89.98790399969471,40.66417800012345],[-89.98792200013635,40.66345699995447],[-89.9879740000149,40.66188699979959],[-89.98797099964186,40.661801000151534],[-89.9879809996876,40.66081200031766],[-89.9880230004187,40.659872999774116],[-89.98805600003065,40.65861100022695],[-89.9880650002515,40.65841600030632],[-89.98809000036586,40.658108000304914],[-89.9881149995819,40.65756099974429],[-89.98812899982559,40.656844999659334],[-89.98811999960478,40.6567470000454],[-89.98814600044234,40.65599899989063],[-89.98817499985635,40.655122999893266],[-89.98817700040448,40.65506100019515],[-89.98819599977274,40.654537000093455],[-89.98821500003932,40.65403400012252],[-89.98822400026016,40.653724999869716],[-89.98823099993285,40.65360099986219],[-89.98845000021596,40.647686999802474],[-89.98856499984367,40.644588000231096],[-89.9885930003311,40.6438210000003],[-89.98862799959286,40.642875999885874],[-89.98869700008818,40.64100699990292],[-89.98870999960864,40.64066000006281],[-89.98871499963153,40.64053600031698],[-89.98872999970014,40.639817000246815],[-89.98873700027116,40.63948700032558],[-89.98875800018754,40.63844700033357],[-89.98876599968514,40.63811000032588],[-89.98876900005818,40.63802400002316],[-89.98877300025615,40.637590000150084],[-89.98879499999747,40.63672300015937],[-89.98880300039337,40.63585399971142],[-89.98882099993672,40.63491899995508],[-89.98884100002822,40.634634000155955],[-89.98888000038627,40.634430999791526],[-89.9888960002798,40.63435300012209],[-89.98891100034841,40.634211000227694],[-89.98890200012758,40.63401100018106],[-89.98888399968591,40.63388999991997],[-89.98889200008185,40.63310900021017],[-89.988882999861,40.632678000046184],[-89.988882999861,40.63231400011486],[-89.98888899970878,40.63202499966462],[-89.98890200012758,40.63174499967255],[-89.9889039997774,40.631276999869335],[-89.98890700015046,40.63116100004014],[-89.98890999962519,40.63088800004071],[-89.98890299995249,40.63059300013025],[-89.98891600037129,40.629612999911444],[-89.98891700019621,40.629522999664225],[-89.98892300004398,40.62903900022396],[-89.9889249996938,40.62888100015434],[-89.98892899989175,40.628603000254785],[-89.98895099963306,40.62689000020878],[-89.988959000029,40.62622599969758],[-89.9889940001891,40.625975000300585],[-89.98901799958023,40.625835000039686],[-89.98883199980739,40.625822000132054],[-89.98874200029401,40.62581500007582],[-89.98845500023883,40.625819000205425],[-89.98773299999047,40.6258080000189],[-89.98700900009229,40.62580399988864],[-89.9862840003692,40.62579200017822],[-89.98424999986861,40.62577800005879],[-89.9840320003087,40.625772000201486],[-89.98316000027253,40.62576999979442],[-89.98250800034435,40.62577299972321],[-89.98141700002506,40.62575599967037],[-89.9805459998138,40.62575599967037],[-89.9801109996206,40.62574999981115],[-89.97924299978239,40.62574399995133],[-89.97837199957111,40.62573900029503],[-89.97793700027623,40.625742000225245],[-89.97663000004687,40.62573900029503],[-89.97597899994362,40.625742000225245],[-89.97510699990744,40.62575599967037],[-89.97423999989412,40.62570200023589],[-89.97384599970881,40.625659999812214],[-89.9738089998989,40.62565599967308],[-89.97372799970805,40.625643999936074],[-89.9732459996592,40.6256350001319],[-89.9726769995717,40.62562399991502],[-89.9708229998945,40.62558999972917],[-89.97037799965557,40.62558200012411],[-89.97036000011221,40.62558399985503],[-89.97014300037723,40.62558200012411],[-89.96949200027399,40.62556399981601],[-89.96905700008081,40.62555699973279],[-89.96793800017241,40.625550999855626],[-89.96716800024348,40.62553799989272],[-89.96699800036416,40.625540000306785],[-89.96651499959209,40.62554499997799],[-89.96622599988709,40.625546000184876],[-89.96555399986744,40.62553900009976],[-89.9647770002658,40.62553099980677],[-89.96390799970438,40.62551900004731],[-89.96347099986136,40.62552199998737],[-89.96289599992609,40.62551499989974],[-89.96280499968948,40.62552900007426],[-89.96177199999484,40.62550900001881],[-89.96097500030172,40.625501999929824],[-89.95988800018038,40.62550099972223],[-89.95814800030595,40.625488999957376],[-89.95749800002763,40.62549099969104],[-89.95691600041965,40.62548400028198],[-89.95684600009946,40.62548300007412],[-89.95619300034639,40.625481000340166],[-89.95553999969499,40.62548499980801],[-89.954666000009,40.625467999681874],[-89.95393999956268,40.62546400021301],[-89.95372799985057,40.62546199979672],[-89.95271100004942,40.625458000327555],[-89.95227500003132,40.62546000006214],[-89.95184099966306,40.62546000006214],[-89.95097199999991,40.62544800028992],[-89.94988300022875,40.62544700008153],[-89.94922700010264,40.625454000176326],[-89.9483580004395,40.6254370000423],[-89.94749200025109,40.62543400009842],[-89.9472749996178,40.6254370000423],[-89.9470000001565,40.62543400009842],[-89.94619500006748,40.625425000265935],[-89.945661999965,40.6254050001793],[-89.94557400010146,40.6254039999703],[-89.94411500043444,40.62539699987026],[-89.94180200027458,40.62538500008673],[-89.94028699963275,40.625376999775284],[-89.93948800028981,40.62537300030103],[-89.93660900041552,40.62535900009376],[-89.93475300019016,40.62534799983147],[-89.93171500030721,40.625331999880544],[-89.93128699978672,40.62533000014212],[-89.93031799966614,40.625324999773],[-89.93019899984046,40.625324000244575],[-89.93008800041069,40.625324000244575],[-89.92893199979406,40.62531899987501],[-89.92781399971058,40.62531799966473],[-89.92766800012073,40.625310000027035],[-89.92752400018067,40.625307000077456],[-89.92628100042371,40.62530199970661],[-89.92540799966432,40.625298000227865],[-89.9238949995706,40.62531700013619],[-89.92078600044087,40.62529100011676],[-89.9188540000475,40.625275999681335],[-89.9168110002244,40.62526200013554],[-89.91647899996337,40.625263999876054],[-89.915981000021,40.62526200013554],[-89.9113549997013,40.62524099978866],[-89.91126500018794,40.62524099978866],[-89.9111150004001,40.625240000259026],[-89.91107000019427,40.62524099978866],[-89.9107279998875,40.62523799983599],[-89.90658600016476,40.62521599995151],[-89.9018300001487,40.625191000105],[-89.89978300012763,40.62517999981504],[-89.89935399978224,40.625178000072026],[-89.897752999825,40.62516900020505],[-89.89658799988584,40.62517399990403],[-89.89619700007358,40.62517200016082],[-89.89542499959651,40.62516799999247],[-89.89528099965648,40.62516799999247],[-89.8946990000485,40.62516799999247],[-89.89397799962508,40.625156000167784],[-89.89216800032878,40.62515099978564],[-89.89144500025549,40.62513600000064],[-89.8903609996089,40.62512299995696],[-89.8900850003227,40.62512299995696],[-89.88920400006566,40.625121000212225],[-89.88877300007044,40.62511500029591],[-89.88844199963434,40.625108000165625],[-89.887875000095,40.62509999982101],[-89.88783900010998,40.62509999982101],[-89.88780700032292,40.62509999982101],[-89.88658100028442,40.62508900019788],[-89.88314800039126,40.6250589999148],[-89.88153999986301,40.6250440001091],[-89.88121799964773,40.62504199968023],[-89.88071999970536,40.62503699997136],[-89.87843000001004,40.62501699976854],[-89.8742389998835,40.62497999999123],[-89.8737879997968,40.624975999811376],[-89.87377000025346,40.624975000277736],[-89.87370499995612,40.624975000277736],[-89.87367999984176,40.624975000277736],[-89.8736820003899,40.62459900002311],[-89.8736830002148,40.62451700025221],[-89.87368800023769,40.62448499994843],[-89.87368999988752,40.624386999860306],[-89.8738020000405,40.61863900027461],[-89.87381200008625,40.61814299997148],[-89.87383200017773,40.61714099999199],[-89.8738720003607,40.615173000047754],[-89.87387400001052,40.61509899979559],[-89.87387499983544,40.61502500014339],[-89.87394500015563,40.61166999971032],[-89.87395500020136,40.611140999879815],[-89.87398199996557,40.60988099971421],[-89.87407099965401,40.60260499978802],[-89.87407499985197,40.60222299987877],[-89.87408800027077,40.60101900015762],[-89.8741119996619,40.59890100011711],[-89.87413199975337,40.597041000099324],[-89.87414299962404,40.59602499996763],[-89.87415100001995,40.595329999665786],[-89.8742039997234,40.59275099993934],[-89.87420999957118,40.592467999660656],[-89.87420999957118,40.59243100027565],[-89.87422299998998,40.591833999680844],[-89.87423999970842,40.59099599976064],[-89.87425399995212,40.59033500011878],[-89.87426499982278,40.58981000015744],[-89.87426599964768,40.58973399966817],[-89.87426800019583,40.589664000146456],[-89.87427200039377,40.58947200026352],[-89.87428099971629,40.58900100015588],[-89.87430400018083,40.58791700015082],[-89.87434000016584,40.5842480001561],[-89.87436500028019,40.581696000224305],[-89.87439299986929,40.58149499968903],[-89.87438199999863,40.58142400022795],[-89.87437500032593,40.58128299990241],[-89.87438100017373,40.58092800003599],[-89.87437799980069,40.58085800016669],[-89.87436699993002,40.580791000125664],[-89.87433400031806,40.58072699992203],[-89.87430400018083,40.58069899989894],[-89.87428200043954,40.580679000070205],[-89.87421999961693,40.58064800011923],[-89.87415299966977,40.58063100018401],[-89.87412199970764,40.58062700007822],[-89.87408300024788,40.58062400016929],[-89.87386999981257,40.58061599995664],[-89.87329499987729,40.58061799966875],[-89.8723440001984,40.580591999995214],[-89.87216099990027,40.58058300026331],[-89.8721619997252,40.58049300014865],[-89.8721619997252,40.57994900018284],[-89.8721619997252,40.5769070001081],[-89.8721619997252,40.57506999996014],[-89.87216099990027,40.57323200024191],[-89.87227200022838,40.56717599976669],[-89.8722749997031,40.56703899967417],[-89.87227700025124,40.56690199998362],[-89.87228499974883,40.56650200030847],[-89.87228599957375,40.56636200033503],[-89.8722959996195,40.56588099983264],[-89.87221899962661,40.5621190001991],[-89.87221299977882,40.561826999773324],[-89.8722119999539,40.561758000190125],[-89.8722100003041,40.56168899985336],[-89.87220899958086,40.56160499973312],[-89.87219699988529,40.5610149997368],[-89.87214199963371,40.55835799986024],[-89.87213199958796,40.555680999842025],[-89.87212800028833,40.554613000306766],[-89.87212300026545,40.55313900024462],[-89.87212099971732,40.5527400001608],[-89.87211599969444,40.55138700020991],[-89.87211400004462,40.55086800013874],[-89.87217199977093,40.547399000296465],[-89.87217299959585,40.54733000017783],[-89.872175000144,40.54722600020107],[-89.87217799961871,40.54704000012867],[-89.87220000025836,40.545772000022666],[-89.87218500018973,40.54519899981935],[-89.87219299968734,40.54513000016469],[-89.87221100012901,40.545076999807854],[-89.87221600015187,40.544816999690916],[-89.87223399969523,40.543730999769274],[-89.87220500028123,40.54088900009121],[-89.87217699979381,40.538082999943995],[-89.87217900034194,40.53795599986534],[-89.87218400036483,40.53748900026356],[-89.87220199990817,40.53602700027749],[-89.87220500028123,40.53571499978193],[-89.8722250003727,40.53532300032094],[-89.87222299982457,40.53455000016536],[-89.87224999958873,40.53219700023597],[-89.87226200018262,40.5313470000578],[-89.87227300005328,40.53062300032246],[-89.87228700029698,40.52954600015929],[-89.87237199978749,40.52288700010609],[-89.87237599998545,40.52252699998583],[-89.87239000022915,40.52144700031599],[-89.87239500025201,40.52108799969464],[-89.87239500025201,40.52102300004422],[-89.87239899955166,40.52083000016454],[-89.8724000002749,40.52076599998972],[-89.87240299974962,40.52048599970168],[-89.8724150003435,40.519646999757384],[-89.87241899964313,40.51936800000518],[-89.8724210001913,40.51893699992175],[-89.87243100023703,40.51764499989097],[-89.87243399971175,40.51721500011867],[-89.87243500043499,40.51692100032906],[-89.87244200010768,40.51604200012581],[-89.87244399975752,40.51574899977351],[-89.87244399975752,40.515610000028005],[-89.87244799995547,40.5151929997453],[-89.87244899978037,40.51505500002396],[-89.8724499996053,40.51483900021646],[-89.87245499962815,40.51419100003371],[-89.8724570001763,40.5139760000017],[-89.8724570001763,40.51380599982185],[-89.87246100037427,40.51329600011102],[-89.87246200019916,40.51322500002311],[-89.87091200029555,40.51406299992299],[-89.86719300017212,40.51607399974409],[-89.86480800004225,40.51727900026903],[-89.86392199976235,40.517680999880206],[-89.8627910001584,40.51819500012208],[-89.85984799981169,40.519552000253604],[-89.85888600026215,40.520145999828195],[-89.85819699962573,40.52069500030052],[-89.8572230003806,40.521315999882155],[-89.85560900000459,40.522134000150956],[-89.85409000006311,40.52285300025326],[-89.85320100030849,40.52322100023369],[-89.85255199985507,40.52344800030892],[-89.8522520002794,40.52355300001148],[-89.85186899996475,40.523650999722044],[-89.85117299965567,40.52383000005677],[-89.84945399969766,40.52433099974559],[-89.84787600020493,40.52481500001433],[-89.84639700044643,40.52531999984903],[-89.83859900034948,40.528531999795156],[-89.83852599965624,40.52856199969491],[-89.83832499981479,40.52863699972682],[-89.83703299965401,40.52897700023004],[-89.83611899978504,40.52925300010908],[-89.83368299960155,40.53032899993574],[-89.8334530003461,40.5304309996726],[-89.83085599960577,40.531770999884735],[-89.82870700037577,40.53303999966078],[-89.82826399978667,40.5332819998503],[-89.82547199995102,40.53480900033569],[-89.82282599970523,40.53641800022351],[-89.8186000003169,40.53840599988705],[-89.81531100036379,40.5398320001639],[-89.81468299982676,40.540103999909185],[-89.81356999976614,40.54056400028813],[-89.81205699967245,40.54102200002647],[-89.81010000006306,40.541570000064176],[-89.80874799962787,40.54188400010344],[-89.807608999628,40.54214899976532],[-89.80544399960613,40.54262799995617],[-89.80387199996122,40.54309800014039],[-89.80316999980434,40.54332499978615],[-89.80210699997244,40.54366799968603],[-89.7988940001873,40.54476799997071],[-89.79811599986245,40.54503399987394],[-89.79430100037789,40.54631399994569],[-89.79421400033924,40.546343000048445],[-89.79043199956828,40.54742699991869],[-89.78882899996125,40.54782900027465],[-89.78672000001589,40.54846300023838],[-89.78591099972888,40.54870699999016],[-89.78423600015181,40.54929999987179],[-89.7840880000138,40.54935300029965],[-89.78276200041616,40.54987499974864],[-89.78069799977834,40.55079500034001],[-89.78032299985962,40.55099700022434],[-89.77940599961758,40.55149099986794],[-89.77835100018162,40.551984000019935],[-89.77773900043641,40.552219999716314],[-89.77718600024247,40.552392999879274],[-89.77689699963915,40.552465000048194],[-89.77541500040591,40.55270900023437],[-89.77517000018352,40.55273599975279],[-89.77384399968759,40.552883999674954],[-89.77255499989988,40.55298100024431],[-89.77123599997495,40.55307899991692],[-89.76979800022433,40.55308400023065],[-89.76966599997985,40.55308400023065],[-89.76775700005102,40.55296500003341],[-89.76502799996457,40.55265000013661],[-89.76257599988753,40.55240499979906],[-89.75942400020178,40.552134000119935],[-89.75564999982674,40.551684000177026],[-89.75561100036701,40.55167899975875],[-89.75483600041521,40.55158699977645],[-89.75103299972787,40.55114399993957],[-89.75094599968924,40.551129999883074],[-89.750330999571,40.551044000251956],[-89.75010499961519,40.55101200026579],[-89.74801400011151,40.55071500004842],[-89.74594199997608,40.550549000076956],[-89.74511199977267,40.550556999789],[-89.74425300015528,40.55059900030903],[-89.74312699967588,40.55069700005494],[-89.74280000033605,40.55074099972703],[-89.74142199996157,40.550927999717366],[-89.74134400014376,40.55094700028944],[-89.73921299955879,40.55145099980857],[-89.7370319996434,40.552030000095414],[-89.73698700033589,40.55204000019671],[-89.73356100011542,40.5528080002354],[-89.73307800024166,40.5528999999052],[-89.73053599975293,40.55338399994418],[-89.72817999993538,40.553680000009535],[-89.72672600029122,40.55395699973631],[-89.72533399967305,40.554053000204625],[-89.72432500026784,40.55425299999872],[-89.72272299958736,40.554698000229784],[-89.72067499974138,40.55528899982633],[-89.71925700008222,40.55570999998356],[-89.7183599999317,40.55597600010752],[-89.71832899996957,40.555989999833336],[-89.71808100027245,40.55602700026459],[-89.71580999994536,40.556423000242404],[-89.71423900012536,40.556551999863856],[-89.7133899996554,40.556573999827386],[-89.71176500030703,40.55662799983133],[-89.7099259998001,40.5568629996699],[-89.70862899961648,40.55712999985627],[-89.70711999972073,40.5576070003379],[-89.7062710001491,40.55802699971679],[-89.70524900032507,40.558708999991524],[-89.70434600032675,40.5593799999428],[-89.70376100034574,40.5597910000019],[-89.70292399957134,40.56040299993702],[-89.7022599999476,40.56086399993147],[-89.70177000040117,40.56113399995805],[-89.70118700006998,40.56135300010485],[-89.70084200028846,40.5615229997903],[-89.70048400008818,40.56169299972644],[-89.70014199978142,40.561785999950416],[-89.69961000040219,40.561871000320956],[-89.69908399997239,40.56193699972332],[-89.69832699956393,40.56200700027988],[-89.69707200011142,40.56203199987592],[-89.69649100032836,40.56195899996463],[-89.69548799987261,40.56178399967545],[-89.69390500035705,40.561323999677846],[-89.69287699978693,40.5608859998429],[-89.69229500017897,40.56061499968475],[-89.69184999994005,40.56040799970383],[-89.69088900021539,40.559840000332144],[-89.68992900031567,40.5592209998209],[-89.68884600039229,40.55843600020008],[-89.68827800012971,40.55791399992197],[-89.68776199974567,40.55737099983616],[-89.68696500005255,40.55612899977966],[-89.68667700017248,40.555527999828655],[-89.68650200027028,40.55528299978391],[-89.68615499994064,40.55470000003394],[-89.6857769996489,40.55407299980136],[-89.68521199975936,40.55349699987681],[-89.68435700033993,40.553029000171506],[-89.68334200018859,40.55273299995848],[-89.68291100019339,40.552590999986805],[-89.68253700009956,40.552466999919055],[-89.6817720001935,40.55233300024818],[-89.6811379998087,40.552340999747095],[-89.68042300013134,40.552458999752666],[-89.68005900008326,40.55255600025514],[-89.67964200033175,40.552666999672645],[-89.67960899982147,40.552680000158134],[-89.67929900020007,40.552809000165716],[-89.67828999989653,40.553225999839434],[-89.6767669997571,40.55372299985251],[-89.67585999956081,40.55398200029099],[-89.67535400012085,40.55412599986427],[-89.6753020002423,40.554140999887274],[-89.67527100028016,40.554149999763034],[-89.67511800011928,40.554216999861474],[-89.67495099971472,40.55429000002486],[-89.67479599990399,40.554357999890385],[-89.67444899957438,40.55450999994233],[-89.67355899999484,40.55505999998621],[-89.6720579995967,40.556161999930715],[-89.67010500018527,40.55754500019988],[-89.66787200039137,40.559269000052055],[-89.66607700026536,40.56085399978319],[-89.66470700028681,40.56204700017503],[-89.66430899990355,40.56240400015992],[-89.66346899965441,40.56315000021958],[-89.66172700013017,40.56453399987487],[-89.66150500037233,40.56471999980583],[-89.6608330003527,40.56528299999456],[-89.66046599993156,40.56558900012274],[-89.6603980001595,40.56564699999825],[-89.65913299976293,40.56685099992259],[-89.65862999979768,40.56736100014887],[-89.65760100030099,40.568405999805385],[-89.65630599976717,40.57008399978816],[-89.65546499969312,40.57123900027041],[-89.65507600042902,40.571933000188366],[-89.6550470001167,40.57199499996451],[-89.65483000038172,40.57246399977804],[-89.65474800036596,40.572639999753136],[-89.65460100005286,40.57303800033134],[-89.65457599993852,40.573234999799965],[-89.65453599975554,40.57348200025381],[-89.65446899980839,40.573703999792556],[-89.65443899967116,40.573806999964646],[-89.65441899957968,40.573872999878915],[-89.65431900002055,40.57420700032841],[-89.65426299994405,40.574986999857146],[-89.6542379998297,40.57533999999405],[-89.6542300003321,40.57544700011038],[-89.65407700017123,40.57643399969459],[-89.65393499988099,40.5777029999883],[-89.65388899985024,40.57850900019056],[-89.65404399966093,40.57898299980092],[-89.65425000042357,40.579730000164204],[-89.6543499999827,40.58003299979416],[-89.65450899999136,40.580517999662],[-89.65478299962774,40.58115100030084],[-89.65489800015376,40.58141600011096],[-89.65528800014111,40.582284999889644],[-89.6563700002396,40.58433599971095],[-89.65701399977183,40.58546499993955],[-89.65802999974807,40.58758700030185],[-89.65859899983555,40.58877499991427],[-89.65878999963125,40.589174000078295],[-89.65884499988283,40.589490000062774],[-89.65885199955554,40.58952799977468],[-89.65926900020537,40.59079900006685],[-89.65974200003339,40.592918000313176],[-89.65994299987483,40.594309000173475],[-89.65996999963902,40.594626999741664],[-89.66008900036302,40.59605399967994],[-89.6600669997234,40.59643700001572],[-89.66007000009644,40.59645400002609],[-89.66006500007359,40.5964710000321],[-89.66005400020292,40.59666400023884],[-89.65999700030152,40.59765600023205],[-89.6595389996438,40.598883000122896],[-89.65902499980788,40.600343000125676],[-89.65879499965413,40.6009969998001],[-89.65799999961084,40.60262499988022],[-89.6567719999225,40.60407100010286],[-89.65664800007394,40.604217999872205],[-89.6554630000433,40.605635000097],[-89.65368800000878,40.60749000003046],[-89.65186500029371,40.608993000055946],[-89.6517179999806,40.60911399973304],[-89.64961200040831,40.61122100022481],[-89.64668199958207,40.61384899966466],[-89.64423000040337,40.616216999790716],[-89.64295199958799,40.617277000105766],[-89.64243100007938,40.61771000007811],[-89.64180799956523,40.61822700001786],[-89.64162099996749,40.61838199980191],[-89.63823800030305,40.62128900027963],[-89.63724599971795,40.62208799970341],[-89.6370669996178,40.622233000237436],[-89.63632199980322,40.62283300008868],[-89.63591799957219,40.62312800018693],[-89.63535199985775,40.6235490003034],[-89.63446599957786,40.62420899993073],[-89.63413800041312,40.62445200008789],[-89.63221799971532,40.62588300020112],[-89.63112100044656,40.62679900019437],[-89.62923599990886,40.628258999846366],[-89.62907100005243,40.628432999917706],[-89.62891700006665,40.62859000020422],[-89.62874200016446,40.62868899973915],[-89.62857700030803,40.62887099994751],[-89.62850000031513,40.62898600019052],[-89.62838999981196,40.629127000135185],[-89.62829100007775,40.629276000309304],[-89.6282030002142,40.62941700032344],[-89.62811399962742,40.6295490000814],[-89.62801499989322,40.62969000020087],[-89.62787199977811,40.6298959997242],[-89.62766300043903,40.63016099995032],[-89.62750799973003,40.63040099986503],[-89.62731000026162,40.63067399981023],[-89.62706699968906,40.63109600020645],[-89.6269570000842,40.63126999970317],[-89.62685699962678,40.63141100027919],[-89.62659200021123,40.631833000108216],[-89.62640499971516,40.63207300014919],[-89.62614199994943,40.63231199990377],[-89.62512199977523,40.63319500002702],[-89.6248360004433,40.63348500027334],[-89.62470199965067,40.63360300032801],[-89.62451800042597,40.63376499978614],[-89.62438600018149,40.63391399983706],[-89.62418799981477,40.63407900014146],[-89.62390400013264,40.634227000096494],[-89.62370699959084,40.634309000215914],[-89.62363399979591,40.634341999977835],[-89.62348800020604,40.634408000134485],[-89.62317100001363,40.634580999791254],[-89.62267800009413,40.63494799983298],[-89.62252099973529,40.635063999900225],[-89.62243899971952,40.63512400032608],[-89.62226299999243,40.63525599970976],[-89.62223899970299,40.63527400013227],[-89.62151599962972,40.63579299988815],[-89.62116599982535,40.63606899975042],[-89.62083600011246,40.63632899979211],[-89.62021099994848,40.63681599967852],[-89.61981599993827,40.637145999851356],[-89.6194870000503,40.63743499994984],[-89.61922299956134,40.63770799976655],[-89.61919599979717,40.637738999844956],[-89.61858499987689,40.638427000056964],[-89.61809000030756,40.63898100005006],[-89.6177830001609,40.63932799975636],[-89.61713399970748,40.64002199989278],[-89.6168259997359,40.640401999815985],[-89.6160220003701,40.64147800025532],[-89.61541499974946,40.64239600026513],[-89.6145440004365,40.64362900028542],[-89.61356299972206,40.64491000013782],[-89.6131230004043,40.64544000031847],[-89.6126160002411,40.646109000103245],[-89.61237400039177,40.646457000136444],[-89.6122069999872,40.64677999977552],[-89.6120959996591,40.647037000021754],[-89.6119400000235,40.6474429998049],[-89.6117640002964,40.64773999998571],[-89.61156500010478,40.64809600000975],[-89.6113550000425,40.6483939998754],[-89.6112219999731,40.648659000289385],[-89.61110999982012,40.648973999965605],[-89.61106499961426,40.649239000121106],[-89.61104000039822,40.64960500015635],[-89.61094699961349,40.650226999935626],[-89.61088999971209,40.65053299985136],[-89.61087800001651,40.65072400032136],[-89.61090899997866,40.65093200002584],[-89.61094999998654,40.651264000255345],[-89.61093599974284,40.651596000196044],[-89.61092300022237,40.65183699988194],[-89.6109320004432,40.65205300004844],[-89.61094199959062,40.65222700012841],[-89.61097299955277,40.652322000149],[-89.61100600006303,40.652417999838725],[-89.61107999968287,40.65261799994135],[-89.61118799963792,40.65282599987563],[-89.61132699955508,40.653033999843],[-89.61139199985242,40.653133999727515],[-89.61155400023412,40.65330900018718],[-89.61172699958817,40.65347599983564],[-89.6123340002088,40.653844000050526],[-89.6129960001827,40.65425399978108],[-89.61363499969207,40.65470499984592],[-89.61418700006112,40.65517300033334],[-89.61482499974558,40.65574799997482],[-89.6155710002834,40.65653199982475],[-89.6158189999805,40.656823999705495],[-89.61599200023286,40.65703200015734],[-89.61611000023365,40.657181999799015],[-89.61617499963266,40.65725700017481],[-89.6163040004024,40.65750700013715],[-89.61645300036531,40.65788900012924],[-89.61654799990156,40.65832100010355],[-89.61656600034321,40.65871099993023],[-89.6166070003511,40.65911799994259],[-89.61660300015315,40.65961599989986],[-89.61658999973434,40.65985699991954],[-89.61652100013738,40.66031300006273],[-89.61640899998437,40.66067000015122],[-89.61636899980141,40.66075900029571],[-89.61624199957981,40.661046000335524],[-89.61609799963976,40.66130700019955],[-89.61597299996629,40.66151900033737],[-89.6158549999655,40.66172099974543],[-89.61558999965163,40.66217599975386],[-89.6153899996351,40.66260700025258],[-89.61527900020535,40.66285499994918],[-89.61506900014305,40.66318599980841],[-89.61463899997274,40.66382399999374],[-89.61413099998462,40.664551999686154],[-89.61395500025753,40.664815999678034],[-89.6137560000659,40.665081000283735],[-89.6134599997899,40.66537000002682],[-89.61309699956674,40.665732999978715],[-89.6126799998152,40.66611300000037],[-89.61236599999586,40.66643400001357],[-89.61228399998008,40.66651799995305],[-89.61213300036735,40.666659999934524],[-89.61166899986185,40.66709600004217],[-89.61118299961504,40.667530000187696],[-89.61113199956141,40.66757599983345],[-89.61091099962849,40.66777300006096],[-89.61014200042277,40.66853299990224],[-89.60947100022804,40.669186000151804],[-89.60830600028889,40.67030899981519],[-89.60756999979684,40.6710609997648],[-89.60661300027014,40.67199399971594],[-89.60597300003755,40.67266399983386],[-89.60574500043192,40.67290300004265],[-89.60509599997849,40.67353000011331],[-89.60454899963233,40.67404299981148],[-89.60409099987291,40.67444699982093],[-89.6035479997247,40.67492599969241],[-89.60216900042363,40.67614300013955],[-89.60072900012487,40.67734300031302],[-89.60044000041985,40.677571000268145],[-89.60039500021402,40.6776070000822],[-89.60032700044195,40.67765999965953],[-89.59920900035847,40.67854400009984],[-89.59877800036325,40.67888499996178],[-89.59688299977984,40.68033999971672],[-89.59579400000867,40.681246999914315],[-89.59523699961674,40.68171099996196],[-89.59421800016578,40.682541000042036],[-89.59285599968483,40.68383800029749],[-89.59194799966363,40.684514999949805],[-89.59193299959502,40.68452599999805],[-89.59190099980796,40.68455000009702],[-89.59185300012739,40.68457700019807],[-89.5902639998657,40.68549299987029],[-89.5898820002743,40.68571399997345],[-89.58918599996521,40.686093999883035],[-89.5890300003296,40.68618800005344],[-89.5886779999771,40.68640400001507],[-89.58843000027997,40.68654599987968],[-89.58819000008046,40.686686000179094],[-89.58775800026032,40.6869259998136],[-89.5871580002107,40.687221000025055],[-89.5868200001019,40.68738999983499],[-89.58644500018318,40.68754499979167],[-89.58618200041744,40.68764299978923],[-89.58591999957831,40.687755999663146],[-89.58569500034572,40.68783999998777],[-89.58539499987175,40.68796600027617],[-89.58496300005162,40.68812100025554],[-89.58487799966281,40.68815300002178],[-89.5843069999255,40.68837400015924],[-89.58394200005253,40.688526000037996],[-89.58383800029544,40.6885700002967],[-89.5838209996787,40.68857899978872],[-89.5837160000967,40.6886159997311],[-89.58335100022373,40.6887529999463],[-89.58277000044068,40.688934999836434],[-89.58233799972223,40.689103000132185],[-89.5819259999936,40.68928599968043],[-89.58155000024995,40.6895260001687],[-89.58125300014902,40.68969299972886],[-89.5809479996522,40.68997800004693],[-89.58057100008362,40.69033200027903],[-89.58028900005134,40.69054400009492],[-89.58010300027848,40.690675000280095],[-89.5799690003842,40.690770000029744],[-89.5796870003519,40.690941000191366],[-89.5795750001989,40.691009999941166],[-89.57910499984561,40.69130599968579],[-89.57878500017847,40.69151799980852],[-89.57835300035835,40.691814000021004],[-89.57808899986937,40.69204100030783],[-89.57780600001216,40.69232399966342],[-89.57743000026854,40.69263499998542],[-89.57699800044838,40.692903000003],[-89.57674200035535,40.693042000011964],[-89.57622799962114,40.693297000048766],[-89.57594599958884,40.6934380003392],[-89.57558999993667,40.69357799978169],[-89.57513999967489,40.69374699981629],[-89.57476499975617,40.69390100010727],[-89.57410899963004,40.694083000239914],[-89.57360300019008,40.694236999754324],[-89.5730779995852,40.694361999668956],[-89.57255399970356,40.69448799988499],[-89.57199200018708,40.69462699999281],[-89.57150500011537,40.69480900018561],[-89.57096100014225,40.695006000312965],[-89.57052900032211,40.69520299985776],[-89.57020999958156,40.69540000018227],[-89.5698530001045,40.695583000145106],[-89.56962899979851,40.69566099975312],[-89.56949900010217,40.69570900009524],[-89.56930900013137,40.69578000002708],[-89.56889700040274,40.69591999999707],[-89.56829700035311,40.69607300020187],[-89.56773499993831,40.696198000077274],[-89.56767200018912,40.69621499989509],[-89.5672479998666,40.69632400022647],[-89.56687399977278,40.69636400011592],[-89.56640599996763,40.69643299969842],[-89.56591999972082,40.696516000157736],[-89.5654240003266,40.69664000006049],[-89.56421500000651,40.69696200002636],[-89.5637279999348,40.69703099967065],[-89.5633349995744,40.697099999924504],[-89.56286699976927,40.697169000106896],[-89.5623060000777,40.69726499994566],[-89.5617999997394,40.697391000120085],[-89.56129400029943,40.697502000189765],[-89.56082599959596,40.6976270001082],[-89.560208000003,40.69772399977428],[-89.55970300038794,40.69777800018722],[-89.55925399995105,40.69786100033293],[-89.5588420002224,40.6979439996942],[-89.55854199974843,40.69799899973098],[-89.55822200008129,40.6981060002667],[-89.55765600036685,40.69838899974134],[-89.55711200039373,40.698708000051795],[-89.55595199957914,40.69963199984543],[-89.55452800007221,40.70117999992897],[-89.5536250000739,40.70228400020554],[-89.55310100019226,40.70308600030673],[-89.5528519997719,40.703557000236536],[-89.55274200016704,40.70376400025383],[-89.5523089996237,40.70490600005198],[-89.55200800022313,40.70574999966166],[-89.55194700012376,40.70592399992153],[-89.55156100033437,40.70695899969281],[-89.55117700019483,40.707887000088824],[-89.55074200000165,40.70908300010872],[-89.55047500003796,40.70982300020013],[-89.5500499998905,40.710967000180226],[-89.54961499969733,40.71200500001754],[-89.54927300028888,40.71281200011682],[-89.54883399989775,40.71435900003613],[-89.54839600022983,40.715720999703],[-89.54810800034973,40.71683600012586],[-89.54803700020463,40.717111999668255],[-89.5478599997543,40.71779900010984],[-89.54773599990574,40.718229000301996],[-89.54729499986479,40.719762000163634],[-89.54714000005407,40.72020599998432],[-89.54709300019843,40.720340000151936],[-89.54706300006119,40.720418000044006],[-89.54700600015977,40.720593999709045],[-89.54676400031045,40.7212939999911],[-89.54654300037751,40.72218499974089],[-89.54641399960775,40.72299399988679],[-89.5464930001488,40.72366299982188],[-89.54661399962431,40.7243179999741],[-89.54683399973233,40.724609999786644],[-89.54716500016845,40.72503599992442],[-89.54732099980404,40.725195999802345],[-89.54754400028513,40.72542500015826],[-89.54793699974721,40.72588800018907],[-89.54820399971089,40.726361999670175],[-89.54845599960596,40.72674199986085],[-89.54888400012645,40.72758799983782],[-89.54907900012012,40.7281839997986],[-89.5493589996043,40.72891299977347],[-89.5494649999095,40.72954299976479],[-89.54957200003962,40.72996800031766],[-89.54960300000178,40.73051700033265],[-89.54960100035194,40.73200400028605],[-89.54953100003175,40.73268199984395],[-89.54947800032829,40.73331100027587],[-89.54945599968869,40.73568600000055],[-89.54949800041979,40.73627999976455],[-89.54955699997102,40.73678900002274],[-89.54972699985031,40.73738400003984],[-89.54994299976038,40.73806399966895],[-89.55014399960186,40.738779999945564],[-89.55017999958685,40.738867000190794],[-89.55025599975484,40.73905099968535]]]},"properties":{"NAME":"Peoria County","GEOID":"17143"}}]}